{"features":[{"geometry":{"coordinates":[[[117.35,39.19985],[117.360509,39.19945],[117.370916,39.198252],[117.381123,39.196268],[117.391029,39.193518],[117.40054,39.190028],[117.409565,39.185831],[117.418016,39.180968],[117.425812,39.175486],[117.432878,39.169438],[117.439145,39.162881],[117.444555,39.155879],[117.449053,39.1485],[117.452598,39.140814],[117.455154,39.132895],[117.456698,39.12482],[117.457214,39.116667],[117.456698,39.108513],[117.455154,39.100438],[117.452598,39.09252],[117.449053,39.084834],[117.444555,39.077454],[117.439145,39.070452],[117.432878,39.063896],[117.425812,39.057847],[117.418016,39.052365],[117.409565,39.047502],[117.40054,39.043305],[117.391029,39.039815],[117.381123,39.037065],[117.370916,39.035081],[117.360509,39.033884],[117.35,39.033483],[117.339491,39.033884],[117.329084,39.035081],[117.318877,39.037065],[117.308971,39.039815],[117.29946,39.043305],[117.290435,39.047502],[117.281984,39.052365],[117.274188,39.057847],[117.267122,39.063896],[117.260855,39.070452],[117.255445,39.077454],[117.250947,39.084834],[117.247402,39.09252],[117.244846,39.100438],[117.243302,39.108513],[117.242786,39.116667],[117.243302,39.12482],[117.244846,39.132895],[117.247402,39.140814],[117.250947,39.1485],[117.255445,39.155879],[117.260855,39.162881],[117.267122,39.169438],[117.274188,39.175486],[117.281984,39.180968],[117.290435,39.185831],[117.29946,39.190028],[117.308971,39.193518],[117.318877,39.196268],[117.329084,39.198252],[117.339491,39.19945],[117.35,39.19985]]],"type":"Polygon"},"properties":{"area_group":"CN","category":"other","date":"2026-09-27","ended_by":null,"estimated_end":false,"fir":"ZBPE","first_seen":"2026-09-27T12:01:24+00:00","focus_tag":"admin","geometry_source":"qline-circle","icao_location":"ZBTJ","issuer":"ZBBBYNYX","keyword_hit":false,"kind":"area","last_updated":"2026-09-27T07:48:00.000Z","lower":null,"matched_keywords":[],"nms_id":"1790495335044000","notam_type":"N","number":"E3868/26","q_code":"QIDAS","qline_offset_nm":null,"radius_nm":5.0,"raw_text":"E3868/26 NOTAMN\r\nQ)ZBPE/QIDAS/I/NBO/A/000/999/3907N11721E005\r\nA)ZBTJ B)2609290100 C)2609291200 \r\nE) RWY34L DME 'ICG' CH42X U/S DUE TO MAINT.\r\n ","series":"E","source":"nms","status":"upcoming","title":"中国本土 ZBTJ E3868/26","upper":null,"valid_end":"2026-09-29T12:00:00+00:00","valid_raw":[],"valid_start":"2026-09-29T01:00:00+00:00"},"type":"Feature"},{"geometry":{"coordinates":[[[117.35,39.19985],[117.360509,39.19945],[117.370916,39.198252],[117.381123,39.196268],[117.391029,39.193518],[117.40054,39.190028],[117.409565,39.185831],[117.418016,39.180968],[117.425812,39.175486],[117.432878,39.169438],[117.439145,39.162881],[117.444555,39.155879],[117.449053,39.1485],[117.452598,39.140814],[117.455154,39.132895],[117.456698,39.12482],[117.457214,39.116667],[117.456698,39.108513],[117.455154,39.100438],[117.452598,39.09252],[117.449053,39.084834],[117.444555,39.077454],[117.439145,39.070452],[117.432878,39.063896],[117.425812,39.057847],[117.418016,39.052365],[117.409565,39.047502],[117.40054,39.043305],[117.391029,39.039815],[117.381123,39.037065],[117.370916,39.035081],[117.360509,39.033884],[117.35,39.033483],[117.339491,39.033884],[117.329084,39.035081],[117.318877,39.037065],[117.308971,39.039815],[117.29946,39.043305],[117.290435,39.047502],[117.281984,39.052365],[117.274188,39.057847],[117.267122,39.063896],[117.260855,39.070452],[117.255445,39.077454],[117.250947,39.084834],[117.247402,39.09252],[117.244846,39.100438],[117.243302,39.108513],[117.242786,39.116667],[117.243302,39.12482],[117.244846,39.132895],[117.247402,39.140814],[117.250947,39.1485],[117.255445,39.155879],[117.260855,39.162881],[117.267122,39.169438],[117.274188,39.175486],[117.281984,39.180968],[117.290435,39.185831],[117.29946,39.190028],[117.308971,39.193518],[117.318877,39.196268],[117.329084,39.198252],[117.339491,39.19945],[117.35,39.19985]]],"type":"Polygon"},"properties":{"area_group":"CN","category":"other","date":"2026-09-27","ended_by":null,"estimated_end":false,"fir":"ZBPE","first_seen":"2026-09-27T12:01:24+00:00","focus_tag":"admin","geometry_source":"qline-circle","icao_location":"ZBTJ","issuer":"ZBBBYNYX","keyword_hit":false,"kind":"area","last_updated":"2026-09-27T07:58:00.000Z","lower":null,"matched_keywords":[],"nms_id":"1790495930210000","notam_type":"N","number":"E3869/26","q_code":"QICAS","qline_offset_nm":null,"radius_nm":5.0,"raw_text":"E3869/26 NOTAMN\r\nQ)ZBPE/QICAS/I/NBO/A/000/999/3907N11721E005\r\nA)ZBTJ B)2609290100 C)2609291200 \r\nE) RWY34L ILS U/S DUE TO MAINT.\r\n ","series":"E","source":"nms","status":"upcoming","title":"中国本土 ZBTJ E3869/26","upper":null,"valid_end":"2026-09-29T12:00:00+00:00","valid_raw":[],"valid_start":"2026-09-29T01:00:00+00:00"},"type":"Feature"},{"geometry":{"coordinates":[[[[109.951944,25.665833],[111.3925,27.774722],[110.956667,27.855556],[112.087222,24.139722],[109.951944,25.665833]]],[[[111.3925,27.774722],[109.951944,25.665833],[111.3925,27.774722],[111.3925,27.774722]]]],"type":"MultiPolygon"},"properties":{"area_group":"CN","category":"other","date":"2026-09-27","ended_by":null,"estimated_end":false,"fir":"ZXXX","first_seen":"2026-09-27T12:01:24+00:00","focus_tag":"admin","geometry_source":"text-polygon","icao_location":"ZGZU","issuer":"ZBBBYNYX","keyword_hit":false,"kind":"area","last_updated":"2026-09-27T08:21:00.000Z","lower":null,"matched_keywords":[],"nms_id":"1790497271714000","notam_type":"N","number":"A4957/26","q_code":"QARXX","qline_offset_nm":null,"radius_nm":null,"raw_text":"(A4957/26 NOTAMN \nQ)ZXXX/QARXX/IV/NBO/E/000/999/ \nA)ZGZU ZHWH B)2609280330 C)2609280440 \nE) 1.ATS ROUTE G586 SEGMENT GMC-ALGAG, ATS ROUTE R343 \nSEGMENT MAMSI-ABTUD AND ATS ROUTE W45 SEGMENT NUPTI-VESUX NOT AVBL \nDUE TECHNICAL REASONS. ALL AFFECTED FLIGHTS SHALL BE ADJUSTED. \n2.FLIGHT PLANS FOR AFFECTED FLIGHTS SHALL BE FILED BASED ON \nORIGINAL FLIGHT TRACKS. FLIGHT CREWS SHALL PREPARE REROUTING DATA \nAND FOLLOW ATC INSTRUCTIONS TO IMPLEMENT REROUTING. \n3. REROUTING METHODS AS FOLLOWS: \n3.1.FLIGHTS VIA ENKUS-R343-ABTUD TO BEYOND ABTUD, SHALL ADJUST TO \nENKUS-CG1(N253957E1095707)-CG2(N274629E1112333)-ABTUD TO BEYOND \nABTUD. \n3.2.FLIGHTS VIA GOSMA-R343-MAMSI TO BEYOND LAIBIN VOR 'LBN', SHALL \nADJUST TO GOSMA-CHANGDE NDB 'CD'-SANJIANG VOR 'SJG'- LAIBIN VOR \n'LBN' FOR BEYOND LAIBIN VOR 'LBN'. \n3.3.FLIGHTS VIA MILOP-W226-OLTUS-R343-MAMSI TO BEYOND LAIBIN VOR \n'LBN', SHALL ADJUST TO MILOP-W226-IRSAS-CG3 (N275120 \nE1105724)-SANJIANG VOR 'SJG'- LAIBIN VOR 'LBN' FOR BEYOND LAIBIN \nVOR 'LBN'. \n3.4.FLIGHTS VIA CHANGDE NDB 'CD'-W45-NUPTI-R343-MAMSI TO \n ) \n// // BEYOND \nLAIBIN VOR 'LBN', SHALL ADJUST TO CHANGDE NDB \n'CD'-SANJIANG VOR 'SJG'-LAIBIN VOR 'LBN' FOR BEYOND LAIBIN VOR \n'LBN'. \n3.5.FLIGHTS VIA XOPEK-W45-NUPTI ARR ZGGG, SHALL ADJUST TO \nXOPEK-W138-RUKLI-W227-UKBOL-W228-APESO-W37-OMBEB-R473-BEMAG-V5-ENVI \nP FOR ARR ZGGG. \n3.6.FLIGHTS VIA LAOLIANGCANG VOR 'LLC'-R343-NUPTI ARR ZGGG, \nSHALL ADJUST TO LAOLIANGCANG VOR \n'LLC'-RUKLI-W227-UKBOL-W228-APESO-W37-OMBEB-BEMAG-V5-ENVIP FOR ARR \nZGGG. \n3.7.FLIGHTS VIA ERTANG VOR 'GMC'-G586-OSNOV TO BEYOND OSNOV, SHALL \n ADJUST TO ERTANG VOR 'GMC'-B330-MUBEL-OSNOV FOR BEYOND OSNOV. \n3.8.FLIGHTS VIA MOLSO-G586-ERTANG VOR 'GMC' TO BEYOND ERTANG VOR \n'GMC', SHALL ADJUST TO MOLSO-CG4 (N240823E1120514)-ERTANG VOR \n'GMC' FOR BEYOND ERTANG VOR 'GMC'. \n3.9.FLIGHTS VIA LIPNO-W24-OSNOV-G586 TO BEYOND ERTANG VOR 'GMC', \nSHALL ADJUST TO LIPNO-ERTANG VOR 'GMC' FOR BEYOND ERTANG VOR \n'GMC'. \n3.10.FLIGHTS DEP ZGGG TO BEYOND ERTANG VOR 'GMC', RADAR VECTOR \nDIRECT TO \n ) \n// // ERTANG VOR 'GMC' FOR BEYOND ERTANG VOR 'GMC'. \n3.11.FLIGHTS VIA ENKUS-R343-AVNEL-W618-SEBMO ARR ZGHA, SHALL \nADJUST TO ENKUS-CG1 (N253957E1095707)-CG2(N274629E1112333)-SEBMO \nFOR ARR ZGHA. \n3.12. FLIGHTS(DEPARTURE FROM ZGKL) VIA GUILIN VOR \n'KWL'-ONEMI-R343-ABTUD TO BEYOND ABTUD SHALL ADJUST TO: \nAFTER DEPARTURE FROM ZGKL,SHALL FLW ATC(RADAR VECTOR) \nINSTRUCTION TO CG1(N253957E1095707)-CG2(N274629E1112333)-ABTUD TO \nBEYOND ABTUD. \n ) \n// //","series":"A","source":"nms","status":"upcoming","title":"中国本土 ZGZU A4957/26","upper":null,"valid_end":"2026-09-28T04:40:00+00:00","valid_raw":[],"valid_start":"2026-09-28T03:30:00+00:00"},"type":"Feature"},{"geometry":{"coordinates":[[[[109.951944,25.665833],[111.3925,27.774722],[110.956667,27.855556],[112.087222,24.139722],[109.951944,25.665833]]],[[[111.3925,27.774722],[109.951944,25.665833],[111.3925,27.774722],[111.3925,27.774722]]]],"type":"MultiPolygon"},"properties":{"area_group":"CN","category":"other","date":"2026-09-27","ended_by":null,"estimated_end":false,"fir":"ZXXX","first_seen":"2026-09-27T12:01:24+00:00","focus_tag":"admin","geometry_source":"text-polygon","icao_location":"ZGZU","issuer":"ZBBBYNYX","keyword_hit":false,"kind":"area","last_updated":"2026-09-27T08:21:00.000Z","lower":null,"matched_keywords":[],"nms_id":"1790497277394000","notam_type":"N","number":"A4958/26","q_code":"QARXX","qline_offset_nm":null,"radius_nm":null,"raw_text":"(A4958/26 NOTAMN \nQ)ZXXX/QARXX/IV/NBO/E/000/999/ \nA)ZGZU ZHWH B)2609280700 C)2609280810 \nE) 1.ATS ROUTE G586 SEGMENT GMC-ALGAG, ATS ROUTE R343 \nSEGMENT MAMSI-ABTUD AND ATS ROUTE W45 SEGMENT NUPTI-VESUX NOT AVBL \nDUE TECHNICAL REASONS. ALL AFFECTED FLIGHTS SHALL BE ADJUSTED. \n2.FLIGHT PLANS FOR AFFECTED FLIGHTS SHALL BE FILED BASED ON \nORIGINAL FLIGHT TRACKS. FLIGHT CREWS SHALL PREPARE REROUTING DATA \nAND FOLLOW ATC INSTRUCTIONS TO IMPLEMENT REROUTING. \n3. REROUTING METHODS AS FOLLOWS: \n3.1.FLIGHTS VIA ENKUS-R343-ABTUD TO BEYOND ABTUD, SHALL ADJUST TO \nENKUS-CG1(N253957E1095707)-CG2(N274629E1112333)-ABTUD TO BEYOND \nABTUD. \n3.2.FLIGHTS VIA GOSMA-R343-MAMSI TO BEYOND LAIBIN VOR 'LBN', SHALL \nADJUST TO GOSMA-CHANGDE NDB 'CD'-SANJIANG VOR 'SJG'- LAIBIN VOR \n'LBN' FOR BEYOND LAIBIN VOR 'LBN'. \n3.3.FLIGHTS VIA MILOP-W226-OLTUS-R343-MAMSI TO BEYOND LAIBIN VOR \n'LBN', SHALL ADJUST TO MILOP-W226-IRSAS-CG3 (N275120 \nE1105724)-SANJIANG VOR 'SJG'- LAIBIN VOR 'LBN' FOR BEYOND LAIBIN \nVOR 'LBN'. \n3.4.FLIGHTS VIA CHANGDE NDB 'CD'-W45-NUPTI-R343-MAMSI TO \n ) \n// // BEYOND \nLAIBIN VOR 'LBN', SHALL ADJUST TO CHANGDE NDB \n'CD'-SANJIANG VOR 'SJG'-LAIBIN VOR 'LBN' FOR BEYOND LAIBIN VOR \n'LBN'. \n3.5.FLIGHTS VIA XOPEK-W45-NUPTI ARR ZGGG, SHALL ADJUST TO \nXOPEK-W138-RUKLI-W227-UKBOL-W228-APESO-W37-OMBEB-R473-BEMAG-V5-ENVI \nP FOR ARR ZGGG. \n3.6.FLIGHTS VIA LAOLIANGCANG VOR 'LLC'-R343-NUPTI ARR ZGGG, \nSHALL ADJUST TO LAOLIANGCANG VOR \n'LLC'-RUKLI-W227-UKBOL-W228-APESO-W37-OMBEB-BEMAG-V5-ENVIP FOR ARR \nZGGG. \n3.7.FLIGHTS VIA ERTANG VOR 'GMC'-G586-OSNOV TO BEYOND OSNOV, SHALL \n ADJUST TO ERTANG VOR 'GMC'-B330-MUBEL-OSNOV FOR BEYOND OSNOV. \n3.8.FLIGHTS VIA MOLSO-G586-ERTANG VOR 'GMC' TO BEYOND ERTANG VOR \n'GMC', SHALL ADJUST TO MOLSO-CG4 (N240823E1120514)-ERTANG VOR \n'GMC' FOR BEYOND ERTANG VOR 'GMC'. \n3.9.FLIGHTS VIA LIPNO-W24-OSNOV-G586 TO BEYOND ERTANG VOR 'GMC', \nSHALL ADJUST TO LIPNO-ERTANG VOR 'GMC' FOR BEYOND ERTANG VOR \n'GMC'. \n3.10.FLIGHTS DEP ZGGG TO BEYOND ERTANG VOR 'GMC', RADAR VECTOR \nDIRECT TO \n ) \n// // ERTANG VOR 'GMC' FOR BEYOND ERTANG VOR 'GMC'. \n3.11.FLIGHTS VIA ENKUS-R343-AVNEL-W618-SEBMO ARR ZGHA, SHALL \nADJUST TO ENKUS-CG1 (N253957E1095707)-CG2(N274629E1112333)-SEBMO \nFOR ARR ZGHA. \n3.12. FLIGHTS(DEPARTURE FROM ZGKL) VIA GUILIN VOR \n'KWL'-ONEMI-R343-ABTUD TO BEYOND ABTUD SHALL ADJUST TO: \nAFTER DEPARTURE FROM ZGKL,SHALL FLW ATC(RADAR VECTOR) \nINSTRUCTION TO CG1(N253957E1095707)-CG2(N274629E1112333)-ABTUD TO \nBEYOND ABTUD. \n ) \n// //","series":"A","source":"nms","status":"upcoming","title":"中国本土 ZGZU A4958/26","upper":null,"valid_end":"2026-09-28T08:10:00+00:00","valid_raw":[],"valid_start":"2026-09-28T07:00:00+00:00"},"type":"Feature"},{"geometry":{"coordinates":[[[114.2,30.866517],[114.209491,30.866116],[114.21889,30.864919],[114.228107,30.862935],[114.237054,30.860185],[114.245643,30.856695],[114.253793,30.852498],[114.261425,30.847635],[114.268466,30.842153],[114.274847,30.836104],[114.280507,30.829548],[114.285392,30.822546],[114.289455,30.815166],[114.292656,30.80748],[114.294965,30.799562],[114.296359,30.791487],[114.296825,30.783333],[114.296359,30.77518],[114.294965,30.767105],[114.292656,30.759186],[114.289455,30.7515],[114.285392,30.744121],[114.280507,30.737119],[114.274847,30.730562],[114.268466,30.724514],[114.261425,30.719032],[114.253793,30.714169],[114.245643,30.709972],[114.237054,30.706482],[114.228107,30.703732],[114.21889,30.701748],[114.209491,30.70055],[114.2,30.70015],[114.190509,30.70055],[114.18111,30.701748],[114.171893,30.703732],[114.162946,30.706482],[114.154357,30.709972],[114.146207,30.714169],[114.138575,30.719032],[114.131534,30.724514],[114.125153,30.730562],[114.119493,30.737119],[114.114608,30.744121],[114.110545,30.7515],[114.107344,30.759186],[114.105035,30.767105],[114.103641,30.77518],[114.103175,30.783333],[114.103641,30.791487],[114.105035,30.799562],[114.107344,30.80748],[114.110545,30.815166],[114.114608,30.822546],[114.119493,30.829548],[114.125153,30.836104],[114.131534,30.842153],[114.138575,30.847635],[114.146207,30.852498],[114.154357,30.856695],[114.162946,30.860185],[114.171893,30.862935],[114.18111,30.864919],[114.190509,30.866116],[114.2,30.866517]]],"type":"Polygon"},"properties":{"area_group":"CN","category":"other","date":"2026-09-27","ended_by":null,"estimated_end":false,"fir":"ZHWH","first_seen":"2026-09-27T12:01:24+00:00","focus_tag":"admin","geometry_source":"qline-circle","icao_location":"ZHHH","issuer":"ZBBBYNYX","keyword_hit":true,"kind":"area","last_updated":"2026-09-27T07:31:00.000Z","lower":null,"matched_keywords":["CLSD"],"nms_id":"1790494271403000","notam_type":"N","number":"G4343/26","q_code":"QMXLC","qline_offset_nm":null,"radius_nm":5.0,"raw_text":"G4343/26 NOTAMN\r\nQ)ZHWH/QMXLC/IV/M/A/000/999/3047N11412E005\r\nA)ZHHH B)2609271830 C)2609272230 \r\nE) FLW TWY CLSD DUE TO EMERGENCY REPAIR:\r\n1.TWY D BTN TWY D6 AND TWY D9.\r\n2.TWY D7,D8.\r\n ","series":"G","source":"nms","status":"upcoming","title":"中国本土 ZHHH G4343/26","upper":null,"valid_end":"2026-09-27T22:30:00+00:00","valid_raw":[],"valid_start":"2026-09-27T18:30:00+00:00"},"type":"Feature"},{"geometry":{"coordinates":[[[[109.951944,25.665833],[111.3925,27.774722],[110.956667,27.855556],[112.087222,24.139722],[109.951944,25.665833]]],[[[111.3925,27.774722],[109.951944,25.665833],[111.3925,27.774722],[111.3925,27.774722]]]],"type":"MultiPolygon"},"properties":{"area_group":"CN","category":"other","date":"2026-09-27","ended_by":null,"estimated_end":false,"fir":"ZXXX","first_seen":"2026-09-27T12:01:24+00:00","focus_tag":"admin","geometry_source":"text-polygon","icao_location":"ZHWH","issuer":"ZBBBYNYX","keyword_hit":false,"kind":"area","last_updated":"2026-09-27T08:21:00.000Z","lower":null,"matched_keywords":[],"nms_id":"1790497272640000","notam_type":"N","number":"A4957/26","q_code":"QARXX","qline_offset_nm":null,"radius_nm":null,"raw_text":"(A4957/26 NOTAMN \nQ)ZXXX/QARXX/IV/NBO/E/000/999/ \nA)ZGZU ZHWH B)2609280330 C)2609280440 \nE) 1.ATS ROUTE G586 SEGMENT GMC-ALGAG, ATS ROUTE R343 \nSEGMENT MAMSI-ABTUD AND ATS ROUTE W45 SEGMENT NUPTI-VESUX NOT AVBL \nDUE TECHNICAL REASONS. ALL AFFECTED FLIGHTS SHALL BE ADJUSTED. \n2.FLIGHT PLANS FOR AFFECTED FLIGHTS SHALL BE FILED BASED ON \nORIGINAL FLIGHT TRACKS. FLIGHT CREWS SHALL PREPARE REROUTING DATA \nAND FOLLOW ATC INSTRUCTIONS TO IMPLEMENT REROUTING. \n3. REROUTING METHODS AS FOLLOWS: \n3.1.FLIGHTS VIA ENKUS-R343-ABTUD TO BEYOND ABTUD, SHALL ADJUST TO \nENKUS-CG1(N253957E1095707)-CG2(N274629E1112333)-ABTUD TO BEYOND \nABTUD. \n3.2.FLIGHTS VIA GOSMA-R343-MAMSI TO BEYOND LAIBIN VOR 'LBN', SHALL \nADJUST TO GOSMA-CHANGDE NDB 'CD'-SANJIANG VOR 'SJG'- LAIBIN VOR \n'LBN' FOR BEYOND LAIBIN VOR 'LBN'. \n3.3.FLIGHTS VIA MILOP-W226-OLTUS-R343-MAMSI TO BEYOND LAIBIN VOR \n'LBN', SHALL ADJUST TO MILOP-W226-IRSAS-CG3 (N275120 \nE1105724)-SANJIANG VOR 'SJG'- LAIBIN VOR 'LBN' FOR BEYOND LAIBIN \nVOR 'LBN'. \n3.4.FLIGHTS VIA CHANGDE NDB 'CD'-W45-NUPTI-R343-MAMSI TO \n ) \n// // BEYOND \nLAIBIN VOR 'LBN', SHALL ADJUST TO CHANGDE NDB \n'CD'-SANJIANG VOR 'SJG'-LAIBIN VOR 'LBN' FOR BEYOND LAIBIN VOR \n'LBN'. \n3.5.FLIGHTS VIA XOPEK-W45-NUPTI ARR ZGGG, SHALL ADJUST TO \nXOPEK-W138-RUKLI-W227-UKBOL-W228-APESO-W37-OMBEB-R473-BEMAG-V5-ENVI \nP FOR ARR ZGGG. \n3.6.FLIGHTS VIA LAOLIANGCANG VOR 'LLC'-R343-NUPTI ARR ZGGG, \nSHALL ADJUST TO LAOLIANGCANG VOR \n'LLC'-RUKLI-W227-UKBOL-W228-APESO-W37-OMBEB-BEMAG-V5-ENVIP FOR ARR \nZGGG. \n3.7.FLIGHTS VIA ERTANG VOR 'GMC'-G586-OSNOV TO BEYOND OSNOV, SHALL \n ADJUST TO ERTANG VOR 'GMC'-B330-MUBEL-OSNOV FOR BEYOND OSNOV. \n3.8.FLIGHTS VIA MOLSO-G586-ERTANG VOR 'GMC' TO BEYOND ERTANG VOR \n'GMC', SHALL ADJUST TO MOLSO-CG4 (N240823E1120514)-ERTANG VOR \n'GMC' FOR BEYOND ERTANG VOR 'GMC'. \n3.9.FLIGHTS VIA LIPNO-W24-OSNOV-G586 TO BEYOND ERTANG VOR 'GMC', \nSHALL ADJUST TO LIPNO-ERTANG VOR 'GMC' FOR BEYOND ERTANG VOR \n'GMC'. \n3.10.FLIGHTS DEP ZGGG TO BEYOND ERTANG VOR 'GMC', RADAR VECTOR \nDIRECT TO \n ) \n// // ERTANG VOR 'GMC' FOR BEYOND ERTANG VOR 'GMC'. \n3.11.FLIGHTS VIA ENKUS-R343-AVNEL-W618-SEBMO ARR ZGHA, SHALL \nADJUST TO ENKUS-CG1 (N253957E1095707)-CG2(N274629E1112333)-SEBMO \nFOR ARR ZGHA. \n3.12. FLIGHTS(DEPARTURE FROM ZGKL) VIA GUILIN VOR \n'KWL'-ONEMI-R343-ABTUD TO BEYOND ABTUD SHALL ADJUST TO: \nAFTER DEPARTURE FROM ZGKL,SHALL FLW ATC(RADAR VECTOR) \nINSTRUCTION TO CG1(N253957E1095707)-CG2(N274629E1112333)-ABTUD TO \nBEYOND ABTUD. \n ) \n// //","series":"A","source":"nms","status":"upcoming","title":"中国本土 ZHWH A4957/26","upper":null,"valid_end":"2026-09-28T04:40:00+00:00","valid_raw":[],"valid_start":"2026-09-28T03:30:00+00:00"},"type":"Feature"},{"geometry":{"coordinates":[[[[109.951944,25.665833],[111.3925,27.774722],[110.956667,27.855556],[112.087222,24.139722],[109.951944,25.665833]]],[[[111.3925,27.774722],[109.951944,25.665833],[111.3925,27.774722],[111.3925,27.774722]]]],"type":"MultiPolygon"},"properties":{"area_group":"CN","category":"other","date":"2026-09-27","ended_by":null,"estimated_end":false,"fir":"ZXXX","first_seen":"2026-09-27T12:01:24+00:00","focus_tag":"admin","geometry_source":"text-polygon","icao_location":"ZHWH","issuer":"ZBBBYNYX","keyword_hit":false,"kind":"area","last_updated":"2026-09-27T08:21:00.000Z","lower":null,"matched_keywords":[],"nms_id":"1790497278276000","notam_type":"N","number":"A4958/26","q_code":"QARXX","qline_offset_nm":null,"radius_nm":null,"raw_text":"(A4958/26 NOTAMN \nQ)ZXXX/QARXX/IV/NBO/E/000/999/ \nA)ZGZU ZHWH B)2609280700 C)2609280810 \nE) 1.ATS ROUTE G586 SEGMENT GMC-ALGAG, ATS ROUTE R343 \nSEGMENT MAMSI-ABTUD AND ATS ROUTE W45 SEGMENT NUPTI-VESUX NOT AVBL \nDUE TECHNICAL REASONS. ALL AFFECTED FLIGHTS SHALL BE ADJUSTED. \n2.FLIGHT PLANS FOR AFFECTED FLIGHTS SHALL BE FILED BASED ON \nORIGINAL FLIGHT TRACKS. FLIGHT CREWS SHALL PREPARE REROUTING DATA \nAND FOLLOW ATC INSTRUCTIONS TO IMPLEMENT REROUTING. \n3. REROUTING METHODS AS FOLLOWS: \n3.1.FLIGHTS VIA ENKUS-R343-ABTUD TO BEYOND ABTUD, SHALL ADJUST TO \nENKUS-CG1(N253957E1095707)-CG2(N274629E1112333)-ABTUD TO BEYOND \nABTUD. \n3.2.FLIGHTS VIA GOSMA-R343-MAMSI TO BEYOND LAIBIN VOR 'LBN', SHALL \nADJUST TO GOSMA-CHANGDE NDB 'CD'-SANJIANG VOR 'SJG'- LAIBIN VOR \n'LBN' FOR BEYOND LAIBIN VOR 'LBN'. \n3.3.FLIGHTS VIA MILOP-W226-OLTUS-R343-MAMSI TO BEYOND LAIBIN VOR \n'LBN', SHALL ADJUST TO MILOP-W226-IRSAS-CG3 (N275120 \nE1105724)-SANJIANG VOR 'SJG'- LAIBIN VOR 'LBN' FOR BEYOND LAIBIN \nVOR 'LBN'. \n3.4.FLIGHTS VIA CHANGDE NDB 'CD'-W45-NUPTI-R343-MAMSI TO \n ) \n// // BEYOND \nLAIBIN VOR 'LBN', SHALL ADJUST TO CHANGDE NDB \n'CD'-SANJIANG VOR 'SJG'-LAIBIN VOR 'LBN' FOR BEYOND LAIBIN VOR \n'LBN'. \n3.5.FLIGHTS VIA XOPEK-W45-NUPTI ARR ZGGG, SHALL ADJUST TO \nXOPEK-W138-RUKLI-W227-UKBOL-W228-APESO-W37-OMBEB-R473-BEMAG-V5-ENVI \nP FOR ARR ZGGG. \n3.6.FLIGHTS VIA LAOLIANGCANG VOR 'LLC'-R343-NUPTI ARR ZGGG, \nSHALL ADJUST TO LAOLIANGCANG VOR \n'LLC'-RUKLI-W227-UKBOL-W228-APESO-W37-OMBEB-BEMAG-V5-ENVIP FOR ARR \nZGGG. \n3.7.FLIGHTS VIA ERTANG VOR 'GMC'-G586-OSNOV TO BEYOND OSNOV, SHALL \n ADJUST TO ERTANG VOR 'GMC'-B330-MUBEL-OSNOV FOR BEYOND OSNOV. \n3.8.FLIGHTS VIA MOLSO-G586-ERTANG VOR 'GMC' TO BEYOND ERTANG VOR \n'GMC', SHALL ADJUST TO MOLSO-CG4 (N240823E1120514)-ERTANG VOR \n'GMC' FOR BEYOND ERTANG VOR 'GMC'. \n3.9.FLIGHTS VIA LIPNO-W24-OSNOV-G586 TO BEYOND ERTANG VOR 'GMC', \nSHALL ADJUST TO LIPNO-ERTANG VOR 'GMC' FOR BEYOND ERTANG VOR \n'GMC'. \n3.10.FLIGHTS DEP ZGGG TO BEYOND ERTANG VOR 'GMC', RADAR VECTOR \nDIRECT TO \n ) \n// // ERTANG VOR 'GMC' FOR BEYOND ERTANG VOR 'GMC'. \n3.11.FLIGHTS VIA ENKUS-R343-AVNEL-W618-SEBMO ARR ZGHA, SHALL \nADJUST TO ENKUS-CG1 (N253957E1095707)-CG2(N274629E1112333)-SEBMO \nFOR ARR ZGHA. \n3.12. FLIGHTS(DEPARTURE FROM ZGKL) VIA GUILIN VOR \n'KWL'-ONEMI-R343-ABTUD TO BEYOND ABTUD SHALL ADJUST TO: \nAFTER DEPARTURE FROM ZGKL,SHALL FLW ATC(RADAR VECTOR) \nINSTRUCTION TO CG1(N253957E1095707)-CG2(N274629E1112333)-ABTUD TO \nBEYOND ABTUD. \n ) \n// //","series":"A","source":"nms","status":"upcoming","title":"中国本土 ZHWH A4958/26","upper":null,"valid_end":"2026-09-28T08:10:00+00:00","valid_raw":[],"valid_start":"2026-09-28T07:00:00+00:00"},"type":"Feature"},{"geometry":{"coordinates":[[[94.816667,40.24985],[94.827336,40.24945],[94.837903,40.248252],[94.848266,40.246268],[94.858324,40.243518],[94.86798,40.240028],[94.877143,40.235831],[94.885723,40.230968],[94.893639,40.225486],[94.900812,40.219438],[94.907176,40.212881],[94.912668,40.205879],[94.917235,40.1985],[94.920834,40.190814],[94.92343,40.182895],[94.924997,40.17482],[94.925521,40.166667],[94.924997,40.158513],[94.92343,40.150438],[94.920834,40.14252],[94.917235,40.134834],[94.912668,40.127454],[94.907176,40.120452],[94.900812,40.113896],[94.893639,40.107847],[94.885723,40.102365],[94.877143,40.097502],[94.86798,40.093305],[94.858324,40.089815],[94.848266,40.087065],[94.837903,40.085081],[94.827336,40.083884],[94.816667,40.083483],[94.805997,40.083884],[94.79543,40.085081],[94.785068,40.087065],[94.77501,40.089815],[94.765353,40.093305],[94.75619,40.097502],[94.74761,40.102365],[94.739695,40.107847],[94.732521,40.113896],[94.726157,40.120452],[94.720665,40.127454],[94.716098,40.134834],[94.712499,40.14252],[94.709904,40.150438],[94.708336,40.158513],[94.707812,40.166667],[94.708336,40.17482],[94.709904,40.182895],[94.712499,40.190814],[94.716098,40.1985],[94.720665,40.205879],[94.726157,40.212881],[94.732521,40.219438],[94.739695,40.225486],[94.74761,40.230968],[94.75619,40.235831],[94.765353,40.240028],[94.77501,40.243518],[94.785068,40.246268],[94.79543,40.248252],[94.805997,40.24945],[94.816667,40.24985]]],"type":"Polygon"},"properties":{"area_group":"CN","category":"other","date":"2026-09-27","ended_by":null,"estimated_end":false,"fir":"ZLHW","first_seen":"2026-09-27T12:01:24+00:00","focus_tag":"admin","geometry_source":"qline-circle","icao_location":"ZLDH","issuer":"ZBBBYNYX","keyword_hit":false,"kind":"area","last_updated":"2026-09-27T08:33:00.000Z","lower":null,"matched_keywords":[],"nms_id":"1790497985897000","notam_type":"N","number":"L1537/26","q_code":"QIDCT","qline_offset_nm":null,"radius_nm":5.0,"raw_text":"L1537/26 NOTAMN\r\nQ)ZLHW/QIDCT/I/NBO/A/000/999/4010N09449E005\r\nA)ZLDH B)2609280200 C)2609290600 \r\nE) RWY26 DME'IDH'CH24X U/S DUE TO FLTCK.\r\n ","series":"L","source":"nms","status":"upcoming","title":"中国本土 ZLDH L1537/26","upper":null,"valid_end":"2026-09-29T06:00:00+00:00","valid_raw":[],"valid_start":"2026-09-28T02:00:00+00:00"},"type":"Feature"},{"geometry":{"coordinates":[[[94.816667,40.24985],[94.827336,40.24945],[94.837903,40.248252],[94.848266,40.246268],[94.858324,40.243518],[94.86798,40.240028],[94.877143,40.235831],[94.885723,40.230968],[94.893639,40.225486],[94.900812,40.219438],[94.907176,40.212881],[94.912668,40.205879],[94.917235,40.1985],[94.920834,40.190814],[94.92343,40.182895],[94.924997,40.17482],[94.925521,40.166667],[94.924997,40.158513],[94.92343,40.150438],[94.920834,40.14252],[94.917235,40.134834],[94.912668,40.127454],[94.907176,40.120452],[94.900812,40.113896],[94.893639,40.107847],[94.885723,40.102365],[94.877143,40.097502],[94.86798,40.093305],[94.858324,40.089815],[94.848266,40.087065],[94.837903,40.085081],[94.827336,40.083884],[94.816667,40.083483],[94.805997,40.083884],[94.79543,40.085081],[94.785068,40.087065],[94.77501,40.089815],[94.765353,40.093305],[94.75619,40.097502],[94.74761,40.102365],[94.739695,40.107847],[94.732521,40.113896],[94.726157,40.120452],[94.720665,40.127454],[94.716098,40.134834],[94.712499,40.14252],[94.709904,40.150438],[94.708336,40.158513],[94.707812,40.166667],[94.708336,40.17482],[94.709904,40.182895],[94.712499,40.190814],[94.716098,40.1985],[94.720665,40.205879],[94.726157,40.212881],[94.732521,40.219438],[94.739695,40.225486],[94.74761,40.230968],[94.75619,40.235831],[94.765353,40.240028],[94.77501,40.243518],[94.785068,40.246268],[94.79543,40.248252],[94.805997,40.24945],[94.816667,40.24985]]],"type":"Polygon"},"properties":{"area_group":"CN","category":"other","date":"2026-09-27","ended_by":null,"estimated_end":false,"fir":"ZLHW","first_seen":"2026-09-27T12:01:24+00:00","focus_tag":"admin","geometry_source":"qline-circle","icao_location":"ZLDH","issuer":"ZBBBYNYX","keyword_hit":false,"kind":"area","last_updated":"2026-09-27T08:34:00.000Z","lower":null,"matched_keywords":[],"nms_id":"1790498062903000","notam_type":"N","number":"L1538/26","q_code":"QICCT","qline_offset_nm":null,"radius_nm":5.0,"raw_text":"L1538/26 NOTAMN\r\nQ)ZLHW/QICCT/I/NBO/A/000/999/4010N09449E005\r\nA)ZLDH B)2609280200 C)2609290600 \r\nE) RWY26 ILS ON TEST,DO NOT USE DUE TO FLTCK.\r\n ","series":"L","source":"nms","status":"upcoming","title":"中国本土 ZLDH L1538/26","upper":null,"valid_end":"2026-09-29T06:00:00+00:00","valid_raw":[],"valid_start":"2026-09-28T02:00:00+00:00"},"type":"Feature"},{"geometry":{"coordinates":[[[119.666667,26.016517],[119.675733,26.016116],[119.684712,26.014919],[119.693517,26.012935],[119.702064,26.010185],[119.71027,26.006695],[119.718056,26.002498],[119.725347,25.997635],[119.732073,25.992153],[119.738168,25.986104],[119.743576,25.979548],[119.748242,25.972546],[119.752124,25.965166],[119.755182,25.95748],[119.757387,25.949562],[119.758719,25.941487],[119.759164,25.933333],[119.758719,25.92518],[119.757387,25.917105],[119.755182,25.909186],[119.752124,25.9015],[119.748242,25.894121],[119.743576,25.887119],[119.738168,25.880562],[119.732073,25.874514],[119.725347,25.869032],[119.718056,25.864169],[119.71027,25.859972],[119.702064,25.856482],[119.693517,25.853732],[119.684712,25.851748],[119.675733,25.85055],[119.666667,25.85015],[119.6576,25.85055],[119.648621,25.851748],[119.639816,25.853732],[119.631269,25.856482],[119.623063,25.859972],[119.615278,25.864169],[119.607987,25.869032],[119.601261,25.874514],[119.595165,25.880562],[119.589758,25.887119],[119.585091,25.894121],[119.58121,25.9015],[119.578152,25.909186],[119.575946,25.917105],[119.574614,25.92518],[119.574169,25.933333],[119.574614,25.941487],[119.575946,25.949562],[119.578152,25.95748],[119.58121,25.965166],[119.585091,25.972546],[119.589758,25.979548],[119.595165,25.986104],[119.601261,25.992153],[119.607987,25.997635],[119.615278,26.002498],[119.623063,26.006695],[119.631269,26.010185],[119.639816,26.012935],[119.648621,26.014919],[119.6576,26.016116],[119.666667,26.016517]]],"type":"Polygon"},"properties":{"area_group":"CN","category":"other","date":"2026-09-27","ended_by":null,"estimated_end":false,"fir":"ZSHA","first_seen":"2026-09-27T12:01:24+00:00","focus_tag":"admin","geometry_source":"qline-circle","icao_location":"ZSFZ","issuer":"ZBBBYNYX","keyword_hit":false,"kind":"area","last_updated":"2026-09-27T06:56:00.000Z","lower":null,"matched_keywords":[],"nms_id":"1790492193039000","notam_type":"N","number":"M2795/26","q_code":"QFAHX","qline_offset_nm":null,"radius_nm":5.0,"raw_text":"M2795/26 NOTAMN\r\nQ)ZSHA/QFAHX/IV/NBO/A/000/999/2556N11940E005\r\nA)ZSFZ B)2609270632 C)2611301559 \r\nE) ACTIVITIES OF BIRD FLOCKS AND MIGRATION TAKE PLACE AROUND AD,\r\nBIRDS ARE ACTIVE BOTH DAY AND NIGHT, ESPECIALLY DURING DAWM AND \r\nDUSK. \r\nBIRDS ACTIVITY WILL PRIMARILY ACT IN: \r\n1. RWY04/22: 0-1KM WEST OF RWY04/22 CL, 0-2KM SOUTH OF RWY04 \r\nTHR,0-1KM NORTH OF RWY22 THR, ACT ALT:0M-50M, MIGRATORY ALT: \r\n50M-200M. .\r\n2. RWY03/21: 0-1KM WEST OF RWY03/21 CL, 0-1KM OF RWY03 THR, \r\nALT:0M-20M.\r\nEXERCISE CAUTION WHILE LANDING AND TAKE-OFF.\r\n ","series":"M","source":"nms","status":"active","title":"中国本土 ZSFZ M2795/26","upper":null,"valid_end":"2026-11-30T15:59:00+00:00","valid_raw":[],"valid_start":"2026-09-27T06:32:00+00:00"},"type":"Feature"},{"geometry":{"coordinates":[[[117.183333,29.765918],[117.230104,29.763915],[117.276424,29.757926],[117.321847,29.748009],[117.365937,29.734258],[117.408268,29.716807],[117.448433,29.695823],[117.486044,29.671509],[117.520741,29.644098],[117.552188,29.613856],[117.580083,29.581072],[117.604156,29.546062],[117.624177,29.509165],[117.639953,29.470735],[117.651331,29.431142],[117.658202,29.390767],[117.6605,29.35],[117.658202,29.309233],[117.651331,29.268858],[117.639953,29.229265],[117.624177,29.190835],[117.604156,29.153938],[117.580083,29.118928],[117.552188,29.086144],[117.520741,29.055902],[117.486044,29.028491],[117.448433,29.004177],[117.408268,28.983193],[117.365937,28.965742],[117.321847,28.951991],[117.276424,28.942074],[117.230104,28.936085],[117.183333,28.934082],[117.136563,28.936085],[117.090243,28.942074],[117.044819,28.951991],[117.00073,28.965742],[116.958399,28.983193],[116.918234,29.004177],[116.880622,29.028491],[116.845926,29.055902],[116.814479,29.086144],[116.786584,29.118928],[116.76251,29.153938],[116.742489,29.190835],[116.726714,29.229265],[116.715336,29.268858],[116.708465,29.309233],[116.706167,29.35],[116.708465,29.390767],[116.715336,29.431142],[116.726714,29.470735],[116.742489,29.509165],[116.76251,29.546062],[116.786584,29.581072],[116.814479,29.613856],[116.845926,29.644098],[116.880622,29.671509],[116.918234,29.695823],[116.958399,29.716807],[117.00073,29.734258],[117.044819,29.748009],[117.090243,29.757926],[117.136563,29.763915],[117.183333,29.765918]]],"type":"Polygon"},"properties":{"area_group":"CN","category":"other","date":"2026-09-27","ended_by":null,"estimated_end":false,"fir":"ZSHA","first_seen":"2026-09-27T12:01:24+00:00","focus_tag":"admin","geometry_source":"qline-circle","icao_location":"ZSHA","issuer":"ZBBBYNYX","keyword_hit":false,"kind":"area","last_updated":"2026-09-27T07:32:00Z","lower":null,"matched_keywords":[],"nms_id":"1790494315956000","notam_type":"N","number":"A4955/26","q_code":"QNMAS","qline_offset_nm":null,"radius_nm":25.0,"raw_text":"A4955/26 NOTAMN\r\nQ)ZSHA/QNMAS/IV/BO/E/000/999/2921N11711E025\r\nA)ZSHA B)2609290030 C)2609291000 \r\nE) JINGDEZHEN VOR/DME 'JDZ' 117.7MHZ/CH124X U/S DUE TO MAINT.","series":"A","source":"nms","status":"upcoming","title":"中国本土 ZSHA A4955/26","upper":null,"valid_end":"2026-09-29T10:00:00+00:00","valid_raw":[],"valid_start":"2026-09-29T00:30:00+00:00"},"type":"Feature"},{"geometry":{"coordinates":[[[121.333333,31.283184],[121.342865,31.282783],[121.352306,31.281585],[121.361563,31.279602],[121.370549,31.276852],[121.379176,31.273361],[121.387362,31.269165],[121.395028,31.264302],[121.402099,31.25882],[121.408508,31.252771],[121.414193,31.246214],[121.4191,31.239212],[121.42318,31.231833],[121.426395,31.224147],[121.428714,31.216228],[121.430114,31.208153],[121.430583,31.2],[121.430114,31.191847],[121.428714,31.183772],[121.426395,31.175853],[121.42318,31.168167],[121.4191,31.160788],[121.414193,31.153786],[121.408508,31.147229],[121.402099,31.14118],[121.395028,31.135698],[121.387362,31.130835],[121.379176,31.126639],[121.370549,31.123148],[121.361563,31.120398],[121.352306,31.118415],[121.342865,31.117217],[121.333333,31.116816],[121.323801,31.117217],[121.314361,31.118415],[121.305103,31.120398],[121.296118,31.123148],[121.28749,31.126639],[121.279304,31.130835],[121.271639,31.135698],[121.264568,31.14118],[121.258159,31.147229],[121.252473,31.153786],[121.247567,31.160788],[121.243487,31.168167],[121.240272,31.175853],[121.237953,31.183772],[121.236552,31.191847],[121.236084,31.2],[121.236552,31.208153],[121.237953,31.216228],[121.240272,31.224147],[121.243487,31.231833],[121.247567,31.239212],[121.252473,31.246214],[121.258159,31.252771],[121.264568,31.25882],[121.271639,31.264302],[121.279304,31.269165],[121.28749,31.273361],[121.296118,31.276852],[121.305103,31.279602],[121.314361,31.281585],[121.323801,31.282783],[121.333333,31.283184]]],"type":"Polygon"},"properties":{"area_group":"CN","category":"other","date":"2026-09-27","ended_by":null,"estimated_end":false,"fir":"ZSHA","first_seen":"2026-09-27T12:01:24+00:00","focus_tag":"admin","geometry_source":"qline-circle","icao_location":"ZSSS","issuer":"ZBBBYNYX","keyword_hit":false,"kind":"area","last_updated":"2026-09-27T07:15:00.000Z","lower":null,"matched_keywords":[],"nms_id":"1790493312050000","notam_type":"N","number":"F3990/26","q_code":"QNMCT","qline_offset_nm":null,"radius_nm":5.0,"raw_text":"F3990/26 NOTAMN\r\nQ)ZSHA/QNMCT/IV/BO/A/000/999/3112N12120E005\r\nA)ZSSS B)2609290100 C)2609291200 \r\nE) HONGQIAO VOR/DME 'SHA' 117.2MHZ/CH119X ON TEST,DO NOT USE DUE \r\nTO MAINT.\r\n ","series":"F","source":"nms","status":"upcoming","title":"中国本土 ZSSS F3990/26","upper":null,"valid_end":"2026-09-29T12:00:00+00:00","valid_raw":[],"valid_start":"2026-09-29T01:00:00+00:00"},"type":"Feature"},{"geometry":{"coordinates":[[[87.483333,43.99985],[87.494652,43.99945],[87.505862,43.998252],[87.516854,43.996268],[87.527524,43.993518],[87.537769,43.990028],[87.547489,43.985831],[87.556591,43.980968],[87.564988,43.975486],[87.572598,43.969438],[87.579349,43.962881],[87.585175,43.955879],[87.59002,43.9485],[87.593838,43.940814],[87.596591,43.932895],[87.598254,43.92482],[87.59881,43.916667],[87.598254,43.908513],[87.596591,43.900438],[87.593838,43.89252],[87.59002,43.884834],[87.585175,43.877454],[87.579349,43.870452],[87.572598,43.863896],[87.564988,43.857847],[87.556591,43.852365],[87.547489,43.847502],[87.537769,43.843305],[87.527524,43.839815],[87.516854,43.837065],[87.505862,43.835081],[87.494652,43.833884],[87.483333,43.833483],[87.472015,43.833884],[87.460805,43.835081],[87.449812,43.837065],[87.439142,43.839815],[87.428898,43.843305],[87.419178,43.847502],[87.410076,43.852365],[87.401679,43.857847],[87.394069,43.863896],[87.387318,43.870452],[87.381492,43.877454],[87.376647,43.884834],[87.372829,43.89252],[87.370075,43.900438],[87.368413,43.908513],[87.367857,43.916667],[87.368413,43.92482],[87.370075,43.932895],[87.372829,43.940814],[87.376647,43.9485],[87.381492,43.955879],[87.387318,43.962881],[87.394069,43.969438],[87.401679,43.975486],[87.410076,43.980968],[87.419178,43.985831],[87.428898,43.990028],[87.439142,43.993518],[87.449812,43.996268],[87.460805,43.998252],[87.472015,43.99945],[87.483333,43.99985]]],"type":"Polygon"},"properties":{"area_group":"CN","category":"other","date":"2026-09-27","ended_by":null,"estimated_end":false,"fir":"ZWUQ","first_seen":"2026-09-27T12:01:24+00:00","focus_tag":"admin","geometry_source":"qline-circle","icao_location":"ZWWW","issuer":"ZBBBYNYX","keyword_hit":true,"kind":"area","last_updated":"2026-09-27T11:32:00.000Z","lower":null,"matched_keywords":["CLSD"],"nms_id":"1790508755811000","notam_type":"N","number":"W1334/26","q_code":"QMRLC","qline_offset_nm":null,"radius_nm":5.0,"raw_text":"W1334/26 NOTAMN\r\nQ)ZWUQ/QMRLC/IV/NBO/A/000/999/4355N08729E005\r\nA)ZWWW B)2609281730 C)2609282330 \r\nE) RWY08L/26R CLSD DUE TO MAINT.\r\n ","series":"W","source":"nms","status":"upcoming","title":"中国本土 ZWWW W1334/26","upper":null,"valid_end":"2026-09-28T23:30:00+00:00","valid_raw":[],"valid_start":"2026-09-28T17:30:00+00:00"},"type":"Feature"},{"geometry":{"coordinates":[[[87.483333,43.99985],[87.494652,43.99945],[87.505862,43.998252],[87.516854,43.996268],[87.527524,43.993518],[87.537769,43.990028],[87.547489,43.985831],[87.556591,43.980968],[87.564988,43.975486],[87.572598,43.969438],[87.579349,43.962881],[87.585175,43.955879],[87.59002,43.9485],[87.593838,43.940814],[87.596591,43.932895],[87.598254,43.92482],[87.59881,43.916667],[87.598254,43.908513],[87.596591,43.900438],[87.593838,43.89252],[87.59002,43.884834],[87.585175,43.877454],[87.579349,43.870452],[87.572598,43.863896],[87.564988,43.857847],[87.556591,43.852365],[87.547489,43.847502],[87.537769,43.843305],[87.527524,43.839815],[87.516854,43.837065],[87.505862,43.835081],[87.494652,43.833884],[87.483333,43.833483],[87.472015,43.833884],[87.460805,43.835081],[87.449812,43.837065],[87.439142,43.839815],[87.428898,43.843305],[87.419178,43.847502],[87.410076,43.852365],[87.401679,43.857847],[87.394069,43.863896],[87.387318,43.870452],[87.381492,43.877454],[87.376647,43.884834],[87.372829,43.89252],[87.370075,43.900438],[87.368413,43.908513],[87.367857,43.916667],[87.368413,43.92482],[87.370075,43.932895],[87.372829,43.940814],[87.376647,43.9485],[87.381492,43.955879],[87.387318,43.962881],[87.394069,43.969438],[87.401679,43.975486],[87.410076,43.980968],[87.419178,43.985831],[87.428898,43.990028],[87.439142,43.993518],[87.449812,43.996268],[87.460805,43.998252],[87.472015,43.99945],[87.483333,43.99985]]],"type":"Polygon"},"properties":{"area_group":"CN","category":"other","date":"2026-09-27","ended_by":null,"estimated_end":false,"fir":"ZWUQ","first_seen":"2026-09-27T12:01:24+00:00","focus_tag":"admin","geometry_source":"qline-circle","icao_location":"ZWWW","issuer":"ZBBBYNYX","keyword_hit":true,"kind":"area","last_updated":"2026-09-27T11:34:00.000Z","lower":null,"matched_keywords":["CLSD"],"nms_id":"1790508877485000","notam_type":"N","number":"W1335/26","q_code":"QMXLC","qline_offset_nm":null,"radius_nm":5.0,"raw_text":"W1335/26 NOTAMN\r\nQ)ZWUQ/QMXLC/IV/M/A/000/999/4355N08729E005\r\nA)ZWWW B)2609281730 C)2609282330 \r\nE) TWY Y CLSD DUE TO MAINT.\r\n ","series":"W","source":"nms","status":"upcoming","title":"中国本土 ZWWW W1335/26","upper":null,"valid_end":"2026-09-28T23:30:00+00:00","valid_raw":[],"valid_start":"2026-09-28T17:30:00+00:00"},"type":"Feature"},{"geometry":{"coordinates":[123.485,41.641667],"type":"Point"},"properties":{"area_group":"CN","category":"other","date":"2026-09-27","ended_by":null,"estimated_end":false,"fir":null,"first_seen":"2026-09-27T12:01:24+00:00","focus_tag":"admin","geometry_source":"api-point","icao_location":"ZYTX","issuer":"SNOWTAM","keyword_hit":false,"kind":"point","last_updated":"2026-09-27T10:29:00.000Z","lower":null,"matched_keywords":[],"nms_id":"1790504962048000","notam_type":null,"number":"0192","q_code":null,"qline_offset_nm":null,"radius_nm":null,"raw_text":"SWZX0192 ZYTX 09271004\r (SNOWTAM 0192\r ZYTX\r 09271004 06 6/6/6 NR/NR/NR NR/NR/NR DRY/DRY/DRY\r )","series":"SWZX","source":"nms","status":"active","title":"中国本土 ZYTX 0192","upper":null,"valid_end":"2026-09-27T18:04:00+00:00","valid_raw":[],"valid_start":"2026-09-27T10:04:00+00:00"},"type":"Feature"},{"geometry":{"coordinates":[123.485,41.641667],"type":"Point"},"properties":{"area_group":"CN","category":"other","date":"2026-09-27","ended_by":null,"estimated_end":false,"fir":null,"first_seen":"2026-09-27T12:01:24+00:00","focus_tag":"admin","geometry_source":"api-point","icao_location":"ZYTX","issuer":"SNOWTAM","keyword_hit":false,"kind":"point","last_updated":"2026-09-27T10:29:00Z","lower":null,"matched_keywords":[],"nms_id":"1790505011953693","notam_type":null,"number":"SWZX0192/26","q_code":null,"qline_offset_nm":null,"radius_nm":null,"raw_text":"SWZX0192 ZYTX 09271004\r\n(SNOWTAM 0192\r\nZYTX\r\n09271004 06 6/6/6 NR/NR/NR NR/NR/NR DRY/DRY/DRY\r\n)","series":"SWZX","source":"nms","status":"active","title":"中国本土 ZYTX SWZX0192/26","upper":null,"valid_end":"2026-09-27T18:04:00+00:00","valid_raw":[],"valid_start":"2026-09-27T10:04:00+00:00"},"type":"Feature"},{"geometry":{"coordinates":[[[115.0,23.610259],[115.37148,23.593115],[115.739383,23.541849],[116.100165,23.456955],[116.450352,23.33925],[116.786572,23.189868],[117.105585,23.010247],[117.404321,22.802117],[117.679902,22.567483],[117.929674,22.308604],[118.151231,22.027974],[118.342441,21.728294],[118.50146,21.412452],[118.626759,21.083489],[118.717131,20.744572],[118.771704,20.398966],[118.789953,20.05],[118.771704,19.701034],[118.717131,19.355428],[118.626759,19.016511],[118.50146,18.687548],[118.342441,18.371706],[118.151231,18.072026],[117.929674,17.791396],[117.679902,17.532517],[117.404321,17.297883],[117.105585,17.089753],[116.786572,16.910132],[116.450352,16.76075],[116.100165,16.643045],[115.739383,16.558151],[115.37148,16.506885],[115.0,16.489741],[114.62852,16.506885],[114.260617,16.558151],[113.899835,16.643045],[113.549648,16.76075],[113.213428,16.910132],[112.894415,17.089753],[112.595679,17.297883],[112.320098,17.532517],[112.070326,17.791396],[111.848769,18.072026],[111.657559,18.371706],[111.49854,18.687548],[111.373241,19.016511],[111.282869,19.355428],[111.228296,19.701034],[111.210047,20.05],[111.228296,20.398966],[111.282869,20.744572],[111.373241,21.083489],[111.49854,21.412452],[111.657559,21.728294],[111.848769,22.027974],[112.070326,22.308604],[112.320098,22.567483],[112.595679,22.802117],[112.894415,23.010247],[113.213428,23.189868],[113.549648,23.33925],[113.899835,23.456955],[114.260617,23.541849],[114.62852,23.593115],[115.0,23.610259]]],"type":"Polygon"},"properties":{"area_group":"HK","category":"other","date":"2026-09-27","ended_by":null,"estimated_end":false,"fir":"VHHK","first_seen":"2026-09-27T12:01:24+00:00","focus_tag":"admin","geometry_source":"qline-circle","icao_location":"VHHK","issuer":"VHHHYNYX","keyword_hit":false,"kind":"area","last_updated":"2026-09-27T08:22:00.000Z","lower":null,"matched_keywords":[],"nms_id":"1790497347310000","notam_type":"N","number":"A2255/26","q_code":"QPFCA","qline_offset_nm":null,"radius_nm":214.0,"raw_text":"A2255/26 NOTAMN\r\nQ) VHHK/QPFCA/IV/NBO/E /000/999/2003N11500E214\r\nA) VHHK B) 2609271600 C) 2609271800\r\nE) DUE TO SECTOR CAPACITY, TRAFFIC OVERFLYING HONG KONG VIA TAMOT \r\nDESTINATION ZGGG IS SUBJECT TO FLOW CONTROL RESTRICTION FOR THE \r\nFOLLOWING ROUTE SEGMENT:\r\n\r\nA583 SABNO - TAMOT, 10 MINUTES\r\n\r\nRMK: FLOW CONTROL MAY BE ADJUSTED SUBJECT TO SITUATION AND \r\nDISCRETION OF HONG KONG ATS WATCH SUPERVISOR.","series":"A","source":"nms","status":"upcoming","title":"香港 VHHK A2255/26","upper":null,"valid_end":"2026-09-27T18:00:00+00:00","valid_raw":[],"valid_start":"2026-09-27T16:00:00+00:00"},"type":"Feature"},{"geometry":{"coordinates":[-122.01579444,37.54243611],"type":"Point"},"properties":{"area_group":"REF","category":"restriction","date":"2026-09-27","ended_by":null,"estimated_end":false,"fir":"KZAK","first_seen":"2026-09-27T12:01:24+00:00","focus_tag":"restriction","geometry_source":"api-point","icao_location":"KZAK","issuer":"CARF","keyword_hit":false,"kind":"point","last_updated":"2026-09-27T10:56:00Z","lower":"SFC","matched_keywords":[],"nms_id":"1790506570974581","notam_type":null,"number":"09/332","q_code":"QRACA","qline_offset_nm":null,"radius_nm":null,"raw_text":"!CARF 09/332 ZAK AIRSPACE DCC QUEEN 26-1 STNR ALT RESERVATION WI AN AREA DEFINED AS 331300N1222400W TO 325400N1233300W TO 344600N1244000W TO 351300N1233400W TO POINT OF ORIGIN SFC-UNL","series":null,"source":"nms","status":"upcoming","title":"周辺国FIR(参考) KZAK 09/332","upper":"UNL","valid_end":"2026-09-29T20:30:00+00:00","valid_raw":[],"valid_start":"2026-09-29T14:00:00+00:00"},"type":"Feature"},{"geometry":{"coordinates":[-122.01579444,37.54243611],"type":"Point"},"properties":{"area_group":"REF","category":"restriction","date":"2026-09-27","ended_by":null,"estimated_end":false,"fir":"KZAK","first_seen":"2026-09-27T12:01:24+00:00","focus_tag":"restriction","geometry_source":"api-point","icao_location":"KZAK","issuer":"KZAK","keyword_hit":false,"kind":"point","last_updated":"2026-09-27T10:56:00Z","lower":"SFC","matched_keywords":[],"nms_id":"1790506570743752","notam_type":"N","number":"A4705/26","q_code":"QRACA","qline_offset_nm":null,"radius_nm":null,"raw_text":"A4705/26 NOTAMN\nQ) KZAK/QRACA/IV/NBO/W/000/999/\nA) KZAK\nB) 2609291400\nC) 2609292030\nE) ZAK AIRSPACE DCC QUEEN 26-1 STNR ALT RESERVATION WI AN AREA DEFINED AS 331300N1222400W TO 325400N1233300W TO 344600N1244000W TO 351300N1233400W TO POINT OF ORIGIN\nF) SFC\nG) UNL","series":"A","source":"nms","status":"upcoming","title":"周辺国FIR(参考) KZAK A4705/26","upper":"UNL","valid_end":"2026-09-29T20:30:00+00:00","valid_raw":[],"valid_start":"2026-09-29T14:00:00+00:00"},"type":"Feature"},{"geometry":{"coordinates":[[[141.7,42.866517],[141.711109,42.866116],[141.722112,42.864919],[141.732901,42.862935],[141.743373,42.860185],[141.753428,42.856695],[141.762969,42.852498],[141.771902,42.847635],[141.780144,42.842153],[141.787613,42.836104],[141.794239,42.829548],[141.799957,42.822546],[141.804713,42.815166],[141.80846,42.80748],[141.811163,42.799562],[141.812795,42.791487],[141.81334,42.783333],[141.812795,42.77518],[141.811163,42.767105],[141.80846,42.759186],[141.804713,42.7515],[141.799957,42.744121],[141.794239,42.737119],[141.787613,42.730562],[141.780144,42.724514],[141.771902,42.719032],[141.762969,42.714169],[141.753428,42.709972],[141.743373,42.706482],[141.732901,42.703732],[141.722112,42.701748],[141.711109,42.70055],[141.7,42.70015],[141.688891,42.70055],[141.677888,42.701748],[141.667099,42.703732],[141.656627,42.706482],[141.646572,42.709972],[141.637031,42.714169],[141.628098,42.719032],[141.619856,42.724514],[141.612387,42.730562],[141.605761,42.737119],[141.600043,42.744121],[141.595287,42.7515],[141.59154,42.759186],[141.588837,42.767105],[141.587205,42.77518],[141.58666,42.783333],[141.587205,42.791487],[141.588837,42.799562],[141.59154,42.80748],[141.595287,42.815166],[141.600043,42.822546],[141.605761,42.829548],[141.612387,42.836104],[141.619856,42.842153],[141.628098,42.847635],[141.637031,42.852498],[141.646572,42.856695],[141.656627,42.860185],[141.667099,42.862935],[141.677888,42.864919],[141.688891,42.866116],[141.7,42.866517]]],"type":"Polygon"},"properties":{"area_group":"REF","category":"other","date":"2026-09-27","ended_by":null,"estimated_end":false,"fir":"RJJJ","first_seen":"2026-09-27T12:01:24+00:00","focus_tag":"admin","geometry_source":"qline-circle","icao_location":"RJCC","issuer":"RJAAYNYX","keyword_hit":true,"kind":"area","last_updated":"2026-09-27T08:15:00.000Z","lower":null,"matched_keywords":["CLSD"],"nms_id":"1790496904925000","notam_type":"N","number":"C2555/26","q_code":"QMRLC","qline_offset_nm":null,"radius_nm":5.0,"raw_text":"C2555/26 NOTAMN\r\nQ)RJJJ/QMRLC/IV/NBO/A/000/999/4247N14142E005\r\nA)RJCC B)2609271405 C)2609272200\r\nE)RWY 01L/19R CLSD DUE TO CONST\r\nAVBL TAX BTN TWY A2 AND B2,BTN A12 AND B12","series":"C","source":"nms","status":"upcoming","title":"周辺国FIR(参考) RJCC C2555/26","upper":null,"valid_end":"2026-09-27T22:00:00+00:00","valid_raw":[],"valid_start":"2026-09-27T14:05:00+00:00"},"type":"Feature"},{"geometry":{"coordinates":[[[130.45,33.666517],[130.459787,33.666116],[130.46948,33.664919],[130.478985,33.662935],[130.488211,33.660185],[130.497069,33.656695],[130.505474,33.652498],[130.513344,33.647635],[130.520605,33.642153],[130.527185,33.636104],[130.533023,33.629548],[130.53806,33.622546],[130.54225,33.615166],[130.545551,33.60748],[130.547932,33.599562],[130.54937,33.591487],[130.54985,33.583333],[130.54937,33.57518],[130.547932,33.567105],[130.545551,33.559186],[130.54225,33.5515],[130.53806,33.544121],[130.533023,33.537119],[130.527185,33.530562],[130.520605,33.524514],[130.513344,33.519032],[130.505474,33.514169],[130.497069,33.509972],[130.488211,33.506482],[130.478985,33.503732],[130.46948,33.501748],[130.459787,33.50055],[130.45,33.50015],[130.440213,33.50055],[130.43052,33.501748],[130.421015,33.503732],[130.411789,33.506482],[130.402931,33.509972],[130.394526,33.514169],[130.386656,33.519032],[130.379395,33.524514],[130.372815,33.530562],[130.366977,33.537119],[130.36194,33.544121],[130.35775,33.5515],[130.354449,33.559186],[130.352068,33.567105],[130.35063,33.57518],[130.35015,33.583333],[130.35063,33.591487],[130.352068,33.599562],[130.354449,33.60748],[130.35775,33.615166],[130.36194,33.622546],[130.366977,33.629548],[130.372815,33.636104],[130.379395,33.642153],[130.386656,33.647635],[130.394526,33.652498],[130.402931,33.656695],[130.411789,33.660185],[130.421015,33.662935],[130.43052,33.664919],[130.440213,33.666116],[130.45,33.666517]]],"type":"Polygon"},"properties":{"area_group":"REF","category":"other","date":"2026-09-27","ended_by":null,"estimated_end":false,"fir":"RJJJ","first_seen":"2026-09-27T12:01:24+00:00","focus_tag":"admin","geometry_source":"qline-circle","icao_location":"RJFF","issuer":"RJAAYNYX","keyword_hit":false,"kind":"area","last_updated":"2026-09-27T09:34:00.000Z","lower":null,"matched_keywords":[],"nms_id":"1790501665198000","notam_type":"N","number":"F1047/26","q_code":"QLFAS","qline_offset_nm":null,"radius_nm":5.0,"raw_text":"F1047/26 NOTAMN\r\nQ)RJJJ/QLFAS/I/BO/A/000/999/3335N13027E005\r\nA)RJFF B)2609301500 C)2610281500\r\nE)SEQUENCED-FLG-LGT FOR RWY 16L U/S\r\nRMK: (1)REF AIP SUP 226/26 ITEM RWY:1\r\n(2)THE EXACT TIME OF NEXT PERIOD WILL BE NOTIFIED BY FURTHER NOTAM","series":"F","source":"nms","status":"upcoming","title":"周辺国FIR(参考) RJFF F1047/26","upper":null,"valid_end":"2026-10-28T15:00:00+00:00","valid_raw":[],"valid_start":"2026-09-30T15:00:00+00:00"},"type":"Feature"},{"geometry":{"coordinates":[[[130.45,33.666517],[130.459787,33.666116],[130.46948,33.664919],[130.478985,33.662935],[130.488211,33.660185],[130.497069,33.656695],[130.505474,33.652498],[130.513344,33.647635],[130.520605,33.642153],[130.527185,33.636104],[130.533023,33.629548],[130.53806,33.622546],[130.54225,33.615166],[130.545551,33.60748],[130.547932,33.599562],[130.54937,33.591487],[130.54985,33.583333],[130.54937,33.57518],[130.547932,33.567105],[130.545551,33.559186],[130.54225,33.5515],[130.53806,33.544121],[130.533023,33.537119],[130.527185,33.530562],[130.520605,33.524514],[130.513344,33.519032],[130.505474,33.514169],[130.497069,33.509972],[130.488211,33.506482],[130.478985,33.503732],[130.46948,33.501748],[130.459787,33.50055],[130.45,33.50015],[130.440213,33.50055],[130.43052,33.501748],[130.421015,33.503732],[130.411789,33.506482],[130.402931,33.509972],[130.394526,33.514169],[130.386656,33.519032],[130.379395,33.524514],[130.372815,33.530562],[130.366977,33.537119],[130.36194,33.544121],[130.35775,33.5515],[130.354449,33.559186],[130.352068,33.567105],[130.35063,33.57518],[130.35015,33.583333],[130.35063,33.591487],[130.352068,33.599562],[130.354449,33.60748],[130.35775,33.615166],[130.36194,33.622546],[130.366977,33.629548],[130.372815,33.636104],[130.379395,33.642153],[130.386656,33.647635],[130.394526,33.652498],[130.402931,33.656695],[130.411789,33.660185],[130.421015,33.662935],[130.43052,33.664919],[130.440213,33.666116],[130.45,33.666517]]],"type":"Polygon"},"properties":{"area_group":"REF","category":"other","date":"2026-09-27","ended_by":null,"estimated_end":false,"fir":"RJJJ","first_seen":"2026-09-27T12:01:24+00:00","focus_tag":"admin","geometry_source":"qline-circle","icao_location":"RJFF","issuer":"RJAAYNYX","keyword_hit":false,"kind":"area","last_updated":"2026-09-27T09:35:00.000Z","lower":null,"matched_keywords":[],"nms_id":"1790501752511000","notam_type":"N","number":"F1048/26","q_code":"QLYAS","qline_offset_nm":null,"radius_nm":5.0,"raw_text":"F1048/26 NOTAMN\r\nQ)RJJJ/QLYAS/IV/M/A/000/999/3335N13027E005\r\nA)RJFF B)2609301500 C)2610281500\r\nE)TWY-EDGE-LGT FOR WEST APN U/S\r\nRMK: (1)REF AIP SUP 226/26 ITEM TWY:2\r\n(2)THE EXACT TIME OF NEXT PERIOD WILL BE NOTIFIED BY FURTHER NOTAM","series":"F","source":"nms","status":"upcoming","title":"周辺国FIR(参考) RJFF F1048/26","upper":null,"valid_end":"2026-10-28T15:00:00+00:00","valid_raw":[],"valid_start":"2026-09-30T15:00:00+00:00"},"type":"Feature"},{"geometry":{"coordinates":[[[130.45,33.666517],[130.459787,33.666116],[130.46948,33.664919],[130.478985,33.662935],[130.488211,33.660185],[130.497069,33.656695],[130.505474,33.652498],[130.513344,33.647635],[130.520605,33.642153],[130.527185,33.636104],[130.533023,33.629548],[130.53806,33.622546],[130.54225,33.615166],[130.545551,33.60748],[130.547932,33.599562],[130.54937,33.591487],[130.54985,33.583333],[130.54937,33.57518],[130.547932,33.567105],[130.545551,33.559186],[130.54225,33.5515],[130.53806,33.544121],[130.533023,33.537119],[130.527185,33.530562],[130.520605,33.524514],[130.513344,33.519032],[130.505474,33.514169],[130.497069,33.509972],[130.488211,33.506482],[130.478985,33.503732],[130.46948,33.501748],[130.459787,33.50055],[130.45,33.50015],[130.440213,33.50055],[130.43052,33.501748],[130.421015,33.503732],[130.411789,33.506482],[130.402931,33.509972],[130.394526,33.514169],[130.386656,33.519032],[130.379395,33.524514],[130.372815,33.530562],[130.366977,33.537119],[130.36194,33.544121],[130.35775,33.5515],[130.354449,33.559186],[130.352068,33.567105],[130.35063,33.57518],[130.35015,33.583333],[130.35063,33.591487],[130.352068,33.599562],[130.354449,33.60748],[130.35775,33.615166],[130.36194,33.622546],[130.366977,33.629548],[130.372815,33.636104],[130.379395,33.642153],[130.386656,33.647635],[130.394526,33.652498],[130.402931,33.656695],[130.411789,33.660185],[130.421015,33.662935],[130.43052,33.664919],[130.440213,33.666116],[130.45,33.666517]]],"type":"Polygon"},"properties":{"area_group":"REF","category":"other","date":"2026-09-27","ended_by":null,"estimated_end":false,"fir":"RJJJ","first_seen":"2026-09-27T12:01:24+00:00","focus_tag":"admin","geometry_source":"qline-circle","icao_location":"RJFF","issuer":"RJAAYNYX","keyword_hit":false,"kind":"area","last_updated":"2026-09-27T09:39:00.000Z","lower":null,"matched_keywords":[],"nms_id":"1790501961364000","notam_type":"N","number":"F1049/26","q_code":"QLRAS","qline_offset_nm":null,"radius_nm":5.0,"raw_text":"F1049/26 NOTAMN\r\nQ)RJJJ/QLRAS/IV/NBO/A/000/999/3335N13027E005\r\nA)RJFF B)2609301500 C)2610281500\r\nE)ACFT-STAND-ID-SIGN FOR SPOT 56,57,58 U/S\r\nRMK: (1)REF AIP SUP 226/26 ITEM APRON:1\r\n(2)THE EXACT TIME OF NEXT PERIOD WILL BE NOTIFIED BY FURTHER NOTAM","series":"F","source":"nms","status":"upcoming","title":"周辺国FIR(参考) RJFF F1049/26","upper":null,"valid_end":"2026-10-28T15:00:00+00:00","valid_raw":[],"valid_start":"2026-09-30T15:00:00+00:00"},"type":"Feature"},{"geometry":{"coordinates":[131.033333,33.85],"type":"Point"},"properties":{"area_group":"REF","category":"other","date":"2026-08-28","ended_by":"L4170/26","estimated_end":false,"fir":"RJJJ","first_seen":"2026-09-27T12:01:24+00:00","focus_tag":"admin","geometry_source":"qline-point","icao_location":"RJFR","issuer":"RJAAYNYX","keyword_hit":true,"kind":"point","last_updated":"2026-09-27T07:47:00.000Z","lower":null,"matched_keywords":["CLSD"],"nms_id":"1787934019931000","notam_type":"N","number":"L3816/26","q_code":"QMXLC","qline_offset_nm":null,"radius_nm":null,"raw_text":"L3816/26 NOTAMN\r\nQ)RJJJ/QMXLC/IV/M/A/000/999/3351N13102E005\r\nA)RJFR B)2609271700 C)2609271900\r\nE)ALL TWY CLSD DUE TO MAINT\r\nEXC ACFT WITH PRIOR PERMISSION AT LEAST 1HR BFR","series":"L","source":"nms","status":"upcoming","title":"周辺国FIR(参考) RJFR L3816/26","upper":null,"valid_end":"2026-09-27T07:47:00+00:00","valid_raw":[],"valid_start":"2026-09-27T17:00:00+00:00"},"type":"Feature"},{"geometry":{"coordinates":[[[131.033333,33.933184],[131.043151,33.932783],[131.052874,33.931585],[131.062409,33.929602],[131.071663,33.926852],[131.080549,33.923361],[131.08898,33.919165],[131.096875,33.914302],[131.104158,33.90882],[131.110759,33.902771],[131.116614,33.896214],[131.121667,33.889212],[131.12587,33.881833],[131.129181,33.874147],[131.13157,33.866228],[131.133012,33.858153],[131.133494,33.85],[131.133012,33.841847],[131.13157,33.833772],[131.129181,33.825853],[131.12587,33.818167],[131.121667,33.810788],[131.116614,33.803786],[131.110759,33.797229],[131.104158,33.79118],[131.096875,33.785698],[131.08898,33.780835],[131.080549,33.776639],[131.071663,33.773148],[131.062409,33.770398],[131.052874,33.768415],[131.043151,33.767217],[131.033333,33.766816],[131.023516,33.767217],[131.013793,33.768415],[131.004258,33.770398],[130.995003,33.773148],[130.986118,33.776639],[130.977687,33.780835],[130.969792,33.785698],[130.962509,33.79118],[130.955908,33.797229],[130.950052,33.803786],[130.944999,33.810788],[130.940797,33.818167],[130.937485,33.825853],[130.935097,33.833772],[130.933655,33.841847],[130.933172,33.85],[130.933655,33.858153],[130.935097,33.866228],[130.937485,33.874147],[130.940797,33.881833],[130.944999,33.889212],[130.950052,33.896214],[130.955908,33.902771],[130.962509,33.90882],[130.969792,33.914302],[130.977687,33.919165],[130.986118,33.923361],[130.995003,33.926852],[131.004258,33.929602],[131.013793,33.931585],[131.023516,33.932783],[131.033333,33.933184]]],"type":"Polygon"},"properties":{"area_group":"REF","category":"other","date":"2026-08-28","ended_by":"L4169/26","estimated_end":false,"fir":"RJJJ","first_seen":"2026-09-27T12:01:24+00:00","focus_tag":"admin","geometry_source":"qline-circle","icao_location":"RJFR","issuer":"RJAAYNYX","keyword_hit":true,"kind":"area","last_updated":"2026-09-27T07:46:00Z","lower":null,"matched_keywords":["CLSD"],"nms_id":"1787935833308000","notam_type":"N","number":"L3822/26","q_code":"QMRLC","qline_offset_nm":null,"radius_nm":5.0,"raw_text":"L3822/26 NOTAMN\r\nQ)RJJJ/QMRLC/IV/NBO/A/000/999/3351N13102E005\r\nA)RJFR B)2609271700 C)2609271900\r\nE)RWY 18/36 CLSD DUE TO MAINT\r\nEXC ACFT WITH PRIOR PERMISSION AT LEAST 1HR BFR","series":"L","source":"nms","status":"upcoming","title":"周辺国FIR(参考) RJFR L3822/26","upper":null,"valid_end":"2026-09-27T07:45:00+00:00","valid_raw":[],"valid_start":"2026-09-27T17:00:00+00:00"},"type":"Feature"},{"geometry":{"coordinates":[[[136.8,34.933184],[136.809935,34.932783],[136.819775,34.931585],[136.829424,34.929602],[136.83879,34.926852],[136.847782,34.923361],[136.856314,34.919165],[136.864304,34.914302],[136.871674,34.90882],[136.878355,34.902771],[136.88428,34.896214],[136.889394,34.889212],[136.893647,34.881833],[136.896998,34.874147],[136.899415,34.866228],[136.900875,34.858153],[136.901363,34.85],[136.900875,34.841847],[136.899415,34.833772],[136.896998,34.825853],[136.893647,34.818167],[136.889394,34.810788],[136.88428,34.803786],[136.878355,34.797229],[136.871674,34.79118],[136.864304,34.785698],[136.856314,34.780835],[136.847782,34.776639],[136.83879,34.773148],[136.829424,34.770398],[136.819775,34.768415],[136.809935,34.767217],[136.8,34.766816],[136.790065,34.767217],[136.780225,34.768415],[136.770576,34.770398],[136.76121,34.773148],[136.752218,34.776639],[136.743686,34.780835],[136.735696,34.785698],[136.728326,34.79118],[136.721645,34.797229],[136.71572,34.803786],[136.710606,34.810788],[136.706353,34.818167],[136.703002,34.825853],[136.700585,34.833772],[136.699125,34.841847],[136.698637,34.85],[136.699125,34.858153],[136.700585,34.866228],[136.703002,34.874147],[136.706353,34.881833],[136.710606,34.889212],[136.71572,34.896214],[136.721645,34.902771],[136.728326,34.90882],[136.735696,34.914302],[136.743686,34.919165],[136.752218,34.923361],[136.76121,34.926852],[136.770576,34.929602],[136.780225,34.931585],[136.790065,34.932783],[136.8,34.933184]]],"type":"Polygon"},"properties":{"area_group":"REF","category":"other","date":"2026-09-27","ended_by":null,"estimated_end":false,"fir":"RJJJ","first_seen":"2026-09-27T12:01:24+00:00","focus_tag":"admin","geometry_source":"qline-circle","icao_location":"RJGG","issuer":"RJAAYNYX","keyword_hit":true,"kind":"area","last_updated":"2026-09-27T09:03:00.000Z","lower":null,"matched_keywords":["CLSD"],"nms_id":"1790499790139000","notam_type":"N","number":"G2376/26","q_code":"QMRLC","qline_offset_nm":null,"radius_nm":5.0,"raw_text":"G2376/26 NOTAMN\r\nQ)RJJJ/QMRLC/IV/NBO/A/000/999/3451N13648E005\r\nA)RJGG B)2610011750 C)2610012010\r\nE)RWY 18/36 CLSD DUE TO MAINT\r\nEXC ACFT WITH PRIOR PERMISSION AT LEAST 1HR BFR","series":"G","source":"nms","status":"upcoming","title":"周辺国FIR(参考) RJGG G2376/26","upper":null,"valid_end":"2026-10-01T20:10:00+00:00","valid_raw":[],"valid_start":"2026-10-01T17:50:00+00:00"},"type":"Feature"},{"geometry":{"coordinates":[[[136.8,34.933184],[136.809935,34.932783],[136.819775,34.931585],[136.829424,34.929602],[136.83879,34.926852],[136.847782,34.923361],[136.856314,34.919165],[136.864304,34.914302],[136.871674,34.90882],[136.878355,34.902771],[136.88428,34.896214],[136.889394,34.889212],[136.893647,34.881833],[136.896998,34.874147],[136.899415,34.866228],[136.900875,34.858153],[136.901363,34.85],[136.900875,34.841847],[136.899415,34.833772],[136.896998,34.825853],[136.893647,34.818167],[136.889394,34.810788],[136.88428,34.803786],[136.878355,34.797229],[136.871674,34.79118],[136.864304,34.785698],[136.856314,34.780835],[136.847782,34.776639],[136.83879,34.773148],[136.829424,34.770398],[136.819775,34.768415],[136.809935,34.767217],[136.8,34.766816],[136.790065,34.767217],[136.780225,34.768415],[136.770576,34.770398],[136.76121,34.773148],[136.752218,34.776639],[136.743686,34.780835],[136.735696,34.785698],[136.728326,34.79118],[136.721645,34.797229],[136.71572,34.803786],[136.710606,34.810788],[136.706353,34.818167],[136.703002,34.825853],[136.700585,34.833772],[136.699125,34.841847],[136.698637,34.85],[136.699125,34.858153],[136.700585,34.866228],[136.703002,34.874147],[136.706353,34.881833],[136.710606,34.889212],[136.71572,34.896214],[136.721645,34.902771],[136.728326,34.90882],[136.735696,34.914302],[136.743686,34.919165],[136.752218,34.923361],[136.76121,34.926852],[136.770576,34.929602],[136.780225,34.931585],[136.790065,34.932783],[136.8,34.933184]]],"type":"Polygon"},"properties":{"area_group":"REF","category":"other","date":"2026-09-27","ended_by":null,"estimated_end":false,"fir":"RJJJ","first_seen":"2026-09-27T12:01:24+00:00","focus_tag":"admin","geometry_source":"qline-circle","icao_location":"RJGG","issuer":"RJAAYNYX","keyword_hit":true,"kind":"area","last_updated":"2026-09-27T09:09:00Z","lower":null,"matched_keywords":["CLSD"],"nms_id":"1790500134915000","notam_type":"N","number":"G2377/26","q_code":"QMXLC","qline_offset_nm":null,"radius_nm":5.0,"raw_text":"G2377/26 NOTAMN\r\nQ)RJJJ/QMXLC/IV/M/A/000/999/3451N13648E005\r\nA)RJGG B)2610011750 C)2610012010\r\nE)TWY A(INT OF B1),A(FM B5 TO B6),A(INT OF\r\nB10),A1,A5,A6,A10,B,B1,B5,B6,B10,C,C7 THRU C10 CLSD DUE TO MAINT\r\nEXC ACFT WITH PRIOR PERMISSION AT LEAST 1HR BFR","series":"G","source":"nms","status":"upcoming","title":"周辺国FIR(参考) RJGG G2377/26","upper":null,"valid_end":"2026-10-01T20:10:00+00:00","valid_raw":[],"valid_start":"2026-10-01T17:50:00+00:00"},"type":"Feature"},{"geometry":{"coordinates":[[[136.8,34.933184],[136.809935,34.932783],[136.819775,34.931585],[136.829424,34.929602],[136.83879,34.926852],[136.847782,34.923361],[136.856314,34.919165],[136.864304,34.914302],[136.871674,34.90882],[136.878355,34.902771],[136.88428,34.896214],[136.889394,34.889212],[136.893647,34.881833],[136.896998,34.874147],[136.899415,34.866228],[136.900875,34.858153],[136.901363,34.85],[136.900875,34.841847],[136.899415,34.833772],[136.896998,34.825853],[136.893647,34.818167],[136.889394,34.810788],[136.88428,34.803786],[136.878355,34.797229],[136.871674,34.79118],[136.864304,34.785698],[136.856314,34.780835],[136.847782,34.776639],[136.83879,34.773148],[136.829424,34.770398],[136.819775,34.768415],[136.809935,34.767217],[136.8,34.766816],[136.790065,34.767217],[136.780225,34.768415],[136.770576,34.770398],[136.76121,34.773148],[136.752218,34.776639],[136.743686,34.780835],[136.735696,34.785698],[136.728326,34.79118],[136.721645,34.797229],[136.71572,34.803786],[136.710606,34.810788],[136.706353,34.818167],[136.703002,34.825853],[136.700585,34.833772],[136.699125,34.841847],[136.698637,34.85],[136.699125,34.858153],[136.700585,34.866228],[136.703002,34.874147],[136.706353,34.881833],[136.710606,34.889212],[136.71572,34.896214],[136.721645,34.902771],[136.728326,34.90882],[136.735696,34.914302],[136.743686,34.919165],[136.752218,34.923361],[136.76121,34.926852],[136.770576,34.929602],[136.780225,34.931585],[136.790065,34.932783],[136.8,34.933184]]],"type":"Polygon"},"properties":{"area_group":"REF","category":"other","date":"2026-09-27","ended_by":null,"estimated_end":false,"fir":"RJJJ","first_seen":"2026-09-27T12:01:24+00:00","focus_tag":"admin","geometry_source":"qline-circle","icao_location":"RJGG","issuer":"RJAAYNYX","keyword_hit":true,"kind":"area","last_updated":"2026-09-27T09:12:00.000Z","lower":null,"matched_keywords":["CLSD"],"nms_id":"1790500354689000","notam_type":"N","number":"G2378/26","q_code":"QMXLC","qline_offset_nm":null,"radius_nm":5.0,"raw_text":"G2378/26 NOTAMN\r\nQ)RJJJ/QMXLC/IV/M/A/000/999/3451N13648E005\r\nA)RJGG B)2610011500 C)2610012010\r\nE)ACFT STAND TXL E,E2 THRU E6,P,J,K3 CLSD DUE TO MAINT\r\nEXC ACFT WITH PRIOR PERMISSION AT LEAST 1HR BFR","series":"G","source":"nms","status":"upcoming","title":"周辺国FIR(参考) RJGG G2378/26","upper":null,"valid_end":"2026-10-01T20:10:00+00:00","valid_raw":[],"valid_start":"2026-10-01T15:00:00+00:00"},"type":"Feature"},{"geometry":{"coordinates":[[[136.8,34.933184],[136.809935,34.932783],[136.819775,34.931585],[136.829424,34.929602],[136.83879,34.926852],[136.847782,34.923361],[136.856314,34.919165],[136.864304,34.914302],[136.871674,34.90882],[136.878355,34.902771],[136.88428,34.896214],[136.889394,34.889212],[136.893647,34.881833],[136.896998,34.874147],[136.899415,34.866228],[136.900875,34.858153],[136.901363,34.85],[136.900875,34.841847],[136.899415,34.833772],[136.896998,34.825853],[136.893647,34.818167],[136.889394,34.810788],[136.88428,34.803786],[136.878355,34.797229],[136.871674,34.79118],[136.864304,34.785698],[136.856314,34.780835],[136.847782,34.776639],[136.83879,34.773148],[136.829424,34.770398],[136.819775,34.768415],[136.809935,34.767217],[136.8,34.766816],[136.790065,34.767217],[136.780225,34.768415],[136.770576,34.770398],[136.76121,34.773148],[136.752218,34.776639],[136.743686,34.780835],[136.735696,34.785698],[136.728326,34.79118],[136.721645,34.797229],[136.71572,34.803786],[136.710606,34.810788],[136.706353,34.818167],[136.703002,34.825853],[136.700585,34.833772],[136.699125,34.841847],[136.698637,34.85],[136.699125,34.858153],[136.700585,34.866228],[136.703002,34.874147],[136.706353,34.881833],[136.710606,34.889212],[136.71572,34.896214],[136.721645,34.902771],[136.728326,34.90882],[136.735696,34.914302],[136.743686,34.919165],[136.752218,34.923361],[136.76121,34.926852],[136.770576,34.929602],[136.780225,34.931585],[136.790065,34.932783],[136.8,34.933184]]],"type":"Polygon"},"properties":{"area_group":"REF","category":"other","date":"2026-09-27","ended_by":null,"estimated_end":false,"fir":"RJJJ","first_seen":"2026-09-27T12:01:24+00:00","focus_tag":"admin","geometry_source":"qline-circle","icao_location":"RJGG","issuer":"RJAAYNYX","keyword_hit":true,"kind":"area","last_updated":"2026-09-27T09:15:00.000Z","lower":null,"matched_keywords":["CLSD"],"nms_id":"1790500512711000","notam_type":"N","number":"G2379/26","q_code":"QMXLC","qline_offset_nm":null,"radius_nm":5.0,"raw_text":"G2379/26 NOTAMN\r\nQ)RJJJ/QMXLC/IV/M/A/000/999/3451N13648E005\r\nA)RJGG B)2610011500 C)2610012100\r\nE)ACFT STAND TXL D,D5 THRU D7,N CLSD DUE TO MAINT\r\nEXC ACFT WITH PRIOR PERMISSION AT LEAST 1HR BFR","series":"G","source":"nms","status":"upcoming","title":"周辺国FIR(参考) RJGG G2379/26","upper":null,"valid_end":"2026-10-01T21:00:00+00:00","valid_raw":[],"valid_start":"2026-10-01T15:00:00+00:00"},"type":"Feature"},{"geometry":{"coordinates":[141.3,33.166667],"type":"Point"},"properties":{"area_group":"REF","category":"restriction","date":"2026-09-27","ended_by":null,"estimated_end":false,"fir":"RJJJ","first_seen":"2026-09-27T12:01:24+00:00","focus_tag":"restriction","geometry_source":"qline-point","icao_location":"RJJJ","issuer":"RJAAYNYX","keyword_hit":false,"kind":"point","last_updated":"2026-09-27T08:03:00.000Z","lower":"FL260","matched_keywords":[],"nms_id":"1790496193574000","notam_type":"N","number":"P4793/26","q_code":"QRMCA","qline_offset_nm":null,"radius_nm":999.0,"raw_text":"P4793/26 NOTAMN\r\nQ)RJJJ/QRMCA/IV/BO/W/260/400/3310N14118E999\r\nA)RJJJ B)2609290400 C)2609290450\r\nE)HIGH ALT TRAINING/TESTING AREA K-1-2 AND K-1-3 ACT AS FLWS,\r\nNAME/ID                   ALT\r\nK-1-2(AIRSPACE ABV FL260) FL260/FL400\r\nK-1-3(AIRSPACE ABV FL310) FL310/FL400\r\nRMK: REF AIP PAGE ENR 5.2-13\r\nF)FL260 G)FL400","series":"P","source":"nms","status":"upcoming","title":"周辺国FIR(参考) RJJJ P4793/26","upper":"FL400","valid_end":"2026-09-29T04:50:00+00:00","valid_raw":[],"valid_start":"2026-09-29T04:00:00+00:00"},"type":"Feature"},{"geometry":{"coordinates":[141.3,33.166667],"type":"Point"},"properties":{"area_group":"REF","category":"other","date":"2026-09-27","ended_by":null,"estimated_end":false,"fir":"RJJJ","first_seen":"2026-09-27T12:01:24+00:00","focus_tag":"admin","geometry_source":"qline-point","icao_location":"RJJJ","issuer":"RJAAYNYX","keyword_hit":false,"kind":"point","last_updated":"2026-09-27T06:36:00Z","lower":null,"matched_keywords":[],"nms_id":"1790490939516000","notam_type":"R","number":"Q2292/26","q_code":"QANCA","qline_offset_nm":null,"radius_nm":999.0,"raw_text":"Q2292/26 NOTAMR Q2286/26\r\nQ)RJJJ/QANCA/I/NBO/E/000/999/3310N14118E999\r\nA)RJJJ B)2609270635 C)2609272100\r\nE)CDR ARE ESTABLISHED AS FLW,\r\n    RTE         PERIOD                 MNM APPLICABLE ALT\r\n1)  Z16         2609270645/2609272100  MEA\r\n2)  Z17         2609270645/2609272100  MEA\r\n3)  Z18         2609270645/2609272100  MEA\r\n4)  Z21         2609270645/2609272100  MEA\r\n5)  Z101        2609262100/2609272100  MEA\r\n6)  Z102        2609262100/2609272100  MEA\r\n7)  Z162        2609270645/2609272100  MEA\r\n8)  Z171        2609270645/2609272100  MEA\r\n9)  Z182        2609270645/2609272100  MEA\r\nRMK: REF AIP ENR3.3","series":"Q","source":"nms","status":"active","title":"周辺国FIR(参考) RJJJ Q2292/26","upper":null,"valid_end":"2026-09-27T21:00:00+00:00","valid_raw":[],"valid_start":"2026-09-27T06:35:00+00:00"},"type":"Feature"},{"geometry":{"coordinates":[141.3,33.166667],"type":"Point"},"properties":{"area_group":"REF","category":"other","date":"2026-09-27","ended_by":null,"estimated_end":false,"fir":"RJJJ","first_seen":"2026-09-27T12:01:24+00:00","focus_tag":"admin","geometry_source":"qline-point","icao_location":"RJJJ","issuer":"RJAAYNYX","keyword_hit":false,"kind":"point","last_updated":"2026-09-27T09:25:00Z","lower":null,"matched_keywords":[],"nms_id":"1790501088678000","notam_type":"N","number":"Q2293/26","q_code":"QANCA","qline_offset_nm":null,"radius_nm":999.0,"raw_text":"Q2293/26 NOTAMN\r\nQ)RJJJ/QANCA/I/NBO/E/000/999/3310N14118E999\r\nA)RJJJ B)2609272100 C)2609282100\r\nE)CDR ARE ESTABLISHED AS FLW,\r\n    RTE         PERIOD                 MNM APPLICABLE ALT\r\n1)  Z16         2609281300/2609282100  MEA\r\n2)  Z17         2609272100/2609272200  MEA\r\n    Z17         2609281300/2609282100  MEA\r\n3)  Z18         2609272100/2609272200  MEA\r\n    Z18         2609281300/2609282100  MEA\r\n4)  Z21         2609272100/2609272200  MEA\r\n    Z21         2609281200/2609282100  MEA\r\n5)  Z101        2609281300/2609282100  MEA\r\n6)  Z102        2609281300/2609282100  MEA\r\n7)  Z162        2609272100/2609272200  MEA\r\n    Z162        2609281300/2609282100  MEA\r\n8)  Z171        2609272100/2609272200  MEA\r\n    Z171        2609281200/2609282100  MEA\r\n9)  Z182        2609272100/2609272200  MEA\r\n    Z182        2609281200/2609282100  MEA\r\nRMK: REF AIP ENR3.3","series":"Q","source":"nms","status":"upcoming","title":"周辺国FIR(参考) RJJJ Q2293/26","upper":null,"valid_end":"2026-09-28T21:00:00+00:00","valid_raw":[],"valid_start":"2026-09-27T21:00:00+00:00"},"type":"Feature"},{"geometry":{"coordinates":[141.3,33.166667],"type":"Point"},"properties":{"area_group":"REF","category":"other","date":"2026-09-27","ended_by":null,"estimated_end":false,"fir":"RJJJ","first_seen":"2026-09-27T12:01:24+00:00","focus_tag":"admin","geometry_source":"qline-point","icao_location":"RJJJ","issuer":"RJAAYNYX","keyword_hit":false,"kind":"point","last_updated":"2026-09-27T09:25:00.000Z","lower":null,"matched_keywords":[],"nms_id":"1790501103673000","notam_type":"N","number":"Q2294/26","q_code":"QANCA","qline_offset_nm":null,"radius_nm":999.0,"raw_text":"Q2294/26 NOTAMN\r\nQ)RJJJ/QANCA/I/NBO/E/000/999/3310N14118E999\r\nA)RJJJ B)2609272200 C)2609282200\r\nE)CDR ARE ESTABLISHED AS FLW,\r\n    RTE         PERIOD                 MNM APPLICABLE ALT\r\n1)  L512        2609281200/2609282200  MEA\r\n2)  Z13         2609281200/2609282200  MEA\r\n3)  Z14         2609281200/2609282200  MEA\r\n4)  Z25         2609281330/2609282200  MEA\r\n5)  Z26         2609281330/2609282200  MEA\r\n6)  Z27         2609281330/2609282200  MEA\r\n7)  Z40         2609272200/2609272300  MEA\r\n    Z40         2609281400/2609282200  MEA\r\n8)  Z41         2609272200/2609272300  MEA\r\n    Z41         2609281400/2609282200  MEA\r\n9)  Z262        2609281330/2609282200  MEA\r\nRMK: REF AIP ENR3.3","series":"Q","source":"nms","status":"upcoming","title":"周辺国FIR(参考) RJJJ Q2294/26","upper":null,"valid_end":"2026-09-28T22:00:00+00:00","valid_raw":[],"valid_start":"2026-09-27T22:00:00+00:00"},"type":"Feature"},{"geometry":{"coordinates":[[[130.65,33.596407],[130.879747,33.586794],[131.107282,33.558046],[131.330413,33.510442],[131.546991,33.444439],[131.754931,33.360674],[131.95223,33.259952],[132.136987,33.143243],[132.307424,33.011673],[132.461899,32.866507],[132.598925,32.709144],[132.717181,32.5411],[132.815529,32.363992],[132.893022,32.179526],[132.948913,31.98948],[132.982665,31.795682],[132.993952,31.6],[132.982665,31.404318],[132.948913,31.21052],[132.893022,31.020474],[132.815529,30.836008],[132.717181,30.6589],[132.598925,30.490856],[132.461899,30.333493],[132.307424,30.188327],[132.136987,30.056757],[131.95223,29.940048],[131.754931,29.839326],[131.546991,29.755561],[131.330413,29.689558],[131.107282,29.641954],[130.879747,29.613206],[130.65,29.603593],[130.420253,29.613206],[130.192718,29.641954],[129.969587,29.689558],[129.753009,29.755561],[129.545069,29.839326],[129.34777,29.940048],[129.163013,30.056757],[128.992576,30.188327],[128.838101,30.333493],[128.701075,30.490856],[128.582819,30.6589],[128.484471,30.836008],[128.406978,31.020474],[128.351087,31.21052],[128.317335,31.404318],[128.306048,31.6],[128.317335,31.795682],[128.351087,31.98948],[128.406978,32.179526],[128.484471,32.363992],[128.582819,32.5411],[128.701075,32.709144],[128.838101,32.866507],[128.992576,33.011673],[129.163013,33.143243],[129.34777,33.259952],[129.545069,33.360674],[129.753009,33.444439],[129.969587,33.510442],[130.192718,33.558046],[130.420253,33.586794],[130.65,33.596407]]],"type":"Polygon"},"properties":{"area_group":"REF","category":"warning","date":"2026-09-27","ended_by":null,"estimated_end":false,"fir":"RJJJ","first_seen":"2026-09-27T12:01:24+00:00","focus_tag":"watch","geometry_source":"qline-circle","icao_location":"RJJJ","issuer":"RJAAYNYX","keyword_hit":false,"kind":"area","last_updated":"2026-09-27T11:30:00Z","lower":"SFC","matched_keywords":[],"nms_id":"1790508577180000","notam_type":"N","number":"R1660/26","q_code":"QWWXX","qline_offset_nm":null,"radius_nm":120.0,"raw_text":"R1660/26 NOTAMN\r\nQ)RJJJ/QWWXX/IV/NBO/W/000/080/3136N13039E120\r\nA)RJJJ B)2609271129 C)2609271725\r\nE)VOLCANIC ACTIVITY INFO\r\nSAKURAJIMA(AIRA CALDERA)(KAGOSHIMA-SHI)\r\nPSN/313533N1303924E(REF AIP ENR5.3)\r\nVA CLD OBS AT 1105\r\nFL080 MOV E\r\nF)SFC G)FL080","series":"R","source":"nms","status":"active","title":"周辺国FIR(参考) RJJJ R1660/26","upper":"FL080","valid_end":"2026-09-27T17:25:00+00:00","valid_raw":[],"valid_start":"2026-09-27T11:29:00+00:00"},"type":"Feature"},{"geometry":{"coordinates":[[[141.333333,41.04985],[141.344131,41.04945],[141.354825,41.048252],[141.365312,41.046268],[141.375491,41.043518],[141.385264,41.040028],[141.394537,41.035831],[141.40322,41.030968],[141.411231,41.025486],[141.418491,41.019438],[141.424931,41.012881],[141.430489,41.005879],[141.435111,40.9985],[141.438753,40.990814],[141.44138,40.982895],[141.442967,40.97482],[141.443497,40.966667],[141.442967,40.958513],[141.44138,40.950438],[141.438753,40.94252],[141.435111,40.934834],[141.430489,40.927454],[141.424931,40.920452],[141.418491,40.913896],[141.411231,40.907847],[141.40322,40.902365],[141.394537,40.897502],[141.385264,40.893305],[141.375491,40.889815],[141.365312,40.887065],[141.354825,40.885081],[141.344131,40.883884],[141.333333,40.883483],[141.322535,40.883884],[141.311841,40.885081],[141.301355,40.887065],[141.291176,40.889815],[141.281403,40.893305],[141.27213,40.897502],[141.263446,40.902365],[141.255436,40.907847],[141.248176,40.913896],[141.241736,40.920452],[141.236178,40.927454],[141.231555,40.934834],[141.227913,40.94252],[141.225286,40.950438],[141.2237,40.958513],[141.22317,40.966667],[141.2237,40.97482],[141.225286,40.982895],[141.227913,40.990814],[141.231555,40.9985],[141.236178,41.005879],[141.241736,41.012881],[141.248176,41.019438],[141.255436,41.025486],[141.263446,41.030968],[141.27213,41.035831],[141.281403,41.040028],[141.291176,41.043518],[141.301355,41.046268],[141.311841,41.048252],[141.322535,41.04945],[141.333333,41.04985]]],"type":"Polygon"},"properties":{"area_group":"REF","category":"other","date":"2026-09-27","ended_by":null,"estimated_end":false,"fir":"RJJJ","first_seen":"2026-09-27T12:01:24+00:00","focus_tag":"admin","geometry_source":"qline-circle","icao_location":"RJJJ","issuer":"RJAAYNYX","keyword_hit":false,"kind":"area","last_updated":"2026-09-27T08:15:00Z","lower":null,"matched_keywords":[],"nms_id":"1790496895264000","notam_type":"N","number":"V3693/26","q_code":"QOLAS","qline_offset_nm":null,"radius_nm":5.0,"raw_text":"V3693/26 NOTAMN\r\nQ)RJJJ/QOLAS/IV/M/E/000/007/4058N14120E005\r\nA)RJJJ B)2609270830 C)2612240800\r\nE)OBST LGT U/S\r\nTYPE: CHIMNEY\r\nPSN: 405741.6N1411942.0E ELEV: 682FT AMSL\r\n(KAMIKITA-GUN IN AOMORI)\r\nOBST LGT IN PLACE OF OBST DAY MARKING FOR CHIMNEY","series":"V","source":"nms","status":"active","title":"周辺国FIR(参考) RJJJ V3693/26","upper":null,"valid_end":"2026-12-24T08:00:00+00:00","valid_raw":[],"valid_start":"2026-09-27T08:30:00+00:00"},"type":"Feature"},{"geometry":{"coordinates":[[[134.8,34.816517],[134.809921,34.816116],[134.819747,34.814919],[134.829383,34.812935],[134.838735,34.810185],[134.847715,34.806695],[134.856235,34.802498],[134.864213,34.797635],[134.871573,34.792153],[134.878244,34.786104],[134.884161,34.779548],[134.889268,34.772546],[134.893515,34.765166],[134.896861,34.75748],[134.899275,34.749562],[134.900732,34.741487],[134.90122,34.733333],[134.900732,34.72518],[134.899275,34.717105],[134.896861,34.709186],[134.893515,34.7015],[134.889268,34.694121],[134.884161,34.687119],[134.878244,34.680562],[134.871573,34.674514],[134.864213,34.669032],[134.856235,34.664169],[134.847715,34.659972],[134.838735,34.656482],[134.829383,34.653732],[134.819747,34.651748],[134.809921,34.65055],[134.8,34.65015],[134.790079,34.65055],[134.780253,34.651748],[134.770617,34.653732],[134.761265,34.656482],[134.752285,34.659972],[134.743765,34.664169],[134.735787,34.669032],[134.728427,34.674514],[134.721756,34.680562],[134.715839,34.687119],[134.710732,34.694121],[134.706485,34.7015],[134.703139,34.709186],[134.700725,34.717105],[134.699268,34.72518],[134.69878,34.733333],[134.699268,34.741487],[134.700725,34.749562],[134.703139,34.75748],[134.706485,34.765166],[134.710732,34.772546],[134.715839,34.779548],[134.721756,34.786104],[134.728427,34.792153],[134.735787,34.797635],[134.743765,34.802498],[134.752285,34.806695],[134.761265,34.810185],[134.770617,34.812935],[134.780253,34.814919],[134.790079,34.816116],[134.8,34.816517]]],"type":"Polygon"},"properties":{"area_group":"REF","category":"other","date":"2026-09-27","ended_by":null,"estimated_end":false,"fir":"RJJJ","first_seen":"2026-09-27T12:01:24+00:00","focus_tag":"admin","geometry_source":"qline-circle","icao_location":"RJJJ","issuer":"RJAAYNYX","keyword_hit":false,"kind":"area","last_updated":"2026-09-27T12:00:00.000Z","lower":null,"matched_keywords":[],"nms_id":"1790510434068000","notam_type":"N","number":"V3694/26","q_code":"QOLAS","qline_offset_nm":null,"radius_nm":5.0,"raw_text":"V3694/26 NOTAMN\r\nQ)RJJJ/QOLAS/IV/M/E/000/004/3444N13448E005\r\nA)RJJJ B)2609271200 C)2610271100\r\nE)OBST LGT U/S\r\nTYPE: CHIMNEY\r\nPSN: 344419.6N1344753.0E ELEV: 340FT AMSL\r\n(TAKASAGO-SHI IN HYOGO)","series":"V","source":"nms","status":"active","title":"周辺国FIR(参考) RJJJ V3694/26","upper":null,"valid_end":"2026-10-27T11:00:00+00:00","valid_raw":[],"valid_start":"2026-09-27T12:00:00+00:00"},"type":"Feature"},{"geometry":{"coordinates":[141.3,33.166667],"type":"Point"},"properties":{"area_group":"REF","category":"other","date":"2026-09-27","ended_by":null,"estimated_end":false,"fir":"RJJJ","first_seen":"2026-09-27T12:01:24+00:00","focus_tag":"admin","geometry_source":"qline-point","icao_location":"RJJJ","issuer":"RJAAYNYX","keyword_hit":false,"kind":"point","last_updated":"2026-09-27T09:47:00.000Z","lower":null,"matched_keywords":[],"nms_id":"1790502431839000","notam_type":"R","number":"X6101/26","q_code":"QPFCA","qline_offset_nm":null,"radius_nm":999.0,"raw_text":"X6101/26 NOTAMR X6098/26\r\nQ)RJJJ/QPFCA/I/NBO/E/000/999/3310N14118E999\r\nA)RJJJ B)2609270946 C)2609271210\r\nE)FLOW CTL AS FLWS, \r\n AREA: SECTOR N50 \r\nPROC: EXP DEP CLR TIME WILL BE ISSUED TO ACFT FOR SECTOR N50\r\nRMK: REF AIP ENR1.9-1","series":"X","source":"nms","status":"active","title":"周辺国FIR(参考) RJJJ X6101/26","upper":null,"valid_end":"2026-09-27T12:10:00+00:00","valid_raw":[],"valid_start":"2026-09-27T09:46:00+00:00"},"type":"Feature"},{"geometry":{"coordinates":[135.433333,34.8],"type":"Point"},"properties":{"area_group":"REF","category":"warning","date":"2026-09-20","ended_by":"K2391/26","estimated_end":false,"fir":"RJJJ","first_seen":"2026-09-27T12:01:24+00:00","focus_tag":"watch","geometry_source":"qline-point","icao_location":"RJOO","issuer":"RJAAYNYX","keyword_hit":false,"kind":"point","last_updated":"2026-09-27T08:17:00.000Z","lower":"SFC","matched_keywords":[],"nms_id":"1789869226851000","notam_type":"N","number":"K2356/26","q_code":"QWULW","qline_offset_nm":null,"radius_nm":null,"raw_text":"K2356/26 NOTAMN\r\nQ)RJJJ/QWULW/IV/BO/AW/000/002/3448N13526E001\r\nA)RJOO B)2609272050 C)2609272140\r\nE)UNMANNED ACFT:\r\nAREA: BOUNDED BY FLW POINTS\r\n344747N1352608E - 344745N1352611E - 344744N1352610E - 344746N1352607E\r\n- 344747N1352608E \r\n(IKEDA-SHI IN OSAKA)\r\nWT: 0.4KG\r\nF)SFC G)153FT AMSL","series":"K","source":"nms","status":"upcoming","title":"周辺国FIR(参考) RJOO K2356/26","upper":"153FT AMSL","valid_end":"2026-09-27T08:16:00+00:00","valid_raw":[],"valid_start":"2026-09-27T20:50:00+00:00"},"type":"Feature"},{"geometry":{"coordinates":[[[135.433333,34.816637],[135.435319,34.816557],[135.437286,34.816317],[135.439215,34.81592],[135.441087,34.81537],[135.442884,34.814672],[135.444589,34.813833],[135.446186,34.81286],[135.44766,34.811764],[135.448995,34.810554],[135.450179,34.809243],[135.451201,34.807842],[135.452051,34.806367],[135.452721,34.804829],[135.453204,34.803246],[135.453496,34.801631],[135.453594,34.8],[135.453496,34.798369],[135.453204,34.796754],[135.452721,34.795171],[135.452051,34.793633],[135.451201,34.792158],[135.450179,34.790757],[135.448995,34.789446],[135.44766,34.788236],[135.446186,34.78714],[135.444589,34.786167],[135.442884,34.785328],[135.441087,34.78463],[135.439215,34.78408],[135.437286,34.783683],[135.435319,34.783443],[135.433333,34.783363],[135.431347,34.783443],[135.429381,34.783683],[135.427452,34.78408],[135.42558,34.78463],[135.423783,34.785328],[135.422077,34.786167],[135.42048,34.78714],[135.419007,34.788236],[135.417672,34.789446],[135.416488,34.790757],[135.415465,34.792158],[135.414615,34.793633],[135.413945,34.795171],[135.413462,34.796754],[135.413171,34.798369],[135.413073,34.8],[135.413171,34.801631],[135.413462,34.803246],[135.413945,34.804829],[135.414615,34.806367],[135.415465,34.807842],[135.416488,34.809243],[135.417672,34.810554],[135.419007,34.811764],[135.42048,34.81286],[135.422077,34.813833],[135.423783,34.814672],[135.42558,34.81537],[135.427452,34.81592],[135.429381,34.816317],[135.431347,34.816557],[135.433333,34.816637]]],"type":"Polygon"},"properties":{"area_group":"REF","category":"warning","date":"2026-09-27","ended_by":null,"estimated_end":false,"fir":"RJJJ","first_seen":"2026-09-27T12:01:24+00:00","focus_tag":"watch","geometry_source":"qline-circle","icao_location":"RJOO","issuer":"RJAAYNYX","keyword_hit":false,"kind":"area","last_updated":"2026-09-27T08:28:00.000Z","lower":"SFC","matched_keywords":[],"nms_id":"1790497681095000","notam_type":"N","number":"K2392/26","q_code":"QWULW","qline_offset_nm":null,"radius_nm":1.0,"raw_text":"K2392/26 NOTAMN\r\nQ)RJJJ/QWULW/IV/BO/AW/000/002/3448N13526E001\r\nA)RJOO B)2609302053 C)2609302140\r\nE)UNMANNED ACFT:\r\nAREA: BOUNDED BY FLW POINTS\r\n344747N1352608E - 344745N1352611E - 344744N1352610E - 344746N1352607E\r\n- 344747N1352608E \r\n(IKEDA-SHI IN OSAKA)\r\nWT: 0.4KG\r\nF)SFC G)153FT AMSL","series":"K","source":"nms","status":"upcoming","title":"周辺国FIR(参考) RJOO K2392/26","upper":"153FT AMSL","valid_end":"2026-09-30T21:40:00+00:00","valid_raw":[],"valid_start":"2026-09-30T20:53:00+00:00"},"type":"Feature"},{"geometry":{"coordinates":[[[140.366667,38.49985],[140.377073,38.49945],[140.387379,38.498252],[140.397485,38.496268],[140.407295,38.493518],[140.416714,38.490028],[140.42565,38.485831],[140.434019,38.480968],[140.441738,38.475486],[140.448735,38.469438],[140.454942,38.462881],[140.460298,38.455879],[140.464753,38.4485],[140.468263,38.440814],[140.470794,38.432895],[140.472323,38.42482],[140.472834,38.416667],[140.472323,38.408513],[140.470794,38.400438],[140.468263,38.39252],[140.464753,38.384834],[140.460298,38.377454],[140.454942,38.370452],[140.448735,38.363896],[140.441738,38.357847],[140.434019,38.352365],[140.42565,38.347502],[140.416714,38.343305],[140.407295,38.339815],[140.397485,38.337065],[140.387379,38.335081],[140.377073,38.333884],[140.366667,38.333483],[140.35626,38.333884],[140.345954,38.335081],[140.335848,38.337065],[140.326038,38.339815],[140.31662,38.343305],[140.307683,38.347502],[140.299315,38.352365],[140.291595,38.357847],[140.284598,38.363896],[140.278392,38.370452],[140.273035,38.377454],[140.268581,38.384834],[140.265071,38.39252],[140.262539,38.400438],[140.26101,38.408513],[140.260499,38.416667],[140.26101,38.42482],[140.262539,38.432895],[140.265071,38.440814],[140.268581,38.4485],[140.273035,38.455879],[140.278392,38.462881],[140.284598,38.469438],[140.291595,38.475486],[140.299315,38.480968],[140.307683,38.485831],[140.31662,38.490028],[140.326038,38.493518],[140.335848,38.496268],[140.345954,38.498252],[140.35626,38.49945],[140.366667,38.49985]]],"type":"Polygon"},"properties":{"area_group":"REF","category":"other","date":"2026-09-27","ended_by":null,"estimated_end":false,"fir":"RJJJ","first_seen":"2026-09-27T12:01:24+00:00","focus_tag":"plaintext","geometry_source":"qline-circle","icao_location":"RJSC","issuer":"RJAAYNYX","keyword_hit":false,"kind":"area","last_updated":"2026-09-27T08:53:00.000Z","lower":null,"matched_keywords":[],"nms_id":"1790499198758000","notam_type":"N","number":"N3885/26","q_code":"QXXXX","qline_offset_nm":null,"radius_nm":5.0,"raw_text":"N3885/26 NOTAMN\r\nQ)RJJJ/QXXXX/IV/M/A/000/999/3825N14022E005\r\nA)RJSC B)2609270852 C)2610311500\r\nE)REF AIP SUP 188/26 ITEM RWY:4 (CHANGE TO READ)\r\nNO LONGER IN FORCE\r\nCONST CMPL","series":"N","source":"nms","status":"active","title":"周辺国FIR(参考) RJSC N3885/26","upper":null,"valid_end":"2026-10-31T15:00:00+00:00","valid_raw":[],"valid_start":"2026-09-27T08:52:00+00:00"},"type":"Feature"},{"geometry":{"coordinates":[127.0,35.583333],"type":"Point"},"properties":{"area_group":"REF","category":"other","date":"2026-09-27","ended_by":null,"estimated_end":false,"fir":"RKRR","first_seen":"2026-09-27T12:01:24+00:00","focus_tag":"admin","geometry_source":"qline-point","icao_location":"RKRR","issuer":"RKRRYNYX","keyword_hit":false,"kind":"point","last_updated":"2026-09-27T08:48:00.000Z","lower":null,"matched_keywords":[],"nms_id":"1790498914637000","notam_type":"N","number":"Z0713/26","q_code":"QARCS","qline_offset_nm":null,"radius_nm":999.0,"raw_text":"Z0713/26 NOTAMN  \r\nQ)RKRR/QARCS/I/NBO/E/000/999/3535N12700E999\r\nA)RKRR B)2609281300 C)2609282100\r\nE)CONDITIONAL ROUTE(CDR2) AVBL AS FLW, NEW\r\nNR ROUTE        TIME FM    TIME TO     LOWER LVL      UPPER LVL\r\n1 MASTA-UPGOS   09281300   09282100    6,000FT AMSL   FL600\r\n                \r\n2 RUGMA-ANROD   09281300   09282100    11,000FT AMSL  FL600\r\n\r\n3 BOPTA-PONIK   09281300   09282100    FL150          FL600\r\n\r\n4 KARBU-LANAT   09281300   09281830    FL150          FL600","series":"Z","source":"nms","status":"upcoming","title":"周辺国FIR(参考) RKRR Z0713/26","upper":null,"valid_end":"2026-09-28T21:00:00+00:00","valid_raw":[],"valid_start":"2026-09-28T13:00:00+00:00"},"type":"Feature"},{"geometry":{"coordinates":[[[127.016667,37.166517],[127.026887,37.166116],[127.037009,37.164919],[127.046935,37.162935],[127.05657,37.160185],[127.06582,37.156695],[127.074597,37.152498],[127.082816,37.147635],[127.090398,37.142153],[127.09727,37.136104],[127.103365,37.129548],[127.108626,37.122546],[127.113001,37.115166],[127.116448,37.10748],[127.118935,37.099562],[127.120436,37.091487],[127.120938,37.083333],[127.120436,37.07518],[127.118935,37.067105],[127.116448,37.059186],[127.113001,37.0515],[127.108626,37.044121],[127.103365,37.037119],[127.09727,37.030562],[127.090398,37.024514],[127.082816,37.019032],[127.074597,37.014169],[127.06582,37.009972],[127.05657,37.006482],[127.046935,37.003732],[127.037009,37.001748],[127.026887,37.00055],[127.016667,37.00015],[127.006446,37.00055],[126.996324,37.001748],[126.986398,37.003732],[126.976764,37.006482],[126.967513,37.009972],[126.958736,37.014169],[126.950517,37.019032],[126.942936,37.024514],[126.936064,37.030562],[126.929968,37.037119],[126.924707,37.044121],[126.920332,37.0515],[126.916885,37.059186],[126.914399,37.067105],[126.912897,37.07518],[126.912395,37.083333],[126.912897,37.091487],[126.914399,37.099562],[126.916885,37.10748],[126.920332,37.115166],[126.924707,37.122546],[126.929968,37.129548],[126.936064,37.136104],[126.942936,37.142153],[126.950517,37.147635],[126.958736,37.152498],[126.967513,37.156695],[126.976764,37.160185],[126.986398,37.162935],[126.996324,37.164919],[127.006446,37.166116],[127.016667,37.166517]]],"type":"Polygon"},"properties":{"area_group":"REF","category":"other","date":"2026-09-27","ended_by":null,"estimated_end":false,"fir":"RKRR","first_seen":"2026-09-27T12:01:24+00:00","focus_tag":"plaintext","geometry_source":"qline-circle","icao_location":"RKSO","issuer":"RKSO","keyword_hit":false,"kind":"area","last_updated":"2026-09-27T10:26:00Z","lower":null,"matched_keywords":[],"nms_id":"1790504840888280","notam_type":"N","number":"M1420/26","q_code":"QXXXX","qline_offset_nm":null,"radius_nm":5.0,"raw_text":"M1420/26 NOTAMN \r\nQ) RKRR/QXXXX/IV/NBO/A/000/999/3705N12701E005 \r\nA) RKSO \r\nB) 2609271024 \r\nC) 2610021449 \r\nE) 731 AMS UNABLE TO RECEIVE EXPLOSIVES: 27 SEP - UNTIL FURTHER NOTICE, DUE TO AIRCRAFTS CURRENTLY OCCUPYING HCP, THE 731ST AMS IS UNABLE TO RECEIVE/SEND OUT EXPLOSIVE CLASSES 1.1; 1.2; 1.3 (EXCEPTION: AMC APRON CAN TAKE 1.3 BUT ONLY LIMITED TO 30,000KG).","series":"M","source":"nms","status":"active","title":"周辺国FIR(参考) RKSO M1420/26","upper":null,"valid_end":"2026-10-02T14:49:00+00:00","valid_raw":[],"valid_start":"2026-09-27T10:24:00+00:00"},"type":"Feature"},{"geometry":{"coordinates":[[[127.633333,26.283184],[127.64242,26.282783],[127.65142,26.281585],[127.660245,26.279602],[127.668811,26.276852],[127.677036,26.273361],[127.68484,26.269165],[127.692147,26.264302],[127.698888,26.25882],[127.704998,26.252771],[127.710418,26.246214],[127.715095,26.239212],[127.718985,26.231833],[127.72205,26.224147],[127.724261,26.216228],[127.725596,26.208153],[127.726042,26.2],[127.725596,26.191847],[127.724261,26.183772],[127.72205,26.175853],[127.718985,26.168167],[127.715095,26.160788],[127.710418,26.153786],[127.704998,26.147229],[127.698888,26.14118],[127.692147,26.135698],[127.68484,26.130835],[127.677036,26.126639],[127.668811,26.123148],[127.660245,26.120398],[127.65142,26.118415],[127.64242,26.117217],[127.633333,26.116816],[127.624246,26.117217],[127.615247,26.118415],[127.606421,26.120398],[127.597855,26.123148],[127.589631,26.126639],[127.581827,26.130835],[127.57452,26.135698],[127.567778,26.14118],[127.561669,26.147229],[127.556249,26.153786],[127.551572,26.160788],[127.547682,26.168167],[127.544617,26.175853],[127.542406,26.183772],[127.541071,26.191847],[127.540625,26.2],[127.541071,26.208153],[127.542406,26.216228],[127.544617,26.224147],[127.547682,26.231833],[127.551572,26.239212],[127.556249,26.246214],[127.561669,26.252771],[127.567778,26.25882],[127.57452,26.264302],[127.581827,26.269165],[127.589631,26.273361],[127.597855,26.276852],[127.606421,26.279602],[127.615247,26.281585],[127.624246,26.282783],[127.633333,26.283184]]],"type":"Polygon"},"properties":{"area_group":"REF","category":"other","date":"2026-09-27","ended_by":null,"estimated_end":true,"fir":"RJJJ","first_seen":"2026-09-27T12:01:24+00:00","focus_tag":"admin","geometry_source":"qline-circle","icao_location":"ROAH","issuer":"RJAAYNYX","keyword_hit":false,"kind":"area","last_updated":"2026-09-27T08:30:00.000Z","lower":null,"matched_keywords":[],"nms_id":"1790497833870000","notam_type":"N","number":"H3642/26","q_code":"QOBCE","qline_offset_nm":null,"radius_nm":5.0,"raw_text":"H3642/26 NOTAMN\r\nQ)RJJJ/QOBCE/IV/M/A/000/002/2612N12738E005\r\nA)ROAH B)2609281043 C)2609281123EST\r\nE)OBST(VESSEL) PASS ACROSS RWY 18L APCH AREA\r\nBTN POINT A AND B\r\nELEV: 121FT AMSL\r\n(NAHA-SHI IN OKINAWA)\r\nRMK: REF AIP ROAH AD 2.23","series":"H","source":"nms","status":"upcoming","title":"周辺国FIR(参考) ROAH H3642/26","upper":null,"valid_end":"2026-09-28T11:23:00+00:00","valid_raw":[],"valid_start":"2026-09-28T10:43:00+00:00"},"type":"Feature"},{"geometry":{"coordinates":[[[127.633333,26.283184],[127.64242,26.282783],[127.65142,26.281585],[127.660245,26.279602],[127.668811,26.276852],[127.677036,26.273361],[127.68484,26.269165],[127.692147,26.264302],[127.698888,26.25882],[127.704998,26.252771],[127.710418,26.246214],[127.715095,26.239212],[127.718985,26.231833],[127.72205,26.224147],[127.724261,26.216228],[127.725596,26.208153],[127.726042,26.2],[127.725596,26.191847],[127.724261,26.183772],[127.72205,26.175853],[127.718985,26.168167],[127.715095,26.160788],[127.710418,26.153786],[127.704998,26.147229],[127.698888,26.14118],[127.692147,26.135698],[127.68484,26.130835],[127.677036,26.126639],[127.668811,26.123148],[127.660245,26.120398],[127.65142,26.118415],[127.64242,26.117217],[127.633333,26.116816],[127.624246,26.117217],[127.615247,26.118415],[127.606421,26.120398],[127.597855,26.123148],[127.589631,26.126639],[127.581827,26.130835],[127.57452,26.135698],[127.567778,26.14118],[127.561669,26.147229],[127.556249,26.153786],[127.551572,26.160788],[127.547682,26.168167],[127.544617,26.175853],[127.542406,26.183772],[127.541071,26.191847],[127.540625,26.2],[127.541071,26.208153],[127.542406,26.216228],[127.544617,26.224147],[127.547682,26.231833],[127.551572,26.239212],[127.556249,26.246214],[127.561669,26.252771],[127.567778,26.25882],[127.57452,26.264302],[127.581827,26.269165],[127.589631,26.273361],[127.597855,26.276852],[127.606421,26.279602],[127.615247,26.281585],[127.624246,26.282783],[127.633333,26.283184]]],"type":"Polygon"},"properties":{"area_group":"REF","category":"other","date":"2026-09-27","ended_by":null,"estimated_end":true,"fir":"RJJJ","first_seen":"2026-09-27T12:01:24+00:00","focus_tag":"admin","geometry_source":"qline-circle","icao_location":"ROAH","issuer":"RJAAYNYX","keyword_hit":false,"kind":"area","last_updated":"2026-09-27T08:31:00Z","lower":null,"matched_keywords":[],"nms_id":"1790497856335000","notam_type":"N","number":"H3643/26","q_code":"QOBCE","qline_offset_nm":null,"radius_nm":5.0,"raw_text":"H3643/26 NOTAMN\r\nQ)RJJJ/QOBCE/IV/M/A/000/002/2612N12738E005\r\nA)ROAH B)2609281520 C)2609281600EST\r\nE)OBST(VESSEL) PASS ACROSS RWY 18L APCH AREA\r\nBTN POINT A AND B\r\nELEV: 121FT AMSL\r\n(NAHA-SHI IN OKINAWA)\r\nRMK: REF AIP ROAH AD 2.23","series":"H","source":"nms","status":"upcoming","title":"周辺国FIR(参考) ROAH H3643/26","upper":null,"valid_end":"2026-09-28T16:00:00+00:00","valid_raw":[],"valid_start":"2026-09-28T15:20:00+00:00"},"type":"Feature"}],"type":"FeatureCollection"}
