{
 "features": [
  {
   "geometry": {
    "coordinates": [
     [
      [
       105.736389,
       40.049167
      ],
      [
       105.549167,
       40.090556
      ],
      [
       105.426111,
       40.115556
      ],
      [
       105.189722,
       39.418611
      ],
      [
       105.3125,
       39.393889
      ],
      [
       105.477222,
       39.356944
      ],
      [
       105.736389,
       40.049167
      ]
     ]
    ],
    "type": "Polygon"
   },
   "properties": {
    "area_group": "CN",
    "category": "restriction",
    "date": "2026-09-10",
    "ended_by": null,
    "estimated_end": false,
    "fir": "ZLHW",
    "first_seen": "2026-09-27T12:00:00+00:00",
    "focus_tag": "restriction",
    "geometry_source": "text-polygon",
    "icao_location": "ZLHW",
    "issuer": null,
    "keyword_hit": true,
    "kind": "area",
    "last_updated": "2026-09-10T06:07:00+00:00",
    "lower": "000",
    "matched_keywords": [
     "DANGER",
     "TEMPORARY",
     "FORBIDDEN"
    ],
    "nms_id": "PASTE-A4347-26",
    "notam_type": "N",
    "number": "A4347/26",
    "q_code": "QRDCA",
    "qline_offset_nm": 0.3,
    "radius_nm": 23.0,
    "raw_text": "A4347/26 NOTAMN Q)ZLHW/QRDCA/IV/BO/W/000/999/3944N10527E023 A)ZLHW B)2609100607 C)2609100728 E) A TEMPORARY DANGER AREA ESTABLISHED BOUNDED BY: N400257E1054411-N400526E1053257-N400656E1052534-N392507E1051123- N392338E1051845-N392125E1052838, BACK TO START.VERTICAL LIMITS:SFC-UNL. AIRCRAFT ARE FORBIDDEN TO FLY INTO THE AREA.",
    "series": "A",
    "source": "nms",
    "status": "expired",
    "title": "中国本土 ZLHW A4347/26",
    "upper": "999",
    "valid_end": "2026-09-10T07:28:00+00:00",
    "valid_raw": [],
    "valid_start": "2026-09-10T06:07:00+00:00"
   },
   "type": "Feature"
  },
  {
   "geometry": {
    "coordinates": [
     [
      [
       104.207778,
       40.354722
      ],
      [
       102.811667,
       40.605278
      ],
      [
       100.579444,
       40.986667
      ],
      [
       100.316389,
       40.294722
      ],
      [
       102.594444,
       39.904444
      ],
      [
       103.9875,
       39.654722
      ],
      [
       104.207778,
       40.354722
      ]
     ]
    ],
    "type": "Polygon"
   },
   "properties": {
    "area_group": "CN",
    "category": "restriction",
    "date": "2026-09-10",
    "ended_by": null,
    "estimated_end": false,
    "fir": "ZLHW",
    "first_seen": "2026-09-27T12:00:00+00:00",
    "focus_tag": "restriction",
    "geometry_source": "text-polygon",
    "icao_location": "ZLHW",
    "issuer": null,
    "keyword_hit": true,
    "kind": "area",
    "last_updated": "2026-09-10T06:07:00+00:00",
    "lower": "000",
    "matched_keywords": [
     "DANGER",
     "TEMPORARY",
     "FORBIDDEN"
    ],
    "nms_id": "PASTE-A4349-26",
    "notam_type": "N",
    "number": "A4349/26",
    "q_code": "QRDCA",
    "qline_offset_nm": 7.7,
    "radius_nm": 89.0,
    "raw_text": "A4349/26 NOTAMN Q)ZLHW/QRDCA/IV/BO/W/000/999/4019N10215E089 A)ZLHW B)2609100607 C)2609100728 E) A TEMPORARY DANGER AREA ESTABLISHED BOUNDED BY: N402117E1041228-N403619E1024842-N405912E1003446-N401741E1001859- N395416E1023540-N393917E1035915, BACK TO START.VERTICAL LIMITS:SFC-UNL. AIRCRAFT ARE FORBIDDEN TO FLY INTO THE AREA.",
    "series": "A",
    "source": "nms",
    "status": "expired",
    "title": "中国本土 ZLHW A4349/26",
    "upper": "999",
    "valid_end": "2026-09-10T07:28:00+00:00",
    "valid_raw": [],
    "valid_start": "2026-09-10T06:07:00+00:00"
   },
   "type": "Feature"
  },
  {
   "geometry": {
    "coordinates": [
     [
      [
       98.407222,
       41.441667
      ],
      [
       96.226111,
       41.732778
      ],
      [
       96.333889,
       41.0175
      ],
      [
       98.221667,
       40.735556
      ],
      [
       98.407222,
       41.441667
      ]
     ]
    ],
    "type": "Polygon"
   },
   "properties": {
    "area_group": "CN",
    "category": "restriction",
    "date": "2026-09-10",
    "ended_by": null,
    "estimated_end": false,
    "fir": "ZLHW",
    "first_seen": "2026-09-27T12:00:00+00:00",
    "focus_tag": "restriction",
    "geometry_source": "text-polygon",
    "icao_location": "ZLHW",
    "issuer": null,
    "keyword_hit": true,
    "kind": "area",
    "last_updated": "2026-09-10T06:07:00+00:00",
    "lower": "000",
    "matched_keywords": [
     "DANGER",
     "TEMPORARY",
     "FORBIDDEN"
    ],
    "nms_id": "PASTE-A4350-26",
    "notam_type": "N",
    "number": "A4350/26",
    "q_code": "QRDCA",
    "qline_offset_nm": 3.6,
    "radius_nm": 55.0,
    "raw_text": "A4350/26 NOTAMN Q)ZLHW/QRDCA/IV/BO/W/000/999/4114N09713E055 A)ZLHW B)2609100607 C)2609100728 E) A TEMPORARY DANGER AREA ESTABLISHED BOUNDED BY: N412630E0982426-N414358E0961334-N410103E0962002-N404408E0981318, BACK TO START.VERTICAL LIMITS:SFC-UNL. AIRCRAFT ARE FORBIDDEN TO FLY INTO THE AREA.",
    "series": "A",
    "source": "nms",
    "status": "expired",
    "title": "中国本土 ZLHW A4350/26",
    "upper": "999",
    "valid_end": "2026-09-10T07:28:00+00:00",
    "valid_raw": [],
    "valid_start": "2026-09-10T06:07:00+00:00"
   },
   "type": "Feature"
  },
  {
   "geometry": {
    "coordinates": [
     [
      [
       105.696389,
       40.1825
      ],
      [
       105.263889,
       40.170833
      ],
      [
       105.288611,
       39.450833
      ],
      [
       105.719167,
       39.462222
      ],
      [
       105.696389,
       40.1825
      ]
     ]
    ],
    "type": "Polygon"
   },
   "properties": {
    "area_group": "CN",
    "category": "restriction",
    "date": "2026-09-20",
    "ended_by": null,
    "estimated_end": false,
    "fir": "ZLHW",
    "first_seen": "2026-09-27T12:00:00+00:00",
    "focus_tag": "restriction",
    "geometry_source": "text-polygon",
    "icao_location": "ZLHW",
    "issuer": null,
    "keyword_hit": true,
    "kind": "area",
    "last_updated": "2026-09-20T04:44:00+00:00",
    "lower": "000",
    "matched_keywords": [
     "DANGER",
     "TEMPORARY",
     "FORBIDDEN"
    ],
    "nms_id": "PASTE-A4694-26",
    "notam_type": "N",
    "number": "A4694/26",
    "q_code": "QRDCA",
    "qline_offset_nm": 0.4,
    "radius_nm": 24.0,
    "raw_text": "A4694/26 NOTAMN Q)ZLHW/QRDCA/IV/BO/W/000/999/3949N10529E024 A)ZLHW B)2609200444 C)2609200623 E) A TEMPORARY DANGER AREA ESTABLISHED BOUNDED BY: N401057E1054147-N401015E1051550-N392703E1051719-N392744E1054309,BAC K TO START. VERTICAL LIMITS:SFC-UNL. AIRCRAFT ARE FORBIDDEN TO FLY INTO THE AREA.",
    "series": "A",
    "source": "nms",
    "status": "expired",
    "title": "中国本土 ZLHW A4694/26",
    "upper": "999",
    "valid_end": "2026-09-20T06:23:00+00:00",
    "valid_raw": [],
    "valid_start": "2026-09-20T04:44:00+00:00"
   },
   "type": "Feature"
  },
  {
   "geometry": {
    "coordinates": [
     [
      [
       103.269167,
       39.385556
      ],
      [
       104.262222,
       39.421944
      ],
      [
       104.211111,
       40.141111
      ],
      [
       103.220278,
       40.105
      ],
      [
       103.269167,
       39.385556
      ]
     ]
    ],
    "type": "Polygon"
   },
   "properties": {
    "area_group": "CN",
    "category": "restriction",
    "date": "2026-09-20",
    "ended_by": null,
    "estimated_end": false,
    "fir": "ZLHW",
    "first_seen": "2026-09-27T12:00:00+00:00",
    "focus_tag": "restriction",
    "geometry_source": "text-polygon",
    "icao_location": "ZLHW",
    "issuer": null,
    "keyword_hit": true,
    "kind": "area",
    "last_updated": "2026-09-20T04:44:00+00:00",
    "lower": "000",
    "matched_keywords": [
     "DANGER",
     "TEMPORARY",
     "FORBIDDEN"
    ],
    "nms_id": "PASTE-A4695-26",
    "notam_type": "N",
    "number": "A4695/26",
    "q_code": "QRDCA",
    "qline_offset_nm": 0.9,
    "radius_nm": 32.0,
    "raw_text": "A4695/26 NOTAMN Q)ZLHW/QRDCA/IV/BO/W/000/999/3945N10344E032 A)ZLHW B)2609200444 C)2609200623 E) A TEMPORARY DANGER AREA ESTABLISHED BOUNDED BY: N392308E1031609-N392519E1041544-N400828E1041240-N400618E1031313, BACK TO START. VERTICAL LIMITS:SFC-UNL. AIRCRAFT ARE FORBIDDEN TO FLY INTO THE AREA.",
    "series": "A",
    "source": "nms",
    "status": "expired",
    "title": "中国本土 ZLHW A4695/26",
    "upper": "999",
    "valid_end": "2026-09-20T06:23:00+00:00",
    "valid_raw": [],
    "valid_start": "2026-09-20T04:44:00+00:00"
   },
   "type": "Feature"
  },
  {
   "geometry": {
    "coordinates": [
     119.116667,
     36.65
    ],
    "type": "Point"
   },
   "properties": {
    "area_group": "CN",
    "category": "other",
    "date": "2026-09-24",
    "ended_by": "A4956/26",
    "estimated_end": false,
    "fir": "ZSHA",
    "first_seen": "2026-09-27T12:01:24+00:00",
    "focus_tag": "admin",
    "geometry_source": "qline-point",
    "icao_location": "ZSHA",
    "issuer": "ZBBBYNYX",
    "keyword_hit": false,
    "kind": "point",
    "last_updated": "2026-09-27T07:45:00.000Z",
    "lower": null,
    "matched_keywords": [],
    "nms_id": "1790249877367000",
    "notam_type": "N",
    "number": "A4948/26",
    "q_code": "QNMCT",
    "qline_offset_nm": null,
    "radius_nm": null,
    "raw_text": "A4948/26 NOTAMN\r\nQ)ZSHA/QNMCT/IV/BO/E/000/999/3639N11907E025\r\nA)ZSHA B)2609250400 C)2609271200 \r\nE) WEIFANG VOR/DME 'WFG' 116.6MHZ/CH113X ON TEST, DO NOT USE, DUE \r\nTO FLTCK.",
    "series": "A",
    "source": "nms",
    "status": "cancelled",
    "title": "中国本土 ZSHA A4948/26",
    "upper": null,
    "valid_end": "2026-09-27T07:45:00+00:00",
    "valid_raw": [],
    "valid_start": "2026-09-25T04:00:00+00:00"
   },
   "type": "Feature"
  },
  {
   "geometry": {
    "coordinates": [
     [
      [
       90.7575,
       40.216389
      ],
      [
       89.883611,
       39.806667
      ],
      [
       89.41,
       39.601944
      ],
      [
       89.099167,
       39.438333
      ],
      [
       89.033333,
       39.245
      ],
      [
       87.4925,
       38.726111
      ],
      [
       86.940278,
       38.494444
      ],
      [
       87.1875,
       38.009167
      ],
      [
       87.896111,
       38.225278
      ],
      [
       88.939722,
       38.573889
      ],
      [
       89.951111,
       38.971111
      ],
      [
       89.881111,
       38.981389
      ],
      [
       90.333333,
       39.176111
      ],
      [
       91.278889,
       39.586944
      ],
      [
       90.7575,
       40.216389
      ]
     ]
    ],
    "type": "Polygon"
   },
   "properties": {
    "area_group": "CN",
    "category": "restriction",
    "date": "2026-09-10",
    "ended_by": null,
    "estimated_end": false,
    "fir": "ZWUQ",
    "first_seen": "2026-09-27T12:00:00+00:00",
    "focus_tag": "restriction",
    "geometry_source": "text-polygon",
    "icao_location": "ZWUQ",
    "issuer": null,
    "keyword_hit": true,
    "kind": "area",
    "last_updated": "2026-09-10T06:07:00+00:00",
    "lower": "000",
    "matched_keywords": [
     "DANGER",
     "TEMPORARY",
     "FORBIDDEN"
    ],
    "nms_id": "PASTE-A4348-26",
    "notam_type": "N",
    "number": "A4348/26",
    "q_code": "QRDCA",
    "qline_offset_nm": 18.1,
    "radius_nm": 105.0,
    "raw_text": "A4348/26 NOTAMN Q)ZWUQ/QRDCA/IV/BO/W/000/999/3854N08850E105 A)ZWUQ B)2609100607 C)2609100728 E) A TEMPORARY DANGER AREA ESTABLISHED BOUNDED BY: N401259E0904527-N394824E0895301-N393607E0892436-N392618E0890557- N391442E0890200-N384334E0872933-N382940E0865625-N380033E0871115- N381331E0875346-N383426E0885623-N385816E0895704-N385853E0895252- N391034E0902000-N393513E0911644, BACK TO START.VERTICAL LIMITS:SFC-UNL. AIRCRAFT ARE FORBIDDEN TO FLY INTO THE AREA.",
    "series": "A",
    "source": "nms",
    "status": "expired",
    "title": "中国本土 ZWUQ A4348/26",
    "upper": "999",
    "valid_end": "2026-09-10T07:28:00+00:00",
    "valid_raw": [],
    "valid_start": "2026-09-10T06:07:00+00:00"
   },
   "type": "Feature"
  },
  {
   "geometry": {
    "coordinates": [
     [
      [
       85.351111,
       37.8725
      ],
      [
       84.053333,
       37.6275
      ],
      [
       82.166667,
       37.616667
      ],
      [
       82.166667,
       36.583333
      ],
      [
       85.424722,
       37.139722
      ],
      [
       85.586389,
       37.176389
      ],
      [
       85.351111,
       37.8725
      ]
     ]
    ],
    "type": "Polygon"
   },
   "properties": {
    "area_group": "CN",
    "category": "restriction",
    "date": "2026-09-20",
    "ended_by": null,
    "estimated_end": false,
    "fir": "ZWUQ",
    "first_seen": "2026-09-27T12:00:00+00:00",
    "focus_tag": "restriction",
    "geometry_source": "text-polygon",
    "icao_location": "ZWUQ",
    "issuer": null,
    "keyword_hit": true,
    "kind": "area",
    "last_updated": "2026-09-20T04:44:00+00:00",
    "lower": "000",
    "matched_keywords": [
     "DANGER",
     "TEMPORARY",
     "FORBIDDEN"
    ],
    "nms_id": "PASTE-A4696-26",
    "notam_type": "N",
    "number": "A4696/26",
    "q_code": "QRDCA",
    "qline_offset_nm": 19.3,
    "radius_nm": 88.0,
    "raw_text": "A4696/26 NOTAMN Q)ZWUQ/QRDCA/IV/BO/W/000/999/3713N08345E088 A)ZWUQ B)2609200444 C)2609200623 E) A TEMPORARY DANGER AREA ESTABLISHED BOUNDED BY: N375221E0852104-N373739E0840312-N373700E0821000-N363500E0821000-N36 3500E0852500-N370823E0852529-N371035E0853511, BACK TO START. VERTICAL LIMITS:SFC-UNL. AIRCRAFT ARE FORBIDDEN TO FLY INTO THE AREA.",
    "series": "A",
    "source": "nms",
    "status": "expired",
    "title": "中国本土 ZWUQ A4696/26",
    "upper": "999",
    "valid_end": "2026-09-20T06:23:00+00:00",
    "valid_raw": [],
    "valid_start": "2026-09-20T04:44:00+00:00"
   },
   "type": "Feature"
  },
  {
   "geometry": {
    "coordinates": [
     123.485,
     41.641667
    ],
    "type": "Point"
   },
   "properties": {
    "area_group": "CN",
    "category": "other",
    "date": "2026-09-27",
    "ended_by": null,
    "estimated_end": false,
    "fir": null,
    "first_seen": "2026-09-27T12:01:24+00:00",
    "focus_tag": "admin",
    "geometry_source": "api-point",
    "icao_location": "ZYTX",
    "issuer": "SNOWTAM",
    "keyword_hit": false,
    "kind": "point",
    "last_updated": "2026-09-27T10:29:00.000Z",
    "lower": null,
    "matched_keywords": [],
    "nms_id": "1790478076397000",
    "notam_type": null,
    "number": "SWZX0191",
    "q_code": null,
    "qline_offset_nm": null,
    "radius_nm": null,
    "raw_text": "SWZX0191 ZYTX 09270231\r\n(SNOWTAM 0191\r\nZYTX\r\n09270231 06 5/5/5 100/100/100 NR/NR/NR WET/WET/WET\r\n)",
    "series": null,
    "source": "nms",
    "status": "expired",
    "title": "中国本土 ZYTX SWZX0191",
    "upper": null,
    "valid_end": "2026-09-27T10:29:00+00:00",
    "valid_raw": [],
    "valid_start": "2026-09-27T02:31:00+00:00"
   },
   "type": "Feature"
  },
  {
   "geometry": {
    "coordinates": [
     123.485,
     41.641667
    ],
    "type": "Point"
   },
   "properties": {
    "area_group": "CN",
    "category": "other",
    "date": "2026-09-27",
    "ended_by": null,
    "estimated_end": false,
    "fir": null,
    "first_seen": "2026-09-27T12:01:24+00:00",
    "focus_tag": "admin",
    "geometry_source": "api-point",
    "icao_location": "ZYTX",
    "issuer": "SNOWTAM",
    "keyword_hit": false,
    "kind": "point",
    "last_updated": "2026-09-27T10:29:00.000Z",
    "lower": null,
    "matched_keywords": [],
    "nms_id": "1790478145789981",
    "notam_type": null,
    "number": "SWZX0191/26",
    "q_code": null,
    "qline_offset_nm": null,
    "radius_nm": null,
    "raw_text": "SWZX0191 ZYTX 09270231\r\n(SNOWTAM 0191\r\nZYTX\r\n09270231 06 5/5/5 100/100/100 NR/NR/NR WET/WET/WET\r\n)",
    "series": null,
    "source": "nms",
    "status": "expired",
    "title": "中国本土 ZYTX SWZX0191/26",
    "upper": null,
    "valid_end": "2026-09-27T10:29:00+00:00",
    "valid_raw": [],
    "valid_start": "2026-09-27T02:31:00+00:00"
   },
   "type": "Feature"
  },
  {
   "geometry": {
    "coordinates": [
     -122.01579444,
     37.54243611
    ],
    "type": "Point"
   },
   "properties": {
    "area_group": "REF",
    "category": "restriction",
    "date": "2026-09-25",
    "ended_by": null,
    "estimated_end": false,
    "fir": "KZAK",
    "first_seen": "2026-09-27T12:01:24+00:00",
    "focus_tag": "restriction",
    "geometry_source": "api-point",
    "icao_location": "KZAK",
    "issuer": "KZAK",
    "keyword_hit": false,
    "kind": "point",
    "last_updated": "2026-09-27T06:30:00Z",
    "lower": "SFC",
    "matched_keywords": [],
    "nms_id": "1790364976611498",
    "notam_type": "N",
    "number": "A4683/26",
    "q_code": "QRACA",
    "qline_offset_nm": null,
    "radius_nm": null,
    "raw_text": "A4683/26 NOTAMN\nQ) KZAK/QRACA/IV/NBO/W/000/150/\nA) KZAK\nB) 2609262230\nC) 2609270630\nE) ZAK AIRSPACE WX RECONNAISSANCE TEAL79 WI THE WX RECONNAISSANCE AREA (WRA) WI AN AREA DEFINED AS 200NM RADIUS OF 170600N1561800W VERTICAL MANEUVERING AND RELEASE OF WX INSTRUMENTS ARE EXPECTED. NONPARTICIPATING ACFT SHOULD AVOID THE WRA. IFR ACFT CAN EXPECT RERTE.\nF) SFC\nG) FL150",
    "series": "A",
    "source": "nms",
    "status": "expired",
    "title": "周辺国FIR(参考) KZAK A4683/26",
    "upper": "FL150",
    "valid_end": "2026-09-27T06:30:00+00:00",
    "valid_raw": [],
    "valid_start": "2026-09-26T22:30:00+00:00"
   },
   "type": "Feature"
  },
  {
   "geometry": {
    "coordinates": [
     141.3,
     33.166667
    ],
    "type": "Point"
   },
   "properties": {
    "area_group": "REF",
    "category": "other",
    "date": "2026-09-26",
    "ended_by": "Q2292/26",
    "estimated_end": false,
    "fir": "RJJJ",
    "first_seen": "2026-09-27T12:01:24+00:00",
    "focus_tag": "admin",
    "geometry_source": "qline-point",
    "icao_location": "RJJJ",
    "issuer": "RJAAYNYX",
    "keyword_hit": false,
    "kind": "point",
    "last_updated": "2026-09-27T06:36:00Z",
    "lower": null,
    "matched_keywords": [],
    "nms_id": "1790409799539000",
    "notam_type": "N",
    "number": "Q2286/26",
    "q_code": "QANCA",
    "qline_offset_nm": null,
    "radius_nm": 999.0,
    "raw_text": "Q2286/26 NOTAMN\r\nQ)RJJJ/QANCA/I/NBO/E/000/999/3310N14118E999\r\nA)RJJJ B)2609262100 C)2609272100\r\nE)CDR ARE ESTABLISHED AS FLW,\r\n    RTE         PERIOD                 MNM APPLICABLE ALT\r\n1)  Z16         2609262100/2609262200  MEA\r\n    Z16         2609271200/2609272100  MEA\r\n2)  Z17         2609262100/2609262200  MEA\r\n    Z17         2609271200/2609272100  MEA\r\n3)  Z18         2609262100/2609262200  MEA\r\n    Z18         2609271200/2609272100  MEA\r\n4)  Z21         2609262100/2609262200  MEA\r\n    Z21         2609271200/2609272100  MEA\r\n5)  Z101        2609262100/2609272100  MEA\r\n6)  Z102        2609262100/2609272100  MEA\r\n7)  Z162        2609262100/2609262200  MEA\r\n    Z162        2609271200/2609272100  MEA\r\n8)  Z171        2609262100/2609262200  MEA\r\n    Z171        2609271200/2609272100  MEA\r\n9)  Z182        2609262100/2609262200  MEA\r\n    Z182        2609271200/2609272100  MEA\r\nRMK: REF AIP ENR3.3",
    "series": "Q",
    "source": "nms",
    "status": "cancelled",
    "title": "周辺国FIR(参考) RJJJ Q2286/26",
    "upper": null,
    "valid_end": "2026-09-27T06:35:00+00:00",
    "valid_raw": [],
    "valid_start": "2026-09-26T21:00:00+00:00"
   },
   "type": "Feature"
  },
  {
   "geometry": {
    "coordinates": [
     141.3,
     33.166667
    ],
    "type": "Point"
   },
   "properties": {
    "area_group": "REF",
    "category": "other",
    "date": "2026-09-26",
    "ended_by": "X6091/26",
    "estimated_end": false,
    "fir": "RJJJ",
    "first_seen": "2026-09-27T12:01:24+00:00",
    "focus_tag": "admin",
    "geometry_source": "qline-point",
    "icao_location": "RJJJ",
    "issuer": "RJAAYNYX",
    "keyword_hit": false,
    "kind": "point",
    "last_updated": "2026-09-27T06:42:00Z",
    "lower": null,
    "matched_keywords": [],
    "nms_id": "1790460655801000",
    "notam_type": "N",
    "number": "X6067/26",
    "q_code": "QPFCA",
    "qline_offset_nm": null,
    "radius_nm": 999.0,
    "raw_text": "X6067/26 NOTAMN\r\nQ)RJJJ/QPFCA/I/NBO/E/000/999/3310N14118E999\r\nA)RJJJ B)2609262255 C)2609270800\r\nE)FLOW CTL AS FLWS, \r\n AREA: SECTOR F15 \r\nPROC: EXP DEP CLR TIME WILL BE ISSUED TO ACFT FOR SECTOR F15\r\nRMK: REF AIP ENR1.9-1",
    "series": "X",
    "source": "nms",
    "status": "cancelled",
    "title": "周辺国FIR(参考) RJJJ X6067/26",
    "upper": null,
    "valid_end": "2026-09-27T06:41:00+00:00",
    "valid_raw": [],
    "valid_start": "2026-09-26T22:55:00+00:00"
   },
   "type": "Feature"
  },
  {
   "geometry": {
    "coordinates": [
     141.3,
     33.166667
    ],
    "type": "Point"
   },
   "properties": {
    "area_group": "REF",
    "category": "other",
    "date": "2026-09-27",
    "ended_by": "X6097/26",
    "estimated_end": false,
    "fir": "RJJJ",
    "first_seen": "2026-09-27T12:01:24+00:00",
    "focus_tag": "admin",
    "geometry_source": "qline-point",
    "icao_location": "RJJJ",
    "issuer": "RJAAYNYX",
    "keyword_hit": false,
    "kind": "point",
    "last_updated": "2026-09-27T08:13:00.000Z",
    "lower": null,
    "matched_keywords": [],
    "nms_id": "1790480948621000",
    "notam_type": "N",
    "number": "X6082/26",
    "q_code": "QPFCA",
    "qline_offset_nm": null,
    "radius_nm": null,
    "raw_text": "X6082/26 NOTAMN\r\nQ)RJJJ/QPFCA/I/NBO/E/000/999/3310N14118E999\r\nA)RJJJ B)2609270350 C)2609271130\r\nE)FLOW CTL AS FLWS, \r\n AREA: SECTOR F07 \r\nPROC: EXP DEP CLR TIME WILL BE ISSUED TO ACFT FOR SECTOR F07\r\nRMK: REF AIP ENR1.9-1",
    "series": "X",
    "source": "nms",
    "status": "cancelled",
    "title": "周辺国FIR(参考) RJJJ X6082/26",
    "upper": null,
    "valid_end": "2026-09-27T08:13:00+00:00",
    "valid_raw": [],
    "valid_start": "2026-09-27T03:50:00+00:00"
   },
   "type": "Feature"
  },
  {
   "geometry": {
    "coordinates": [
     141.3,
     33.166667
    ],
    "type": "Point"
   },
   "properties": {
    "area_group": "REF",
    "category": "other",
    "date": "2026-09-27",
    "ended_by": "X6096/26",
    "estimated_end": false,
    "fir": "RJJJ",
    "first_seen": "2026-09-27T12:01:24+00:00",
    "focus_tag": "admin",
    "geometry_source": "qline-point",
    "icao_location": "RJJJ",
    "issuer": "RJAAYNYX",
    "keyword_hit": false,
    "kind": "point",
    "last_updated": "2026-09-27T08:02:00.000Z",
    "lower": null,
    "matched_keywords": [],
    "nms_id": "1790484242629000",
    "notam_type": "N",
    "number": "X6085/26",
    "q_code": "QPFCA",
    "qline_offset_nm": null,
    "radius_nm": null,
    "raw_text": "X6085/26 NOTAMN\r\nQ)RJJJ/QPFCA/I/NBO/E/000/999/3310N14118E999\r\nA)RJJJ B)2609270510 C)2609270830\r\nE)FLOW CTL AS FLWS, \r\n AREA:  TOKYO APCH CTA\r\nPROC: EXP DEP CLR TIME WILL BE ISSUED TO ACFT FOR RJTT VIA \r\nTEDIX,LALID \r\nRMK: REF AIP ENR1.9-1",
    "series": "X",
    "source": "nms",
    "status": "cancelled",
    "title": "周辺国FIR(参考) RJJJ X6085/26",
    "upper": null,
    "valid_end": "2026-09-27T08:02:00+00:00",
    "valid_raw": [],
    "valid_start": "2026-09-27T05:10:00+00:00"
   },
   "type": "Feature"
  },
  {
   "geometry": {
    "coordinates": [
     141.3,
     33.166667
    ],
    "type": "Point"
   },
   "properties": {
    "area_group": "REF",
    "category": "other",
    "date": "2026-09-27",
    "ended_by": "X6092/26",
    "estimated_end": false,
    "fir": "RJJJ",
    "first_seen": "2026-09-27T12:01:24+00:00",
    "focus_tag": "admin",
    "geometry_source": "qline-point",
    "icao_location": "RJJJ",
    "issuer": "RJAAYNYX",
    "keyword_hit": false,
    "kind": "point",
    "last_updated": "2026-09-27T07:22:00Z",
    "lower": null,
    "matched_keywords": [],
    "nms_id": "1790488449186000",
    "notam_type": "N",
    "number": "X6089/26",
    "q_code": "QPFCA",
    "qline_offset_nm": null,
    "radius_nm": 999.0,
    "raw_text": "X6089/26 NOTAMN\r\nQ)RJJJ/QPFCA/I/NBO/E/000/999/3310N14118E999\r\nA)RJJJ B)2609270555 C)2609271000\r\nE)FLOW CTL AS FLWS, \r\n AREA:  TOKYO APCH CTA\r\nPROC: EXP DEP CLR TIME WILL BE ISSUED TO ACFT FOR RJTT VIA\r\nSPENS,SELNO,TOPIT,DOLBA OR UTIBO\r\nRMK: REF AIP ENR1.9-1",
    "series": "X",
    "source": "nms",
    "status": "cancelled",
    "title": "周辺国FIR(参考) RJJJ X6089/26",
    "upper": null,
    "valid_end": "2026-09-27T07:21:00+00:00",
    "valid_raw": [],
    "valid_start": "2026-09-27T05:55:00+00:00"
   },
   "type": "Feature"
  },
  {
   "geometry": {
    "coordinates": [
     141.3,
     33.166667
    ],
    "type": "Point"
   },
   "properties": {
    "area_group": "REF",
    "category": "other",
    "date": "2026-09-27",
    "ended_by": "X6093/26",
    "estimated_end": false,
    "fir": "RJJJ",
    "first_seen": "2026-09-27T12:01:24+00:00",
    "focus_tag": "admin",
    "geometry_source": "qline-point",
    "icao_location": "RJJJ",
    "issuer": "RJAAYNYX",
    "keyword_hit": false,
    "kind": "point",
    "last_updated": "2026-09-27T07:35:00Z",
    "lower": null,
    "matched_keywords": [],
    "nms_id": "1790488790885000",
    "notam_type": "N",
    "number": "X6090/26",
    "q_code": "QPFCA",
    "qline_offset_nm": null,
    "radius_nm": 999.0,
    "raw_text": "X6090/26 NOTAMN\r\nQ)RJJJ/QPFCA/I/NBO/E/000/999/3310N14118E999\r\nA)RJJJ B)2609270615 C)2609270930\r\nE)FLOW CTL AS FLWS, \r\n AREA:  FUKUOKA APCH CTA\r\nPROC: EXP DEP CLR TIME WILL BE ISSUED TO ACFT FOR RJFF\r\nRMK: REF AIP ENR1.9-1",
    "series": "X",
    "source": "nms",
    "status": "cancelled",
    "title": "周辺国FIR(参考) RJJJ X6090/26",
    "upper": null,
    "valid_end": "2026-09-27T07:34:00+00:00",
    "valid_raw": [],
    "valid_start": "2026-09-27T06:15:00+00:00"
   },
   "type": "Feature"
  },
  {
   "geometry": {
    "coordinates": [
     141.3,
     33.166667
    ],
    "type": "Point"
   },
   "properties": {
    "area_group": "REF",
    "category": "other",
    "date": "2026-09-27",
    "ended_by": null,
    "estimated_end": false,
    "fir": "RJJJ",
    "first_seen": "2026-09-27T12:01:24+00:00",
    "focus_tag": "admin",
    "geometry_source": "qline-point",
    "icao_location": "RJJJ",
    "issuer": "RJAAYNYX",
    "keyword_hit": false,
    "kind": "point",
    "last_updated": "2026-09-27T06:42:00Z",
    "lower": null,
    "matched_keywords": [],
    "nms_id": "1790491281686000",
    "notam_type": "R",
    "number": "X6091/26",
    "q_code": "QPFCA",
    "qline_offset_nm": null,
    "radius_nm": 999.0,
    "raw_text": "X6091/26 NOTAMR X6067/26\r\nQ)RJJJ/QPFCA/I/NBO/E/000/999/3310N14118E999\r\nA)RJJJ B)2609270641 C)2609271200\r\nE)FLOW CTL AS FLWS, \r\n AREA: SECTOR F15 \r\nPROC: EXP DEP CLR TIME WILL BE ISSUED TO ACFT FOR SECTOR F15\r\nRMK: REF AIP ENR1.9-1",
    "series": "X",
    "source": "nms",
    "status": "expired",
    "title": "周辺国FIR(参考) RJJJ X6091/26",
    "upper": null,
    "valid_end": "2026-09-27T12:00:00+00:00",
    "valid_raw": [],
    "valid_start": "2026-09-27T06:41:00+00:00"
   },
   "type": "Feature"
  },
  {
   "geometry": {
    "coordinates": [
     141.3,
     33.166667
    ],
    "type": "Point"
   },
   "properties": {
    "area_group": "REF",
    "category": "other",
    "date": "2026-09-27",
    "ended_by": null,
    "estimated_end": false,
    "fir": "RJJJ",
    "first_seen": "2026-09-27T12:01:24+00:00",
    "focus_tag": "admin",
    "geometry_source": "qline-point",
    "icao_location": "RJJJ",
    "issuer": "RJAAYNYX",
    "keyword_hit": false,
    "kind": "point",
    "last_updated": "2026-09-27T07:22:00.000Z",
    "lower": null,
    "matched_keywords": [],
    "nms_id": "1790493720058000",
    "notam_type": "R",
    "number": "X6092/26",
    "q_code": "QPFCA",
    "qline_offset_nm": null,
    "radius_nm": 999.0,
    "raw_text": "X6092/26 NOTAMR X6089/26\r\nQ)RJJJ/QPFCA/I/NBO/E/000/999/3310N14118E999\r\nA)RJJJ B)2609270721 C)2609270900\r\nE)FLOW CTL AS FLWS, \r\n AREA:  TOKYO APCH CTA\r\nPROC: EXP DEP CLR TIME WILL BE ISSUED TO ACFT FOR RJTT VIA\r\nSPENS,SELNO,TOPIT,DOLBA OR UTIBO\r\nRMK: REF AIP ENR1.9-1",
    "series": "X",
    "source": "nms",
    "status": "expired",
    "title": "周辺国FIR(参考) RJJJ X6092/26",
    "upper": null,
    "valid_end": "2026-09-27T09:00:00+00:00",
    "valid_raw": [],
    "valid_start": "2026-09-27T07:21:00+00:00"
   },
   "type": "Feature"
  },
  {
   "geometry": {
    "coordinates": [
     141.3,
     33.166667
    ],
    "type": "Point"
   },
   "properties": {
    "area_group": "REF",
    "category": "other",
    "date": "2026-09-27",
    "ended_by": null,
    "estimated_end": false,
    "fir": "RJJJ",
    "first_seen": "2026-09-27T12:01:24+00:00",
    "focus_tag": "admin",
    "geometry_source": "qline-point",
    "icao_location": "RJJJ",
    "issuer": "RJAAYNYX",
    "keyword_hit": false,
    "kind": "point",
    "last_updated": "2026-09-27T07:35:00Z",
    "lower": null,
    "matched_keywords": [],
    "nms_id": "1790494489761000",
    "notam_type": "R",
    "number": "X6093/26",
    "q_code": "QPFCA",
    "qline_offset_nm": null,
    "radius_nm": 999.0,
    "raw_text": "X6093/26 NOTAMR X6090/26\r\nQ)RJJJ/QPFCA/I/NBO/E/000/999/3310N14118E999\r\nA)RJJJ B)2609270734 C)2609271030\r\nE)FLOW CTL AS FLWS, \r\n AREA:  FUKUOKA APCH CTA\r\nPROC: EXP DEP CLR TIME WILL BE ISSUED TO ACFT FOR RJFF\r\nRMK: REF AIP ENR1.9-1",
    "series": "X",
    "source": "nms",
    "status": "expired",
    "title": "周辺国FIR(参考) RJJJ X6093/26",
    "upper": null,
    "valid_end": "2026-09-27T10:30:00+00:00",
    "valid_raw": [],
    "valid_start": "2026-09-27T07:34:00+00:00"
   },
   "type": "Feature"
  },
  {
   "geometry": {
    "coordinates": [
     141.3,
     33.166667
    ],
    "type": "Point"
   },
   "properties": {
    "area_group": "REF",
    "category": "other",
    "date": "2026-09-27",
    "ended_by": null,
    "estimated_end": false,
    "fir": "RJJJ",
    "first_seen": "2026-09-27T12:01:24+00:00",
    "focus_tag": "admin",
    "geometry_source": "qline-point",
    "icao_location": "RJJJ",
    "issuer": "RJAAYNYX",
    "keyword_hit": false,
    "kind": "point",
    "last_updated": "2026-09-27T07:47:00.000Z",
    "lower": null,
    "matched_keywords": [],
    "nms_id": "1790495237950000",
    "notam_type": "N",
    "number": "X6094/26",
    "q_code": "QPFCA",
    "qline_offset_nm": null,
    "radius_nm": 999.0,
    "raw_text": "X6094/26 NOTAMN\r\nQ)RJJJ/QPFCA/I/NBO/E/000/999/3310N14118E999\r\nA)RJJJ B)2609270747 C)2609270930\r\nE)FLOW CTL AS FLWS, \r\n AREA: SECTOR N51 \r\nPROC: EXP DEP CLR TIME WILL BE ISSUED TO ACFT FOR SECTOR N51\r\nRMK: REF AIP ENR1.9-1",
    "series": "X",
    "source": "nms",
    "status": "expired",
    "title": "周辺国FIR(参考) RJJJ X6094/26",
    "upper": null,
    "valid_end": "2026-09-27T09:30:00+00:00",
    "valid_raw": [],
    "valid_start": "2026-09-27T07:47:00+00:00"
   },
   "type": "Feature"
  },
  {
   "geometry": {
    "coordinates": [
     141.3,
     33.166667
    ],
    "type": "Point"
   },
   "properties": {
    "area_group": "REF",
    "category": "other",
    "date": "2026-09-27",
    "ended_by": null,
    "estimated_end": false,
    "fir": "RJJJ",
    "first_seen": "2026-09-27T12:01:24+00:00",
    "focus_tag": "admin",
    "geometry_source": "qline-point",
    "icao_location": "RJJJ",
    "issuer": "RJAAYNYX",
    "keyword_hit": false,
    "kind": "point",
    "last_updated": "2026-09-27T07:49:00.000Z",
    "lower": null,
    "matched_keywords": [],
    "nms_id": "1790495371032000",
    "notam_type": "N",
    "number": "X6095/26",
    "q_code": "QPFCA",
    "qline_offset_nm": null,
    "radius_nm": 999.0,
    "raw_text": "X6095/26 NOTAMN\r\nQ)RJJJ/QPFCA/I/NBO/E/000/999/3310N14118E999\r\nA)RJJJ B)2609270750 C)2609271200\r\nE)FLOW CTL AS FLWS, \r\n AREA: SECTOR F14 \r\nPROC: EXP DEP CLR TIME WILL BE ISSUED TO ACFT FOR SECTOR F14\r\nRMK: REF AIP ENR1.9-1",
    "series": "X",
    "source": "nms",
    "status": "expired",
    "title": "周辺国FIR(参考) RJJJ X6095/26",
    "upper": null,
    "valid_end": "2026-09-27T12:00:00+00:00",
    "valid_raw": [],
    "valid_start": "2026-09-27T07:50:00+00:00"
   },
   "type": "Feature"
  },
  {
   "geometry": {
    "coordinates": [
     141.3,
     33.166667
    ],
    "type": "Point"
   },
   "properties": {
    "area_group": "REF",
    "category": "other",
    "date": "2026-09-27",
    "ended_by": null,
    "estimated_end": false,
    "fir": "RJJJ",
    "first_seen": "2026-09-27T12:01:24+00:00",
    "focus_tag": "admin",
    "geometry_source": "qline-point",
    "icao_location": "RJJJ",
    "issuer": "RJAAYNYX",
    "keyword_hit": false,
    "kind": "point",
    "last_updated": "2026-09-27T08:02:00.000Z",
    "lower": null,
    "matched_keywords": [],
    "nms_id": "1790496168194000",
    "notam_type": "R",
    "number": "X6096/26",
    "q_code": "QPFCA",
    "qline_offset_nm": null,
    "radius_nm": 999.0,
    "raw_text": "X6096/26 NOTAMR X6085/26\r\nQ)RJJJ/QPFCA/I/NBO/E/000/999/3310N14118E999\r\nA)RJJJ B)2609270802 C)2609270900\r\nE)FLOW CTL AS FLWS, \r\n AREA:  TOKYO APCH CTA\r\nPROC: EXP DEP CLR TIME WILL BE ISSUED TO ACFT FOR RJTT VIA \r\nTEDIX,LALID \r\nRMK: REF AIP ENR1.9-1",
    "series": "X",
    "source": "nms",
    "status": "expired",
    "title": "周辺国FIR(参考) RJJJ X6096/26",
    "upper": null,
    "valid_end": "2026-09-27T09:00:00+00:00",
    "valid_raw": [],
    "valid_start": "2026-09-27T08:02:00+00:00"
   },
   "type": "Feature"
  },
  {
   "geometry": {
    "coordinates": [
     141.3,
     33.166667
    ],
    "type": "Point"
   },
   "properties": {
    "area_group": "REF",
    "category": "other",
    "date": "2026-09-27",
    "ended_by": null,
    "estimated_end": false,
    "fir": "RJJJ",
    "first_seen": "2026-09-27T12:01:24+00:00",
    "focus_tag": "admin",
    "geometry_source": "qline-point",
    "icao_location": "RJJJ",
    "issuer": "RJAAYNYX",
    "keyword_hit": false,
    "kind": "point",
    "last_updated": "2026-09-27T08:13:00.000Z",
    "lower": null,
    "matched_keywords": [],
    "nms_id": "1790496802106000",
    "notam_type": "R",
    "number": "X6097/26",
    "q_code": "QPFCA",
    "qline_offset_nm": null,
    "radius_nm": 999.0,
    "raw_text": "X6097/26 NOTAMR X6082/26\r\nQ)RJJJ/QPFCA/I/NBO/E/000/999/3310N14118E999\r\nA)RJJJ B)2609270813 C)2609270920\r\nE)FLOW CTL AS FLWS, \r\n AREA: SECTOR F07 \r\nPROC: EXP DEP CLR TIME WILL BE ISSUED TO ACFT FOR SECTOR F07\r\nRMK: REF AIP ENR1.9-1",
    "series": "X",
    "source": "nms",
    "status": "expired",
    "title": "周辺国FIR(参考) RJJJ X6097/26",
    "upper": null,
    "valid_end": "2026-09-27T09:20:00+00:00",
    "valid_raw": [],
    "valid_start": "2026-09-27T08:13:00+00:00"
   },
   "type": "Feature"
  },
  {
   "geometry": {
    "coordinates": [
     141.3,
     33.166667
    ],
    "type": "Point"
   },
   "properties": {
    "area_group": "REF",
    "category": "other",
    "date": "2026-09-27",
    "ended_by": "X6101/26",
    "estimated_end": false,
    "fir": "RJJJ",
    "first_seen": "2026-09-27T12:01:24+00:00",
    "focus_tag": "admin",
    "geometry_source": "qline-point",
    "icao_location": "RJJJ",
    "issuer": "RJAAYNYX",
    "keyword_hit": false,
    "kind": "point",
    "last_updated": "2026-09-27T09:47:00.000Z",
    "lower": null,
    "matched_keywords": [],
    "nms_id": "1790498672974000",
    "notam_type": "N",
    "number": "X6098/26",
    "q_code": "QPFCA",
    "qline_offset_nm": null,
    "radius_nm": null,
    "raw_text": "X6098/26 NOTAMN\r\nQ)RJJJ/QPFCA/I/NBO/E/000/999/3310N14118E999\r\nA)RJJJ B)2609270845 C)2609271140\r\nE)FLOW CTL AS FLWS, \r\n AREA: SECTOR N50 \r\nPROC: EXP DEP CLR TIME WILL BE ISSUED TO ACFT FOR SECTOR N50\r\nRMK: REF AIP ENR1.9-1",
    "series": "X",
    "source": "nms",
    "status": "cancelled",
    "title": "周辺国FIR(参考) RJJJ X6098/26",
    "upper": null,
    "valid_end": "2026-09-27T09:47:00+00:00",
    "valid_raw": [],
    "valid_start": "2026-09-27T08:45:00+00:00"
   },
   "type": "Feature"
  },
  {
   "geometry": {
    "coordinates": [
     141.3,
     33.166667
    ],
    "type": "Point"
   },
   "properties": {
    "area_group": "REF",
    "category": "other",
    "date": "2026-09-27",
    "ended_by": null,
    "estimated_end": false,
    "fir": "RJJJ",
    "first_seen": "2026-09-27T12:01:24+00:00",
    "focus_tag": "admin",
    "geometry_source": "qline-point",
    "icao_location": "RJJJ",
    "issuer": "RJAAYNYX",
    "keyword_hit": false,
    "kind": "point",
    "last_updated": "2026-09-27T08:58:00Z",
    "lower": null,
    "matched_keywords": [],
    "nms_id": "1790499458184000",
    "notam_type": "N",
    "number": "X6099/26",
    "q_code": "QPFCA",
    "qline_offset_nm": null,
    "radius_nm": 999.0,
    "raw_text": "X6099/26 NOTAMN\r\nQ)RJJJ/QPFCA/I/NBO/E/000/999/3310N14118E999\r\nA)RJJJ B)2609270905 C)2609271100\r\nE)FLOW CTL AS FLWS, \r\n AREA:  KANSAI APCH CTA\r\nPROC: EXP DEP CLR TIME WILL BE ISSUED TO ACFT FOR RJOO\r\nRMK: REF AIP ENR1.9-1",
    "series": "X",
    "source": "nms",
    "status": "expired",
    "title": "周辺国FIR(参考) RJJJ X6099/26",
    "upper": null,
    "valid_end": "2026-09-27T11:00:00+00:00",
    "valid_raw": [],
    "valid_start": "2026-09-27T09:05:00+00:00"
   },
   "type": "Feature"
  },
  {
   "geometry": {
    "coordinates": [
     141.3,
     33.166667
    ],
    "type": "Point"
   },
   "properties": {
    "area_group": "REF",
    "category": "other",
    "date": "2026-09-27",
    "ended_by": null,
    "estimated_end": false,
    "fir": "RJJJ",
    "first_seen": "2026-09-27T12:01:24+00:00",
    "focus_tag": "admin",
    "geometry_source": "qline-point",
    "icao_location": "RJJJ",
    "issuer": "RJAAYNYX",
    "keyword_hit": false,
    "kind": "point",
    "last_updated": "2026-09-27T09:45:00.000Z",
    "lower": null,
    "matched_keywords": [],
    "nms_id": "1790502335593000",
    "notam_type": "N",
    "number": "X6100/26",
    "q_code": "QPFCA",
    "qline_offset_nm": null,
    "radius_nm": 999.0,
    "raw_text": "X6100/26 NOTAMN\r\nQ)RJJJ/QPFCA/I/NBO/E/000/999/3310N14118E999\r\nA)RJJJ B)2609270945 C)2609271150\r\nE)FLOW CTL AS FLWS, \r\n AREA: SECTOR N51 \r\nPROC: EXP DEP CLR TIME WILL BE ISSUED TO ACFT FOR SECTOR N51\r\nRMK: REF AIP ENR1.9-1",
    "series": "X",
    "source": "nms",
    "status": "expired",
    "title": "周辺国FIR(参考) RJJJ X6100/26",
    "upper": null,
    "valid_end": "2026-09-27T11:50:00+00:00",
    "valid_raw": [],
    "valid_start": "2026-09-27T09:45:00+00:00"
   },
   "type": "Feature"
  },
  {
   "geometry": {
    "coordinates": [
     141.3,
     33.166667
    ],
    "type": "Point"
   },
   "properties": {
    "area_group": "REF",
    "category": "other",
    "date": "2026-09-27",
    "ended_by": null,
    "estimated_end": false,
    "fir": "RJJJ",
    "first_seen": "2026-09-27T12:01:24+00:00",
    "focus_tag": "admin",
    "geometry_source": "qline-point",
    "icao_location": "RJJJ",
    "issuer": "RJAAYNYX",
    "keyword_hit": false,
    "kind": "point",
    "last_updated": "2026-09-27T06:34:00Z",
    "lower": null,
    "matched_keywords": [],
    "nms_id": "1790490827340000",
    "notam_type": "N",
    "number": "Z1729/26",
    "q_code": "QPFCA",
    "qline_offset_nm": null,
    "radius_nm": 999.0,
    "raw_text": "Z1729/26 NOTAMN\r\nQ)RJJJ/QPFCA/I/NBO/E/000/999/3310N14118E999\r\nA)RJJJ B)2609270700 C)2609271000\r\nE)FLOW CTL AT FIR BDRY AS FLWS, \r\n RTE: G585/Y599/G597/Y51/Y71/Y597/Y206\r\nACFT: EB FOR RJBB DEP FM KOREA\r\nPROC: (1)10MIN INTERVAL REGARDLESS OF ALT WILL BE APPLIED AT\r\nSAPRA/KALEK\r\n(2)5MIN INTERVAL REGARDLESS OF ALT WILL BE APPLIED AT LANAT\r\nRMK: REF AIP ENR1.9-1",
    "series": "Z",
    "source": "nms",
    "status": "expired",
    "title": "周辺国FIR(参考) RJJJ Z1729/26",
    "upper": null,
    "valid_end": "2026-09-27T10:00:00+00:00",
    "valid_raw": [],
    "valid_start": "2026-09-27T07:00:00+00:00"
   },
   "type": "Feature"
  },
  {
   "geometry": {
    "coordinates": [
     140.216667,
     39.616667
    ],
    "type": "Point"
   },
   "properties": {
    "area_group": "REF",
    "category": "other",
    "date": "2026-07-28",
    "ended_by": "L4171/26",
    "estimated_end": false,
    "fir": "RJJJ",
    "first_seen": "2026-09-27T12:01:24+00:00",
    "focus_tag": "admin",
    "geometry_source": "qline-point",
    "icao_location": "RJSK",
    "issuer": "RJAAYNYX",
    "keyword_hit": false,
    "kind": "point",
    "last_updated": "2026-09-27T08:32:00.000Z",
    "lower": null,
    "matched_keywords": [],
    "nms_id": "1785233532554000",
    "notam_type": "N",
    "number": "L3475/26",
    "q_code": "QSPLT",
    "qline_offset_nm": null,
    "radius_nm": null,
    "raw_text": "L3475/26 NOTAMN\r\nQ)RJJJ/QSPLT/IV/BO/AE/000/999/3937N14013E040\r\nA)RJSK B)2609260000 C)2609280900\r\nE)RADAR SER RESTRICTED FOR AROUND RJSK\r\nDUE TO AKITA SSR MAINT\r\nRMK: DLA EXP WHEN TFC CONGESTED",
    "series": "L",
    "source": "nms",
    "status": "cancelled",
    "title": "周辺国FIR(参考) RJSK L3475/26",
    "upper": null,
    "valid_end": "2026-09-27T08:31:00+00:00",
    "valid_raw": [],
    "valid_start": "2026-09-26T00:00:00+00:00"
   },
   "type": "Feature"
  },
  {
   "geometry": {
    "coordinates": [
     [
      [
       127.016667,
       37.166517
      ],
      [
       127.026887,
       37.166116
      ],
      [
       127.037009,
       37.164919
      ],
      [
       127.046935,
       37.162935
      ],
      [
       127.05657,
       37.160185
      ],
      [
       127.06582,
       37.156695
      ],
      [
       127.074597,
       37.152498
      ],
      [
       127.082816,
       37.147635
      ],
      [
       127.090398,
       37.142153
      ],
      [
       127.09727,
       37.136104
      ],
      [
       127.103365,
       37.129548
      ],
      [
       127.108626,
       37.122546
      ],
      [
       127.113001,
       37.115166
      ],
      [
       127.116448,
       37.10748
      ],
      [
       127.118935,
       37.099562
      ],
      [
       127.120436,
       37.091487
      ],
      [
       127.120938,
       37.083333
      ],
      [
       127.120436,
       37.07518
      ],
      [
       127.118935,
       37.067105
      ],
      [
       127.116448,
       37.059186
      ],
      [
       127.113001,
       37.0515
      ],
      [
       127.108626,
       37.044121
      ],
      [
       127.103365,
       37.037119
      ],
      [
       127.09727,
       37.030562
      ],
      [
       127.090398,
       37.024514
      ],
      [
       127.082816,
       37.019032
      ],
      [
       127.074597,
       37.014169
      ],
      [
       127.06582,
       37.009972
      ],
      [
       127.05657,
       37.006482
      ],
      [
       127.046935,
       37.003732
      ],
      [
       127.037009,
       37.001748
      ],
      [
       127.026887,
       37.00055
      ],
      [
       127.016667,
       37.00015
      ],
      [
       127.006446,
       37.00055
      ],
      [
       126.996324,
       37.001748
      ],
      [
       126.986398,
       37.003732
      ],
      [
       126.976764,
       37.006482
      ],
      [
       126.967513,
       37.009972
      ],
      [
       126.958736,
       37.014169
      ],
      [
       126.950517,
       37.019032
      ],
      [
       126.942936,
       37.024514
      ],
      [
       126.936064,
       37.030562
      ],
      [
       126.929968,
       37.037119
      ],
      [
       126.924707,
       37.044121
      ],
      [
       126.920332,
       37.0515
      ],
      [
       126.916885,
       37.059186
      ],
      [
       126.914399,
       37.067105
      ],
      [
       126.912897,
       37.07518
      ],
      [
       126.912395,
       37.083333
      ],
      [
       126.912897,
       37.091487
      ],
      [
       126.914399,
       37.099562
      ],
      [
       126.916885,
       37.10748
      ],
      [
       126.920332,
       37.115166
      ],
      [
       126.924707,
       37.122546
      ],
      [
       126.929968,
       37.129548
      ],
      [
       126.936064,
       37.136104
      ],
      [
       126.942936,
       37.142153
      ],
      [
       126.950517,
       37.147635
      ],
      [
       126.958736,
       37.152498
      ],
      [
       126.967513,
       37.156695
      ],
      [
       126.976764,
       37.160185
      ],
      [
       126.986398,
       37.162935
      ],
      [
       126.996324,
       37.164919
      ],
      [
       127.006446,
       37.166116
      ],
      [
       127.016667,
       37.166517
      ]
     ]
    ],
    "type": "Polygon"
   },
   "properties": {
    "area_group": "REF",
    "category": "other",
    "date": "2026-09-25",
    "ended_by": null,
    "estimated_end": false,
    "fir": "RKRR",
    "first_seen": "2026-09-27T12:01:24+00:00",
    "focus_tag": "plaintext",
    "geometry_source": "qline-circle",
    "icao_location": "RKSO",
    "issuer": "RKSO",
    "keyword_hit": false,
    "kind": "area",
    "last_updated": "2026-09-27T10:29:00Z",
    "lower": null,
    "matched_keywords": [],
    "nms_id": "1790303878158267",
    "notam_type": "N",
    "number": "L0022/26",
    "q_code": "QXXXX",
    "qline_offset_nm": null,
    "radius_nm": 5.0,
    "raw_text": "L0022/26 NOTAMN \r\nQ) RKRR/QXXXX/IV/NBO/A/000/999/3705N12701E005 \r\nA) RKSO \r\nB) 2609250300 \r\nC) 2609271100 \r\nE) WEATHER SECTION ON STANDBY",
    "series": "L",
    "source": "nms",
    "status": "expired",
    "title": "周辺国FIR(参考) RKSO L0022/26",
    "upper": null,
    "valid_end": "2026-09-27T10:29:00+00:00",
    "valid_raw": [],
    "valid_start": "2026-09-25T03:00:00+00:00"
   },
   "type": "Feature"
  },
  {
   "geometry": {
    "coordinates": [
     [
      [
       127.016667,
       37.166517
      ],
      [
       127.026887,
       37.166116
      ],
      [
       127.037009,
       37.164919
      ],
      [
       127.046935,
       37.162935
      ],
      [
       127.05657,
       37.160185
      ],
      [
       127.06582,
       37.156695
      ],
      [
       127.074597,
       37.152498
      ],
      [
       127.082816,
       37.147635
      ],
      [
       127.090398,
       37.142153
      ],
      [
       127.09727,
       37.136104
      ],
      [
       127.103365,
       37.129548
      ],
      [
       127.108626,
       37.122546
      ],
      [
       127.113001,
       37.115166
      ],
      [
       127.116448,
       37.10748
      ],
      [
       127.118935,
       37.099562
      ],
      [
       127.120436,
       37.091487
      ],
      [
       127.120938,
       37.083333
      ],
      [
       127.120436,
       37.07518
      ],
      [
       127.118935,
       37.067105
      ],
      [
       127.116448,
       37.059186
      ],
      [
       127.113001,
       37.0515
      ],
      [
       127.108626,
       37.044121
      ],
      [
       127.103365,
       37.037119
      ],
      [
       127.09727,
       37.030562
      ],
      [
       127.090398,
       37.024514
      ],
      [
       127.082816,
       37.019032
      ],
      [
       127.074597,
       37.014169
      ],
      [
       127.06582,
       37.009972
      ],
      [
       127.05657,
       37.006482
      ],
      [
       127.046935,
       37.003732
      ],
      [
       127.037009,
       37.001748
      ],
      [
       127.026887,
       37.00055
      ],
      [
       127.016667,
       37.00015
      ],
      [
       127.006446,
       37.00055
      ],
      [
       126.996324,
       37.001748
      ],
      [
       126.986398,
       37.003732
      ],
      [
       126.976764,
       37.006482
      ],
      [
       126.967513,
       37.009972
      ],
      [
       126.958736,
       37.014169
      ],
      [
       126.950517,
       37.019032
      ],
      [
       126.942936,
       37.024514
      ],
      [
       126.936064,
       37.030562
      ],
      [
       126.929968,
       37.037119
      ],
      [
       126.924707,
       37.044121
      ],
      [
       126.920332,
       37.0515
      ],
      [
       126.916885,
       37.059186
      ],
      [
       126.914399,
       37.067105
      ],
      [
       126.912897,
       37.07518
      ],
      [
       126.912395,
       37.083333
      ],
      [
       126.912897,
       37.091487
      ],
      [
       126.914399,
       37.099562
      ],
      [
       126.916885,
       37.10748
      ],
      [
       126.920332,
       37.115166
      ],
      [
       126.924707,
       37.122546
      ],
      [
       126.929968,
       37.129548
      ],
      [
       126.936064,
       37.136104
      ],
      [
       126.942936,
       37.142153
      ],
      [
       126.950517,
       37.147635
      ],
      [
       126.958736,
       37.152498
      ],
      [
       126.967513,
       37.156695
      ],
      [
       126.976764,
       37.160185
      ],
      [
       126.986398,
       37.162935
      ],
      [
       126.996324,
       37.164919
      ],
      [
       127.006446,
       37.166116
      ],
      [
       127.016667,
       37.166517
      ]
     ]
    ],
    "type": "Polygon"
   },
   "properties": {
    "area_group": "REF",
    "category": "other",
    "date": "2026-09-23",
    "ended_by": null,
    "estimated_end": false,
    "fir": "RKRR",
    "first_seen": "2026-09-27T12:01:24+00:00",
    "focus_tag": "plaintext",
    "geometry_source": "qline-circle",
    "icao_location": "RKSO",
    "issuer": "RKSO",
    "keyword_hit": true,
    "kind": "area",
    "last_updated": "2026-09-27T10:33:00Z",
    "lower": null,
    "matched_keywords": [
     "PROHIBITED",
     "CLOSED"
    ],
    "nms_id": "1790137054413997",
    "notam_type": "N",
    "number": "M1400/26",
    "q_code": "QXXXX",
    "qline_offset_nm": null,
    "radius_nm": 5.0,
    "raw_text": "M1400/26 NOTAMN \r\nQ) RKRR/QXXXX/IV/NBO/A/000/999/3705N12701E005 \r\nA) RKSO \r\nB) 2609271133 \r\nC) 2609271203 \r\nE) AERODROME CLOSED, ALL AIRCRAFT PROHIBITED FROM TAKING OFF AND LANDING.",
    "series": "M",
    "source": "nms",
    "status": "expired",
    "title": "周辺国FIR(参考) RKSO M1400/26",
    "upper": null,
    "valid_end": "2026-09-27T10:33:00+00:00",
    "valid_raw": [],
    "valid_start": "2026-09-27T11:33:00+00:00"
   },
   "type": "Feature"
  },
  {
   "geometry": {
    "coordinates": [
     [
      [
       127.016667,
       37.166517
      ],
      [
       127.026887,
       37.166116
      ],
      [
       127.037009,
       37.164919
      ],
      [
       127.046935,
       37.162935
      ],
      [
       127.05657,
       37.160185
      ],
      [
       127.06582,
       37.156695
      ],
      [
       127.074597,
       37.152498
      ],
      [
       127.082816,
       37.147635
      ],
      [
       127.090398,
       37.142153
      ],
      [
       127.09727,
       37.136104
      ],
      [
       127.103365,
       37.129548
      ],
      [
       127.108626,
       37.122546
      ],
      [
       127.113001,
       37.115166
      ],
      [
       127.116448,
       37.10748
      ],
      [
       127.118935,
       37.099562
      ],
      [
       127.120436,
       37.091487
      ],
      [
       127.120938,
       37.083333
      ],
      [
       127.120436,
       37.07518
      ],
      [
       127.118935,
       37.067105
      ],
      [
       127.116448,
       37.059186
      ],
      [
       127.113001,
       37.0515
      ],
      [
       127.108626,
       37.044121
      ],
      [
       127.103365,
       37.037119
      ],
      [
       127.09727,
       37.030562
      ],
      [
       127.090398,
       37.024514
      ],
      [
       127.082816,
       37.019032
      ],
      [
       127.074597,
       37.014169
      ],
      [
       127.06582,
       37.009972
      ],
      [
       127.05657,
       37.006482
      ],
      [
       127.046935,
       37.003732
      ],
      [
       127.037009,
       37.001748
      ],
      [
       127.026887,
       37.00055
      ],
      [
       127.016667,
       37.00015
      ],
      [
       127.006446,
       37.00055
      ],
      [
       126.996324,
       37.001748
      ],
      [
       126.986398,
       37.003732
      ],
      [
       126.976764,
       37.006482
      ],
      [
       126.967513,
       37.009972
      ],
      [
       126.958736,
       37.014169
      ],
      [
       126.950517,
       37.019032
      ],
      [
       126.942936,
       37.024514
      ],
      [
       126.936064,
       37.030562
      ],
      [
       126.929968,
       37.037119
      ],
      [
       126.924707,
       37.044121
      ],
      [
       126.920332,
       37.0515
      ],
      [
       126.916885,
       37.059186
      ],
      [
       126.914399,
       37.067105
      ],
      [
       126.912897,
       37.07518
      ],
      [
       126.912395,
       37.083333
      ],
      [
       126.912897,
       37.091487
      ],
      [
       126.914399,
       37.099562
      ],
      [
       126.916885,
       37.10748
      ],
      [
       126.920332,
       37.115166
      ],
      [
       126.924707,
       37.122546
      ],
      [
       126.929968,
       37.129548
      ],
      [
       126.936064,
       37.136104
      ],
      [
       126.942936,
       37.142153
      ],
      [
       126.950517,
       37.147635
      ],
      [
       126.958736,
       37.152498
      ],
      [
       126.967513,
       37.156695
      ],
      [
       126.976764,
       37.160185
      ],
      [
       126.986398,
       37.162935
      ],
      [
       126.996324,
       37.164919
      ],
      [
       127.006446,
       37.166116
      ],
      [
       127.016667,
       37.166517
      ]
     ]
    ],
    "type": "Polygon"
   },
   "properties": {
    "area_group": "REF",
    "category": "other",
    "date": "2026-09-27",
    "ended_by": null,
    "estimated_end": false,
    "fir": "RKRR",
    "first_seen": "2026-09-27T12:01:24+00:00",
    "focus_tag": "plaintext",
    "geometry_source": "qline-circle",
    "icao_location": "RKSO",
    "issuer": "RKSO",
    "keyword_hit": true,
    "kind": "area",
    "last_updated": "2026-09-27T09:00:00Z",
    "lower": null,
    "matched_keywords": [
     "PROHIBITED",
     "CLOSED"
    ],
    "nms_id": "1790493424855041",
    "notam_type": "N",
    "number": "M1417/26",
    "q_code": "QXXXX",
    "qline_offset_nm": null,
    "radius_nm": 5.0,
    "raw_text": "M1417/26 NOTAMN \r\nQ) RKRR/QXXXX/IV/NBO/A/000/999/3705N12701E005 \r\nA) RKSO \r\nB) 2609271108 \r\nC) 2609271132 \r\nE) AERODROME CLOSED, ALL AIRCRAFT PROHIBITED FROM TAKING OFF AND LANDING.",
    "series": "M",
    "source": "nms",
    "status": "expired",
    "title": "周辺国FIR(参考) RKSO M1417/26",
    "upper": null,
    "valid_end": "2026-09-27T09:00:00+00:00",
    "valid_raw": [],
    "valid_start": "2026-09-27T11:08:00+00:00"
   },
   "type": "Feature"
  },
  {
   "geometry": {
    "coordinates": [
     [
      [
       127.016667,
       37.166517
      ],
      [
       127.026887,
       37.166116
      ],
      [
       127.037009,
       37.164919
      ],
      [
       127.046935,
       37.162935
      ],
      [
       127.05657,
       37.160185
      ],
      [
       127.06582,
       37.156695
      ],
      [
       127.074597,
       37.152498
      ],
      [
       127.082816,
       37.147635
      ],
      [
       127.090398,
       37.142153
      ],
      [
       127.09727,
       37.136104
      ],
      [
       127.103365,
       37.129548
      ],
      [
       127.108626,
       37.122546
      ],
      [
       127.113001,
       37.115166
      ],
      [
       127.116448,
       37.10748
      ],
      [
       127.118935,
       37.099562
      ],
      [
       127.120436,
       37.091487
      ],
      [
       127.120938,
       37.083333
      ],
      [
       127.120436,
       37.07518
      ],
      [
       127.118935,
       37.067105
      ],
      [
       127.116448,
       37.059186
      ],
      [
       127.113001,
       37.0515
      ],
      [
       127.108626,
       37.044121
      ],
      [
       127.103365,
       37.037119
      ],
      [
       127.09727,
       37.030562
      ],
      [
       127.090398,
       37.024514
      ],
      [
       127.082816,
       37.019032
      ],
      [
       127.074597,
       37.014169
      ],
      [
       127.06582,
       37.009972
      ],
      [
       127.05657,
       37.006482
      ],
      [
       127.046935,
       37.003732
      ],
      [
       127.037009,
       37.001748
      ],
      [
       127.026887,
       37.00055
      ],
      [
       127.016667,
       37.00015
      ],
      [
       127.006446,
       37.00055
      ],
      [
       126.996324,
       37.001748
      ],
      [
       126.986398,
       37.003732
      ],
      [
       126.976764,
       37.006482
      ],
      [
       126.967513,
       37.009972
      ],
      [
       126.958736,
       37.014169
      ],
      [
       126.950517,
       37.019032
      ],
      [
       126.942936,
       37.024514
      ],
      [
       126.936064,
       37.030562
      ],
      [
       126.929968,
       37.037119
      ],
      [
       126.924707,
       37.044121
      ],
      [
       126.920332,
       37.0515
      ],
      [
       126.916885,
       37.059186
      ],
      [
       126.914399,
       37.067105
      ],
      [
       126.912897,
       37.07518
      ],
      [
       126.912395,
       37.083333
      ],
      [
       126.912897,
       37.091487
      ],
      [
       126.914399,
       37.099562
      ],
      [
       126.916885,
       37.10748
      ],
      [
       126.920332,
       37.115166
      ],
      [
       126.924707,
       37.122546
      ],
      [
       126.929968,
       37.129548
      ],
      [
       126.936064,
       37.136104
      ],
      [
       126.942936,
       37.142153
      ],
      [
       126.950517,
       37.147635
      ],
      [
       126.958736,
       37.152498
      ],
      [
       126.967513,
       37.156695
      ],
      [
       126.976764,
       37.160185
      ],
      [
       126.986398,
       37.162935
      ],
      [
       126.996324,
       37.164919
      ],
      [
       127.006446,
       37.166116
      ],
      [
       127.016667,
       37.166517
      ]
     ]
    ],
    "type": "Polygon"
   },
   "properties": {
    "area_group": "REF",
    "category": "other",
    "date": "2026-09-27",
    "ended_by": null,
    "estimated_end": false,
    "fir": "RKRR",
    "first_seen": "2026-09-27T12:01:24+00:00",
    "focus_tag": "plaintext",
    "geometry_source": "qline-circle",
    "icao_location": "RKSO",
    "issuer": "RKSO",
    "keyword_hit": true,
    "kind": "area",
    "last_updated": "2026-09-27T09:01:00Z",
    "lower": null,
    "matched_keywords": [
     "PROHIBITED",
     "CLOSED"
    ],
    "nms_id": "1790499685308882",
    "notam_type": "N",
    "number": "M1419/26",
    "q_code": "QXXXX",
    "qline_offset_nm": null,
    "radius_nm": 5.0,
    "raw_text": "M1419/26 NOTAMN \r\nQ) RKRR/QXXXX/IV/NBO/A/000/999/3705N12701E005 \r\nA) RKSO \r\nB) 2609271118 \r\nC) 2609271148 \r\nE) AERODROME CLOSED, ALL AIRCRAFT PROHIBITED FROM TAKING OFF AND LANDING.",
    "series": "M",
    "source": "nms",
    "status": "expired",
    "title": "周辺国FIR(参考) RKSO M1419/26",
    "upper": null,
    "valid_end": "2026-09-27T11:48:00+00:00",
    "valid_raw": [],
    "valid_start": "2026-09-27T11:18:00+00:00"
   },
   "type": "Feature"
  }
 ],
 "type": "FeatureCollection"
}
