{"features":[{"geometry":{"coordinates":[115.0,20.05],"type":"Point"},"properties":{"area_group":"HK","category":"other","classification":"INTL","date":"2026-09-01","ended_by":"A2275/26","ended_by_type":"R","estimated_end":true,"fir":"VHHK","first_seen":"2026-10-01T00:10:27+00:00","focus_tag":"admin","geometry_source":"qline-point","icao_location":"VHHK","issuer":"VHHHYNYX","keyword_hit":false,"kind":"point","last_updated":"2026-10-01T00:01:00.000Z","lower":null,"matched_keywords":[],"nms_id":"1788220864330000","notam_type":"R","number":"A2046/26","q_code":"QKKKK","qline_offset_nm":null,"radius_nm":null,"raw_text":"A2046/26 NOTAMR A1729/26\r\nQ) VHHK/QKKKK/K /K  /K /000/999/2003N11500E999\r\nA) VHHK B) 2609010000 C) 2610010000EST\r\nE) CHECKLIST\r\nYEAR=2026 1048 1584 1836 1847 1851 1868 1943 1991 1992 1995 1997 1998\r\n          1999 2026 2027 2028 2029 2031 2034 2035 2036 2040 2041 2042\r\n          2044 2045\r\n \r\nLATEST AIP AMENDMENT:  10/26\r\n\r\nCHECKLIST OF AIP SUP AND AIC\r\n\r\nAIP SUP: \r\n12/24 15/24 05/25 06/25 26/25 27/25 28/25 05/26 06/26\r\n07/26 10/26 11/26 12/26 13/26 14/26\r\n\r\nAIC: \r\n23/18 06/19 11/19 02/20 20/20 23/20 24/20 25/20 27/20 32/20\r\n05/21 06/21 24/21 37/21 39/21 13/22 23/22 01/23 06/23 07/23\r\n25/23 26/23 34/23 13/24 14/24 15/24 16/24 17/24 22/24 30/24\r\n31/24 32/24 02/25 03/25 06/25 07/25 09/25 12/25 13/25 14/25\r\n17/25 18/25 19/25 20/25 24/25 25/25 26/25 27/25 28/25 31/25\r\n01/26 02/26 05/26 06/26 07/26 08/26 09/26 10/26 11/26 12/26\r\n13/26 14/26 15/26","series":"A","source":"nms","status":"expired","title":"香港 VHHK A2046/26","upper":null,"valid_end":"2026-10-01T00:00:00+00:00","valid_raw":[],"valid_start":"2026-09-01T00:00:00+00:00"},"type":"Feature"},{"geometry":{"coordinates":[124.566667,12.033333],"type":"Point"},"properties":{"area_group":"REF","category":"other","classification":"INTL","date":"2026-09-01","ended_by":"B5213/26","ended_by_type":"R","estimated_end":true,"fir":"RPHI","first_seen":"2026-10-01T00:20:26+00:00","focus_tag":"admin","geometry_source":"qline-point","icao_location":"RPHI","issuer":"RPLLYNYX","keyword_hit":false,"kind":"point","last_updated":"2026-10-01T00:11:00.000Z","lower":null,"matched_keywords":[],"nms_id":"1788238155560000","notam_type":"R","number":"B4486/26","q_code":"QKKKK","qline_offset_nm":null,"radius_nm":null,"raw_text":"B4486/26 NOTAMR B3889/26 \nQ) RPHI/QKKKK/K /K /K /000/999/1202N12434E999 \nA) RPHI B) 2609010438 C) 2610010438EST E) CHECKLIST \nYEAR=2019 4771 \nYEAR=2023 2256 2261 \nYEAR=2025 5973 \nYEAR=2026 1565 1666 1938 2152 2296 2297 2375 2376 2377 2378 2379 2380 \n 2381 2382 2383 2384 2385 2386 2387 2388 2389 2390 2391 2393 \n 2395 2408 2409 2459 2526 2761 2762 2790 2824 2825 2826 2827 \n 2828 2829 2830 2832 2836 2872 2873 2874 2875 2876 2878 2879 \n 2880 2881 2882 2883 2884 2885 2886 2887 2920 2934 2938 2960 \n 2961 2964 2965 2966 2967 2968 2969 2970 2973 2985 2989 2992 \n 3055 3056 3057 3076 3090 3104 3110 3114 3115 3116 3117 3119 \n 3120 3154 3155 3156 3157 3159 3162 3163 3164 3165 3166 3169 \n 3172 3197 3242 3243 3253 3263 3287 3288 3303 3304 3319 3341 \n 3350 3356 3357 3368 3370 3372 3374 3376 3378 3380 3382 3434 \n 3435 3436 3437 3438 3441 3442 3443 3444 3445 3446 3447 3448 \n 3449 3450 3451 3462 3472 3474 3505 3506 3537 3538 3588 3589 \n 3593 3594 3671 3688 3689 3690 3708 3759 3760 3778 3779 3789 \n 3790 3791 3794 3795 3798 3809 3810 3811 3812 3813 3814 3815 \n 3816 3817 3818 3819 3820 3829 3832 3833 3857 3904 3917 3923 \n 3924 3939 3940 3946 3956 3965 3973 4015 4016 4047 4048 4049 \n 4050 4051 4054 4064 4066 4067 4083 4084 4091 4092 4093 4108 \n 4112 4113 4115 4116 4117 4131 4132 4168 4191 4199 4200 4204 \n 4205 4217 4219 4225 4226 4310 4314 4315 4316 4317 4318 4319 \n 4320 4321 4322 4323 4324 4325 4326 4327 4328 4329 4330 4331 \n 4332 4343 4345 4348 4352 4353 4355 4356 4357 4358 4364 4365 \n \n 4368 4369 4370 4371 4372 4373 4375 4379 4383 4389 4390 4391 \n 4399 4403 4404 4405 4406 4408 4410 4411 4412 4413 4414 4415 \n 4416 4417 4419 4420 4421 4432 4457 4460 4461 4478 4479 4480 \n 4481 4482 4483 4484 4485 \n \nLATEST PUBLICATIONS \nAIP AIRAC AMDT 005/2026 EFFECTIVE DATE 03 SEP 26 \nAIP AIRAC SUP 020/2026 EFFECTIVE DATE 03 SEP 26 \nAIP SUP 001/2026 EFFECTIVE DATE 23 JAN 26 \nAIC 002/2026 EFFECTIVE DATE 23 JAN 26 \nAIRAC EFFECTIVE DATE 01 OCT 26 - NIL \n \nAIC CHECKLIST \n004/2007 004/2010 005/2011 006/2011 008/2012 003/2013 \n004/2013 003/2014 004/2017 003/2019 004/2019 005/2022 \n006/2022 003/2023 003/2024 003/2025 004/2025 005/2025 \n006/2025 001/2026 002/2026 \n \nSUP CHECKLIST \n006/2022 007/2022 008/2022 009/2022 007/2024 014/2024 \n015/2024 022/2024 027/2024 031/2024 032/2024 033/2024 \n034/2024 035/2024 036/2024 037/2024 038/2024 039/2024 \n040/2024 004/2025 005/2025 006/2025 007/2025 008/2025 \n009/2025 010/2025 011/2025 012/2025 013/2025 014/2025 \n015/2025 021/2025 001/2026 002/2026 003/2026 004/2026 \n005/2026 006/2026 007/2026 008/2026 009/2026 010/2026 \n011/2026 012/2026 013/2026 014/2026 015/2026 016/2026 \n017/2026 018/2026 019/2026","series":"B","source":"nms","status":"cancelled","title":"周辺国FIR(参考) RPHI B4486/26","upper":null,"valid_end":"2026-10-01T00:10:00+00:00","valid_raw":[],"valid_start":"2026-09-01T04:38:00+00:00"},"type":"Feature"},{"geometry":{"coordinates":[124.566667,12.033333],"type":"Point"},"properties":{"area_group":"REF","category":"other","classification":"INTL","date":"2026-09-01","ended_by":"C1263/26","ended_by_type":"R","estimated_end":true,"fir":"RPHI","first_seen":"2026-10-01T00:20:26+00:00","focus_tag":"admin","geometry_source":"qline-point","icao_location":"RPHI","issuer":"RPLLYNYX","keyword_hit":false,"kind":"point","last_updated":"2026-10-01T00:13:00.000Z","lower":null,"matched_keywords":[],"nms_id":"1788238305466000","notam_type":"R","number":"C1021/26","q_code":"QKKKK","qline_offset_nm":null,"radius_nm":null,"raw_text":"C1021/26 NOTAMR C0910/26 Q) RPHI/QKKKK/K /K /K /000/999/1202N12434E999 A) RPHI  PART 1 OF 2  B) 2609010449  C) 2610010449EST  E) CHECKLIST \nYEAR=2021 0616 \nYEAR=2022 0156 0350 0695 \nYEAR=2023 0046 0048 0079 \nYEAR=2024 0059 0081 0268 0362 0403 0407 0479 0508 0908 0910 1066 1071 \nYEAR=2025 0139 0141 0263 0546 0548 0660 0679 0696 0776 0881 1126 1166 \n 1253 1259 1261 1286 1288 1290 1292 1335 \nYEAR=2026 0048 0050 0109 0164 0166 0226 0227 0272 0274 0287 0289 0302 \n 0333 0337 0503 0504 0512 0514 0516 0525 0527 0529 0531 0533 \n 0537 0567 0569 0571 0580 0586 0594 0629 0633 0635 0646 0657 \n 0658 0659 0668 0679 0681 0683 0692 0694 0695 0696 0702 0707 \n 0710 0711 0712 0713 0714 0715 0720 0726 0731 0733 0735 0737 \n 0738 0739 0740 0745 0746 0748 0754 0758 0760 0767 0768 0770 \n 0772 0779 0780 0781 0782 0787 0788 0790 0792 0794 0795 0804 \n 0806 0808 0810 0812 0824 0825 0827 0828 0829 0830 0831 0832 \n 0833 0834 0835 0837 0838 0841 0843 0845 0846 0847 0848 0849 \n 0851 0852 0853 0855 0856 0857 0858 0860 0861 0863 0864 0865 \n 0866 0867 0868 0869 0870 0873 0874 0875 0876 0878 0879 0881 \n 0893 0895 0896 0897 0898 0899 0900 0902 0903 0904 0906 0907 \n 0909 0914 0915 0917 0918 0919 0920 0923 0925 0929 0931 0937 \n 0938 0939 0940 0941 0942 0955 0957 0958 0964 0968 0969 0970 \n 0971 0972 0973 0975 0976 0978 0981 0982 0983 0987 0988 0989 END PART 1 OF 2\r\nC1021/26 NOTAMR C0910/26 Q) RPHI/QKKKK/K /K /K /000/999/1202N12434E999 A) RPHI  PART 2 OF 2  B) 2609010449  C) 2610010449EST  E) 0990 0992 0993 0994 0997 1001 1007 1008 1009 1010 1011 1012 \n 1013 1015 1016 1018 1019 1020 \n \nLATEST PUBLICATIONS \nAIP AIRAC AMDT 005/2026 EFFECTIVE DATE 03 SEP 26 \nAIP AIRAC SUP 020/2026 EFFECTIVE DATE 03 SEP 26 AIP SUP 001/2026 EFFECTIVE DATE 23 JAN 26 \nAIC 002/2026 EFFECTIVE DATE 23 JAN 26 \nAIRAC EFFECTIVE DATE 01 OCT 26 - NIL \n \nAIC CHECKLIST \n004/2007 004/2010 005/2011 006/2011 008/2012 003/2013 \n004/2013 003/2014 004/2017 003/2019 004/2019 005/2022 \n006/2022 003/2023 003/2024 003/2025 004/2025 005/2025 \n006/2025 001/2026 002/2026 \n \nSUP CHECKLIST \n006/2022 007/2022 008/2022 009/2022 007/2024 014/2024 \n015/2024 022/2024 027/2024 031/2024 032/2024 033/2024 \n034/2024 035/2024 036/2024 037/2024 038/2024 039/2024 \n040/2024 004/2025 005/2025 006/2025 007/2025 008/2025 \n009/2025 010/2025 011/2025 012/2025 013/2025 014/2025 \n015/2025 021/2025 001/2026 002/2026 003/2026 004/2026 \n005/2026 006/2026 007/2026 008/2026 009/2026 010/2026 \n011/2026 012/2026 013/2026 014/2026 015/2026 016/2026 \n017/2026 018/2026 019/2026 END PART 2 OF 2","series":"C","source":"nms","status":"cancelled","title":"周辺国FIR(参考) RPHI C1021/26","upper":null,"valid_end":"2026-10-01T00:12:00+00:00","valid_raw":[],"valid_start":"2026-09-01T04:49:00+00:00"},"type":"Feature"}],"type":"FeatureCollection"}
