{
  "type": "FeatureCollection",
  "features": [
    {
      "type": "Feature",
      "properties": {
        "title": "军事活动—云航警95/26",
        "url": "https://www.msa.gov.cn/html/cnmsa/hxaq/article/2026/0044b40ecdd64860b88170f2709880f8.html?hav=1jWj6r2hy0ealgUQFE7Lhw260j",
        "date": "2026-06-11",
        "bureau": "连云港海事局",
        "group_count": 1,
        "raw_text": "黄海南部，6月14日至18日每日0800时至1800时,在34-56.94N 119-26.01E、34-56.94N 119-32.59E、34-53.69N 119-32.59E、34-53.69N 119-32.01E诸点连线范围内进行军事活动。禁止驶入。",
        "valid_start": "2026-06-14T00:00:00+00:00",
        "valid_end": "2026-06-18T10:00:00+00:00",
        "valid_raw": [
          "6月14日至18日每日0800时至1800时"
        ],
        "group_index": 1,
        "kind": "area"
      },
      "geometry": {
        "type": "Polygon",
        "coordinates": [
          [
            [
              119.4335,
              34.949
            ],
            [
              119.54316666666666,
              34.949
            ],
            [
              119.54316666666666,
              34.89483333333333
            ],
            [
              119.5335,
              34.89483333333333
            ],
            [
              119.4335,
              34.949
            ]
          ]
        ]
      }
    },
    {
      "type": "Feature",
      "properties": {
        "title": "军事活动-大竹山岛—鲁航警649/26",
        "url": "https://www.msa.gov.cn/html/cnmsa/hxaq/article/2026/03e83d70b34d4ad783b35ec8431ccaea.html?hav=1jWj6r2hy3yfgLBeXl7aB2HPCl",
        "date": "2026-08-14",
        "bureau": "山东海事局",
        "group_count": 1,
        "raw_text": "渤海海峡，大竹山岛，8月18日0600时至18日，在38-03.0N 120-53.0E、38-03.0N 121-01.0E、37-58.0N 121-01.0E、37-58.0N 120-53.0E各点连线水域内进行军事活动。禁止驶入。",
        "valid_start": "2026-08-17T22:00:00+00:00",
        "valid_end": "2026-08-18T10:00:00+00:00",
        "valid_raw": [
          "8月18日0600时至18"
        ],
        "group_index": 1,
        "kind": "area"
      },
      "geometry": {
        "type": "Polygon",
        "coordinates": [
          [
            [
              120.88333333333334,
              38.05
            ],
            [
              121.01666666666667,
              38.05
            ],
            [
              121.01666666666667,
              37.96666666666667
            ],
            [
              120.88333333333334,
              37.96666666666667
            ],
            [
              120.88333333333334,
              38.05
            ]
          ]
        ]
      }
    },
    {
      "type": "Feature",
      "properties": {
        "title": "军事训练—桂航警150/26",
        "url": "https://www.msa.gov.cn/html/cnmsa/hxaq/article/2026/04129b6efa20410d85aa9eba4b384d0c.html?hav=1jWj6r2hy2JdE1ZPfmGrYvrHbG",
        "date": "2026-07-13",
        "bureau": "广西海事局",
        "group_count": 1,
        "raw_text": "北部湾，7月14日至7月16日每日0900时至1800时，在21-23.00N 108-47.40E；21-23.00N 108-58.00E；21-12.40N 108-58.00E；21-12.40N 108-47.40E连线海域范围内进行军事训练，禁止船舶驶入。",
        "valid_start": "2026-07-14T01:00:00+00:00",
        "valid_end": "2026-07-16T10:00:00+00:00",
        "valid_raw": [
          "7月14日至7月16日每日0900时至1800时"
        ],
        "group_index": 1,
        "kind": "area"
      },
      "geometry": {
        "type": "Polygon",
        "coordinates": [
          [
            [
              108.79,
              21.383333333333333
            ],
            [
              108.96666666666667,
              21.383333333333333
            ],
            [
              108.96666666666667,
              21.206666666666667
            ],
            [
              108.79,
              21.206666666666667
            ],
            [
              108.79,
              21.383333333333333
            ]
          ]
        ]
      }
    },
    {
      "type": "Feature",
      "properties": {
        "title": "渤海军事演习—辽航警341/26",
        "url": "https://www.msa.gov.cn/html/cnmsa/hxaq/article/2026/0587a5a5e9e44966a9b13b4770de9226.html?hav=1jWj6r2hy3yfaPnAVf37qY8y6r",
        "date": "2026-08-09",
        "bureau": "辽宁海事局",
        "group_count": 1,
        "raw_text": "渤海，自8月10日0430时至12日1800时在40-34.59N 120-50.73E、40-34.59N 120-52.27E、40-33.41N 120-52.27E和40-33.41N 120-50.73E诸点连线范围内进行军事演习。禁止驶入。",
        "valid_start": "2026-08-09T20:30:00+00:00",
        "valid_end": "2026-08-12T10:00:00+00:00",
        "valid_raw": [
          "8月10日0430时至12日1800时"
        ],
        "group_index": 1,
        "kind": "area"
      },
      "geometry": {
        "type": "Polygon",
        "coordinates": [
          [
            [
              120.8455,
              40.5765
            ],
            [
              120.87116666666667,
              40.5765
            ],
            [
              120.87116666666667,
              40.55683333333333
            ],
            [
              120.8455,
              40.55683333333333
            ],
            [
              120.8455,
              40.5765
            ]
          ]
        ]
      }
    },
    {
      "type": "Feature",
      "properties": {
        "title": "军事任务—辽航警334/26",
        "url": "https://www.msa.gov.cn/html/cnmsa/hxaq/article/2026/0b82a023af8a422a943aa55c61bb2bac.html?hav=1jWj6r2hy2JdQ44OCl1J79egG0",
        "date": "2026-07-31",
        "bureau": "辽宁海事局",
        "group_count": 1,
        "raw_text": "渤海海峡黄海北部，自8月2日1600时至16日1600时在38-51.7N121-38.2E、38-34.2N121-38.2E、38-33.9N121-07.9E、38-48.2N121-14.1E诸点连线范围内执行军事任务。禁止驶入。",
        "valid_start": "2026-08-02T08:00:00+00:00",
        "valid_end": "2026-08-16T08:00:00+00:00",
        "valid_raw": [
          "8月2日1600时至16日1600时"
        ],
        "group_index": 1,
        "kind": "area"
      },
      "geometry": {
        "type": "Polygon",
        "coordinates": [
          [
            [
              121.63666666666667,
              38.861666666666665
            ],
            [
              121.63666666666667,
              38.57
            ],
            [
              121.13166666666666,
              38.565
            ],
            [
              121.235,
              38.803333333333335
            ],
            [
              121.63666666666667,
              38.861666666666665
            ]
          ]
        ]
      }
    },
    {
      "type": "Feature",
      "properties": {
        "title": "火箭发射—沪航警561/26",
        "url": "https://www.msa.gov.cn/html/cnmsa/hxaq/article/2026/15c875ed4da0467fb3a818dea65a6a39.html?hav=1jWj6r2hy2JdE8tASn6EX7sywM",
        "date": "2026-07-18",
        "bureau": "上海海事局",
        "group_count": 1,
        "raw_text": "东海，2026年7月20日0600时至22日1200时，在以31-12.18N 123-42.69E为圆心，半径3千米的圆形海域内和以31-12.18N 123-42.69E为圆心，方位158°-194°，半径5千米的扇形的海域进行火箭发射。禁止驶入。",
        "valid_start": "2026-07-19T22:00:00+00:00",
        "valid_end": "2026-07-22T04:00:00+00:00",
        "valid_raw": [
          "2026年7月20日0600时至22日1200时"
        ],
        "group_index": 1,
        "kind": "line"
      },
      "geometry": {
        "type": "LineString",
        "coordinates": [
          [
            123.7115,
            31.203
          ],
          [
            123.7115,
            31.203
          ]
        ]
      }
    },
    {
      "type": "Feature",
      "properties": {
        "title": "火箭发射—琼航警130/26",
        "url": "https://www.msa.gov.cn/html/cnmsa/hxaq/article/2026/172484fe65824f95aeedea2f3d41cb71.html?hav=1jWj6r2hy2JdK4HeUo0yzVO4he",
        "date": "2026-07-23",
        "bureau": "海南海事局",
        "group_count": 1,
        "raw_text": "南海，自8月4日至8月5日，每日1550时至1750时，在以19-36.00N 110-55.80E为中心，5.4海里为半径的圆形区域内进行火箭发射，禁止驶入。",
        "valid_start": "2026-08-04T07:50:00+00:00",
        "valid_end": "2026-08-05T09:50:00+00:00",
        "valid_raw": [
          "自8月4日至8月5日，每日1550时至1750时"
        ],
        "group_index": 1,
        "kind": "point"
      },
      "geometry": {
        "type": "Point",
        "coordinates": [
          110.93,
          19.6
        ]
      }
    },
    {
      "type": "Feature",
      "properties": {
        "title": "实弹射击—粤航警543/26",
        "url": "https://www.msa.gov.cn/html/cnmsa/hxaq/article/2026/1f41dfde286a4cd291b853c547034df0.html?hav=1jWj6r2hy3yfaMrfOV9c46bRrw",
        "date": "2026-08-07",
        "bureau": "广东海事局",
        "group_count": 1,
        "raw_text": "南海，8月8日，以下四点连线海域内进行射击训练： （1）21-24.3N 110-57.9E； （2）21-24.3N 110-59.5E； （3）21-22.7N 110-59.5E； （4）21-22.7N 110-57.9E。禁止驶入。",
        "valid_start": "2026-08-07T16:00:00+00:00",
        "valid_end": "2026-08-08T16:00:00+00:00",
        "valid_raw": [
          "8月8日"
        ],
        "group_index": 1,
        "kind": "area"
      },
      "geometry": {
        "type": "Polygon",
        "coordinates": [
          [
            [
              110.965,
              21.405
            ],
            [
              110.99166666666666,
              21.405
            ],
            [
              110.99166666666666,
              21.378333333333334
            ],
            [
              110.965,
              21.378333333333334
            ],
            [
              110.965,
              21.405
            ]
          ]
        ]
      }
    },
    {
      "type": "Feature",
      "properties": {
        "title": "军事训练—桂航警159/26",
        "url": "https://www.msa.gov.cn/html/cnmsa/hxaq/article/2026/21071fb9bb3d426bb6a8f7585548d89a.html?hav=1jWj6r2hy2JdEALv1DNXFjoi1Z",
        "date": "2026-07-19",
        "bureau": "广西海事局",
        "group_count": 1,
        "raw_text": "北部湾，7月19日1200时至1700时，在21-23.00N 108-47.40E；21-23.00N 108-58.00E；21-12.40N 108-58.00E；21-12.40N 108-47.40E连线海域范围内进行军事训练，禁止船舶驶入。",
        "valid_start": "2026-07-19T04:00:00+00:00",
        "valid_end": "2026-07-19T09:00:00+00:00",
        "valid_raw": [
          "7月19日1200时至1700时"
        ],
        "group_index": 1,
        "kind": "area"
      },
      "geometry": {
        "type": "Polygon",
        "coordinates": [
          [
            [
              108.79,
              21.383333333333333
            ],
            [
              108.96666666666667,
              21.383333333333333
            ],
            [
              108.96666666666667,
              21.206666666666667
            ],
            [
              108.79,
              21.206666666666667
            ],
            [
              108.79,
              21.383333333333333
            ]
          ]
        ]
      }
    },
    {
      "type": "Feature",
      "properties": {
        "title": "实弹射击—粤航警512/26",
        "url": "https://www.msa.gov.cn/html/cnmsa/hxaq/article/2026/21f62c8a94e8423383f089cc109eac97.html?hav=1jWj6r2hy2JdQ2bdeBiVwrEt89",
        "date": "2026-07-30",
        "bureau": "广东海事局",
        "group_count": 1,
        "raw_text": "南海，8月4日至5日，每天0600时至2000时，以下五点连线海域内进行实弹射击： （1）22-42.17N 115-21.83E; （2）22-40.10N 115-33.43E; （3）22-39.30N 115-33.00E; （4）22-35.50N 115-29.17E； （5）22-38.53N 115-22.32E。禁止驶入。",
        "valid_start": "2026-08-03T22:00:00+00:00",
        "valid_end": "2026-08-05T12:00:00+00:00",
        "valid_raw": [
          "8月4日至5日，每天0600时至2000时"
        ],
        "group_index": 1,
        "kind": "area"
      },
      "geometry": {
        "type": "Polygon",
        "coordinates": [
          [
            [
              115.36383333333333,
              22.702833333333334
            ],
            [
              115.55716666666666,
              22.668333333333333
            ],
            [
              115.55,
              22.655
            ],
            [
              115.48616666666666,
              22.591666666666665
            ],
            [
              115.372,
              22.642166666666668
            ],
            [
              115.36383333333333,
              22.702833333333334
            ]
          ]
        ]
      }
    },
    {
      "type": "Feature",
      "properties": {
        "title": "军事训练—琼航警150/26",
        "url": "https://www.msa.gov.cn/html/cnmsa/hxaq/article/2026/222a39653bbb416cb913f8884c342a52.html?hav=1jWj6r2hy3yfaOKPrj8x3CV1Sy",
        "date": "2026-08-08",
        "bureau": "海南海事局",
        "group_count": 2,
        "raw_text": "南海，2026年8月9日0500时至2026年8月9日1200时，在17-08.00N 111-06.00E、16-44.00N 110-28.00E、16-13.00N 110-50.00E、16-37.00N 111-28.00E诸点连线范围内和17-11.00N 113-26.00E、17-28.50N 113-00.00E、16-57.50N 112-37.00E、16-40.00N 113-04.00E诸点连线范围内进行军事训练，禁止驶入。",
        "valid_start": "2026-08-08T21:00:00+00:00",
        "valid_end": "2026-08-09T04:00:00+00:00",
        "valid_raw": [
          "2026年8月9日0500时至2026年8月9日1200时"
        ],
        "group_index": 1,
        "kind": "area"
      },
      "geometry": {
        "type": "Polygon",
        "coordinates": [
          [
            [
              111.1,
              17.133333333333333
            ],
            [
              110.46666666666667,
              16.733333333333334
            ],
            [
              110.83333333333333,
              16.216666666666665
            ],
            [
              111.46666666666667,
              16.616666666666667
            ],
            [
              111.1,
              17.133333333333333
            ]
          ]
        ]
      }
    },
    {
      "type": "Feature",
      "properties": {
        "title": "军事训练—琼航警150/26",
        "url": "https://www.msa.gov.cn/html/cnmsa/hxaq/article/2026/222a39653bbb416cb913f8884c342a52.html?hav=1jWj6r2hy3yfaOKPrj8x3CV1Sy",
        "date": "2026-08-08",
        "bureau": "海南海事局",
        "group_count": 2,
        "raw_text": "南海，2026年8月9日0500时至2026年8月9日1200时，在17-08.00N 111-06.00E、16-44.00N 110-28.00E、16-13.00N 110-50.00E、16-37.00N 111-28.00E诸点连线范围内和17-11.00N 113-26.00E、17-28.50N 113-00.00E、16-57.50N 112-37.00E、16-40.00N 113-04.00E诸点连线范围内进行军事训练，禁止驶入。",
        "valid_start": "2026-08-08T21:00:00+00:00",
        "valid_end": "2026-08-09T04:00:00+00:00",
        "valid_raw": [
          "2026年8月9日0500时至2026年8月9日1200时"
        ],
        "group_index": 2,
        "kind": "area"
      },
      "geometry": {
        "type": "Polygon",
        "coordinates": [
          [
            [
              113.43333333333334,
              17.183333333333334
            ],
            [
              113.0,
              17.475
            ],
            [
              112.61666666666666,
              16.958333333333332
            ],
            [
              113.06666666666666,
              16.666666666666668
            ],
            [
              113.43333333333334,
              17.183333333333334
            ]
          ]
        ]
      }
    },
    {
      "type": "Feature",
      "properties": {
        "title": "实弹射击—粤航警552/26",
        "url": "https://www.msa.gov.cn/html/cnmsa/hxaq/article/2026/347e0cf88ae74b2c94376c684059c7cd.html?hav=1jWj6r2hy3yfgGnOmllXuADnd6",
        "date": "2026-08-11",
        "bureau": "广东海事局",
        "group_count": 1,
        "raw_text": "南海，8月12日和14日每天0800时至1700时，在以下四点连线海域内进行实弹射击： （1）21-47.00N 113-38.00E； （2）21-47.00N 113-41.00E； （3）21-44.00N 113-41.00E; （4）21-44.00N 113-38.00E。禁止驶入。",
        "group_index": 1,
        "kind": "area"
      },
      "geometry": {
        "type": "Polygon",
        "coordinates": [
          [
            [
              113.63333333333334,
              21.783333333333335
            ],
            [
              113.68333333333334,
              21.783333333333335
            ],
            [
              113.68333333333334,
              21.733333333333334
            ],
            [
              113.63333333333334,
              21.733333333333334
            ],
            [
              113.63333333333334,
              21.783333333333335
            ]
          ]
        ]
      }
    },
    {
      "type": "Feature",
      "properties": {
        "title": "渤海军事演习—辽航警321/26",
        "url": "https://www.msa.gov.cn/html/cnmsa/hxaq/article/2026/377cb5fa56114462b6da6bc743ac39c0.html?hav=1jWj6r2hy2JdK7D9c4M8FFKYsa",
        "date": "2026-07-25",
        "bureau": "辽宁海事局",
        "group_count": 1,
        "raw_text": "渤海，自7月26日0430时至27日1800时在40-34.59N 120-50.73E、40-34.59N 120-52.27E、40-33.41N 120-52.27E和40-33.41N 120-50.73E诸点连线范围内进行军事演习。禁止驶入。",
        "valid_start": "2026-07-25T20:30:00+00:00",
        "valid_end": "2026-07-27T10:00:00+00:00",
        "valid_raw": [
          "7月26日0430时至27日1800时"
        ],
        "group_index": 1,
        "kind": "area"
      },
      "geometry": {
        "type": "Polygon",
        "coordinates": [
          [
            [
              120.8455,
              40.5765
            ],
            [
              120.87116666666667,
              40.5765
            ],
            [
              120.87116666666667,
              40.55683333333333
            ],
            [
              120.8455,
              40.55683333333333
            ],
            [
              120.8455,
              40.5765
            ]
          ]
        ]
      }
    },
    {
      "type": "Feature",
      "properties": {
        "title": "军事任务—冀航警466/26",
        "url": "https://www.msa.gov.cn/html/cnmsa/hxaq/article/2026/37a5d0d6b80549539719e470a2a7ea9e.html?hav=1jWj6r2hy2JdJztOjrEnv4GuIL",
        "date": "2026-07-20",
        "bureau": "河北海事局",
        "group_count": 1,
        "raw_text": "渤海，7月21日0000时至7月23日2400时， 以N 39°24′35″、E 119°13′44″为顶点，正东方向至N39°24′35″、E 119°17′32″，再至N39°19′21″、E 119°29′47″端点，顶点正南偏西6°方向至N39°11′16″、E 119°11′54″端点，以顶点为中心半径25公里的部分圆弧将两个端点连接，形成不规则的闭合范围。该区域内进行实弹射击活动。禁止驶入。",
        "valid_start": "2026-07-20T16:00:00+00:00",
        "valid_end": "2026-07-23T16:00:00+00:00",
        "valid_raw": [
          "7月21日0000时至7月23日2400时"
        ],
        "group_index": 1,
        "kind": "area"
      },
      "geometry": {
        "type": "Polygon",
        "coordinates": [
          [
            [
              119.22888888888889,
              39.40972222222222
            ],
            [
              119.29222222222222,
              39.40972222222222
            ],
            [
              119.49638888888889,
              39.322500000000005
            ],
            [
              119.19833333333334,
              39.187777777777775
            ],
            [
              119.22888888888889,
              39.40972222222222
            ]
          ]
        ]
      }
    },
    {
      "type": "Feature",
      "properties": {
        "title": "实弹射击—粤航警551/26",
        "url": "https://www.msa.gov.cn/html/cnmsa/hxaq/article/2026/3d37d1c7647d472bb80f631fb2c3cce3.html?hav=1jWj6r2hy3yfgGnOmkTcEAyYi0",
        "date": "2026-08-11",
        "bureau": "广东海事局",
        "group_count": 1,
        "raw_text": "南海，8月12日和14日，每天0800时至1800时，以下四点连线海域内进行实弹射击： （1）23-14-12N117-20-42E； （2）23-14-12N117-40-00E； （3）23-01-00N117-40-00E; （4）23-01-00N117-20-42E。禁止驶入。",
        "group_index": 1,
        "kind": "area"
      },
      "geometry": {
        "type": "Polygon",
        "coordinates": [
          [
            [
              20.7,
              14.2
            ],
            [
              40.0,
              14.2
            ],
            [
              40.0,
              1.0
            ],
            [
              20.7,
              1.0
            ],
            [
              20.7,
              14.2
            ]
          ]
        ]
      }
    },
    {
      "type": "Feature",
      "properties": {
        "title": "火箭发射—琼航警138/26",
        "url": "https://www.msa.gov.cn/html/cnmsa/hxaq/article/2026/4118c13d0ce447e5b14e4a931f481684.html?hav=1jWj6r2hy2JdKBbPHsi8zKiO2P",
        "date": "2026-07-28",
        "bureau": "海南海事局",
        "group_count": 1,
        "raw_text": "南海，自7月29日至7月31日，每日1930时至2200时，在以19-37.12N 110-57.32E为中心，5.4海里为半径的圆形区域内进行火箭发射，禁止驶入。",
        "valid_start": "2026-07-29T11:30:00+00:00",
        "valid_end": "2026-07-31T14:00:00+00:00",
        "valid_raw": [
          "自7月29日至7月31日，每日1930时至2200时"
        ],
        "group_index": 1,
        "kind": "point"
      },
      "geometry": {
        "type": "Point",
        "coordinates": [
          110.95533333333333,
          19.618666666666666
        ]
      }
    },
    {
      "type": "Feature",
      "properties": {
        "title": "实弹射击—辽航警319/26",
        "url": "https://www.msa.gov.cn/html/cnmsa/hxaq/article/2026/471f40ac206240a5a9a9ba4063836667.html?hav=1jWj6r2hy2JdK5kP3RBYjNeajp",
        "date": "2026-07-24",
        "bureau": "辽宁海事局",
        "group_count": 1,
        "raw_text": "黄海北部，自7月27日0800时至29日1730时在38-35.5N122-13.0E、38-35.5N122-29.5E、38-30.0N122-29.5E、38-30.0N122-13.0E诸点连线范围内执行实弹射击。禁止驶入。",
        "valid_start": "2026-07-27T00:00:00+00:00",
        "valid_end": "2026-07-29T09:30:00+00:00",
        "valid_raw": [
          "7月27日0800时至29日1730时"
        ],
        "group_index": 1,
        "kind": "area"
      },
      "geometry": {
        "type": "Polygon",
        "coordinates": [
          [
            [
              122.21666666666667,
              38.59166666666667
            ],
            [
              122.49166666666666,
              38.59166666666667
            ],
            [
              122.49166666666666,
              38.5
            ],
            [
              122.21666666666667,
              38.5
            ],
            [
              122.21666666666667,
              38.59166666666667
            ]
          ]
        ]
      }
    },
    {
      "type": "Feature",
      "properties": {
        "title": "火箭发射—鲁航警629/26",
        "url": "https://www.msa.gov.cn/html/cnmsa/hxaq/article/2026/4785aa4a2396415faa4e16c39fcc9802.html?hav=1jWj6r2hy3yfaH0fA3d224SEOD",
        "date": "2026-08-03",
        "bureau": "山东海事局",
        "group_count": 2,
        "raw_text": "黄海，自8月3日1400时至5日1200时，东方航天港、北海救118在以36-37.86N 121-11.88E为中心，2千米为半径的圆形水域内和由36-37.86N 121-11.88E、36-36.02N 121-14.34E、36-35.21N 121-12.52E三点连线围成的区域内进行火箭发射。禁止船舶驶入。自8月5日0910时至11100时，火箭残骸落于由36-00.95N 121-16.68E、36-05.85N 121-35.73E、35-40.07N 121-45.68E、35-35.18N 121-26.75E四点连线围成的区域内。禁止船舶驶入。",
        "valid_start": "2026-08-03T06:00:00+00:00",
        "valid_end": "2026-08-05T04:00:00+00:00",
        "valid_raw": [
          "8月3日1400时至5日1200时",
          "8月5日0910时至1110"
        ],
        "group_index": 1,
        "kind": "area"
      },
      "geometry": {
        "type": "Polygon",
        "coordinates": [
          [
            [
              121.198,
              36.631
            ],
            [
              121.198,
              36.631
            ],
            [
              121.239,
              36.60033333333333
            ],
            [
              121.20866666666667,
              36.58683333333333
            ],
            [
              121.198,
              36.631
            ]
          ]
        ]
      }
    },
    {
      "type": "Feature",
      "properties": {
        "title": "火箭发射—鲁航警629/26",
        "url": "https://www.msa.gov.cn/html/cnmsa/hxaq/article/2026/4785aa4a2396415faa4e16c39fcc9802.html?hav=1jWj6r2hy3yfaH0fA3d224SEOD",
        "date": "2026-08-03",
        "bureau": "山东海事局",
        "group_count": 2,
        "raw_text": "黄海，自8月3日1400时至5日1200时，东方航天港、北海救118在以36-37.86N 121-11.88E为中心，2千米为半径的圆形水域内和由36-37.86N 121-11.88E、36-36.02N 121-14.34E、36-35.21N 121-12.52E三点连线围成的区域内进行火箭发射。禁止船舶驶入。自8月5日0910时至11100时，火箭残骸落于由36-00.95N 121-16.68E、36-05.85N 121-35.73E、35-40.07N 121-45.68E、35-35.18N 121-26.75E四点连线围成的区域内。禁止船舶驶入。",
        "valid_start": "2026-08-03T06:00:00+00:00",
        "valid_end": "2026-08-05T04:00:00+00:00",
        "valid_raw": [
          "8月3日1400时至5日1200时",
          "8月5日0910时至1110"
        ],
        "group_index": 2,
        "kind": "area"
      },
      "geometry": {
        "type": "Polygon",
        "coordinates": [
          [
            [
              121.278,
              36.01583333333333
            ],
            [
              121.5955,
              36.0975
            ],
            [
              121.76133333333334,
              35.667833333333334
            ],
            [
              121.44583333333334,
              35.586333333333336
            ],
            [
              121.278,
              36.01583333333333
            ]
          ]
        ]
      }
    },
    {
      "type": "Feature",
      "properties": {
        "title": "军事任务—辽航警343/26",
        "url": "https://www.msa.gov.cn/html/cnmsa/hxaq/article/2026/4801048620f546d89c6b875b3e0de955.html?hav=1jWj6r2hy3yfgLBeXl7aB190oo",
        "date": "2026-08-14",
        "bureau": "辽宁海事局",
        "group_count": 1,
        "raw_text": "渤海海峡黄海北部，自8月16日1600时至30日1600时在38-51.7N121-38.2E、38-34.2N121-38.2E、38-33.9N121-07.9E、38-48.2N121-14.1E诸点连线范围内执行军事任务。禁止驶入。",
        "valid_start": "2026-08-16T08:00:00+00:00",
        "valid_end": "2026-08-30T08:00:00+00:00",
        "valid_raw": [
          "8月16日1600时至30日1600时"
        ],
        "group_index": 1,
        "kind": "area"
      },
      "geometry": {
        "type": "Polygon",
        "coordinates": [
          [
            [
              121.63666666666667,
              38.861666666666665
            ],
            [
              121.63666666666667,
              38.57
            ],
            [
              121.13166666666666,
              38.565
            ],
            [
              121.235,
              38.803333333333335
            ],
            [
              121.63666666666667,
              38.861666666666665
            ]
          ]
        ]
      }
    },
    {
      "type": "Feature",
      "properties": {
        "title": "军事训练—琼航警127/26",
        "url": "https://www.msa.gov.cn/html/cnmsa/hxaq/article/2026/4a1bd46c47eb4618a6d8f22d04af9519.html?hav=1jWj6r2hy2JdE4UusCK6yDtHJx",
        "date": "2026-07-15",
        "bureau": "海南海事局",
        "group_count": 0,
        "detail_gave_up": true,
        "kind": "no_coords"
      },
      "geometry": null
    },
    {
      "type": "Feature",
      "properties": {
        "title": "军事训练—琼航警146/26",
        "url": "https://www.msa.gov.cn/html/cnmsa/hxaq/article/2026/4c8d9f99c1b746ce9b6b299c772149fe.html?hav=1jWj6r2hy3yfaJwAHMY2BhAW51",
        "date": "2026-08-05",
        "bureau": "海南海事局",
        "group_count": 2,
        "raw_text": "南海，自8月6日1700时至8月7日1400时，在20-00.0N/111-12.7E、19-56.0N/111-17.7E、19-49.0N/111-11.0E、19-53.0N/111-06.2E以及19-51.7N/110-59.0E、19-54.4N/110-58.2E、19-55.5N/111-02.7E、19-52.8N/111-03.5E四点连线水域范围内进行军事训练，禁止驶入。",
        "valid_start": "2026-08-06T09:00:00+00:00",
        "valid_end": "2026-08-07T06:00:00+00:00",
        "valid_raw": [
          "8月6日1700时至8月7日1400时"
        ],
        "group_index": 1,
        "kind": "area"
      },
      "geometry": {
        "type": "Polygon",
        "coordinates": [
          [
            [
              111.21166666666667,
              20.0
            ],
            [
              111.295,
              19.933333333333334
            ],
            [
              111.18333333333334,
              19.816666666666666
            ],
            [
              111.10333333333334,
              19.883333333333333
            ],
            [
              111.21166666666667,
              20.0
            ]
          ]
        ]
      }
    },
    {
      "type": "Feature",
      "properties": {
        "title": "军事训练—琼航警146/26",
        "url": "https://www.msa.gov.cn/html/cnmsa/hxaq/article/2026/4c8d9f99c1b746ce9b6b299c772149fe.html?hav=1jWj6r2hy3yfaJwAHMY2BhAW51",
        "date": "2026-08-05",
        "bureau": "海南海事局",
        "group_count": 2,
        "raw_text": "南海，自8月6日1700时至8月7日1400时，在20-00.0N/111-12.7E、19-56.0N/111-17.7E、19-49.0N/111-11.0E、19-53.0N/111-06.2E以及19-51.7N/110-59.0E、19-54.4N/110-58.2E、19-55.5N/111-02.7E、19-52.8N/111-03.5E四点连线水域范围内进行军事训练，禁止驶入。",
        "valid_start": "2026-08-06T09:00:00+00:00",
        "valid_end": "2026-08-07T06:00:00+00:00",
        "valid_raw": [
          "8月6日1700时至8月7日1400时"
        ],
        "group_index": 2,
        "kind": "area"
      },
      "geometry": {
        "type": "Polygon",
        "coordinates": [
          [
            [
              110.98333333333333,
              19.861666666666668
            ],
            [
              110.97,
              19.906666666666666
            ],
            [
              111.045,
              19.925
            ],
            [
              111.05833333333334,
              19.88
            ],
            [
              110.98333333333333,
              19.861666666666668
            ]
          ]
        ]
      }
    },
    {
      "type": "Feature",
      "properties": {
        "title": "军事训练—琼航警149/26",
        "url": "https://www.msa.gov.cn/html/cnmsa/hxaq/article/2026/51999844f12a4285a010777eebe791f2.html?hav=1jWj6r2hy3yfaMrfOV9cDWCjIX",
        "date": "2026-08-07",
        "bureau": "海南海事局",
        "group_count": 2,
        "raw_text": "南海，自8月7日1800时至8月8日1400时，在20-00.0N/111-12.7E、19-56.0N/111-17.7E、19-49.0N/111-11.0E、19-53.0N/111-06.2E以及19-51.7N/110-59.0E、19-54.4N/110-58.2E、19-55.5N/111-02.7E、19-52.8N/111-03.5E四点连线水域范围内进行军事训练，禁止驶入。",
        "valid_start": "2026-08-07T10:00:00+00:00",
        "valid_end": "2026-08-08T06:00:00+00:00",
        "valid_raw": [
          "8月7日1800时至8月8日1400时"
        ],
        "group_index": 1,
        "kind": "area"
      },
      "geometry": {
        "type": "Polygon",
        "coordinates": [
          [
            [
              111.21166666666667,
              20.0
            ],
            [
              111.295,
              19.933333333333334
            ],
            [
              111.18333333333334,
              19.816666666666666
            ],
            [
              111.10333333333334,
              19.883333333333333
            ],
            [
              111.21166666666667,
              20.0
            ]
          ]
        ]
      }
    },
    {
      "type": "Feature",
      "properties": {
        "title": "军事训练—琼航警149/26",
        "url": "https://www.msa.gov.cn/html/cnmsa/hxaq/article/2026/51999844f12a4285a010777eebe791f2.html?hav=1jWj6r2hy3yfaMrfOV9cDWCjIX",
        "date": "2026-08-07",
        "bureau": "海南海事局",
        "group_count": 2,
        "raw_text": "南海，自8月7日1800时至8月8日1400时，在20-00.0N/111-12.7E、19-56.0N/111-17.7E、19-49.0N/111-11.0E、19-53.0N/111-06.2E以及19-51.7N/110-59.0E、19-54.4N/110-58.2E、19-55.5N/111-02.7E、19-52.8N/111-03.5E四点连线水域范围内进行军事训练，禁止驶入。",
        "valid_start": "2026-08-07T10:00:00+00:00",
        "valid_end": "2026-08-08T06:00:00+00:00",
        "valid_raw": [
          "8月7日1800时至8月8日1400时"
        ],
        "group_index": 2,
        "kind": "area"
      },
      "geometry": {
        "type": "Polygon",
        "coordinates": [
          [
            [
              110.98333333333333,
              19.861666666666668
            ],
            [
              110.97,
              19.906666666666666
            ],
            [
              111.045,
              19.925
            ],
            [
              111.05833333333334,
              19.88
            ],
            [
              110.98333333333333,
              19.861666666666668
            ]
          ]
        ]
      }
    },
    {
      "type": "Feature",
      "properties": {
        "title": "火箭残骸掉落—琼航警117/26",
        "url": "https://www.msa.gov.cn/html/cnmsa/hxaq/article/2026/5417c6c0d41b43acad247b7a49f2517b.html?hav=1jWj6r2hy2Jd7vvfjP1sP66g67",
        "date": "2026-07-01",
        "bureau": "海南海事局",
        "group_count": 1,
        "raw_text": "南海，7月4日1630时至1830时，在18-53.25N/111-51.58E、18-54.09N/112-26.08E、17-43.42N/112-27.41E和17-42.58N/111-53.45E诸点连线水域范围内有火箭残骸掉落，禁止驶入。",
        "valid_start": "2026-07-04T08:30:00+00:00",
        "valid_end": "2026-07-04T10:30:00+00:00",
        "valid_raw": [
          "7月4日1630时至1830时"
        ],
        "group_index": 1,
        "kind": "area"
      },
      "geometry": {
        "type": "Polygon",
        "coordinates": [
          [
            [
              111.85966666666667,
              18.8875
            ],
            [
              112.43466666666667,
              18.9015
            ],
            [
              112.45683333333334,
              17.723666666666666
            ],
            [
              111.89083333333333,
              17.709666666666667
            ],
            [
              111.85966666666667,
              18.8875
            ]
          ]
        ]
      }
    },
    {
      "type": "Feature",
      "properties": {
        "title": "火箭发射—琼航警120/26",
        "url": "https://www.msa.gov.cn/html/cnmsa/hxaq/article/2026/5551b3a9773d4c38ab81d4bd91e1f85e.html?hav=1jWj6r2hy2Jd7yrAqbVFEefKHE",
        "date": "2026-07-03",
        "bureau": "海南海事局",
        "group_count": 1,
        "raw_text": "南海，自7月10日至7月11日，每日1240时至1540时，在以19-35.85N 110-56.18E为中心，5.4海里为半径的圆形区域内进行火箭发射，禁止驶入。",
        "valid_start": "2026-07-10T04:40:00+00:00",
        "valid_end": "2026-07-11T07:40:00+00:00",
        "valid_raw": [
          "自7月10日至7月11日，每日1240时至1540时"
        ],
        "group_index": 1,
        "kind": "point"
      },
      "geometry": {
        "type": "Point",
        "coordinates": [
          110.93633333333334,
          19.5975
        ]
      }
    },
    {
      "type": "Feature",
      "properties": {
        "title": "实弹射击-芝罘湾港区—鲁航警628/26",
        "url": "https://www.msa.gov.cn/html/cnmsa/hxaq/article/2026/58b767f5292a421a9844fdef3195e25c.html?hav=1jWj6r2hy3yfaH0fA4uxBJaL1q",
        "date": "2026-08-03",
        "bureau": "山东海事局",
        "group_count": 1,
        "raw_text": "渤海海峡，芝罘湾港区，8月5日0800时至1800时在37-34.70N 121-30.61E、37-35.39N 121-32.95E、37-34.33N 121-33.65E、37-33.57N 121-33.34E、37-34.01N 121-30.63E各点连线水域内进行实弹射击。禁止驶入。",
        "valid_start": "2026-08-05T00:00:00+00:00",
        "valid_end": "2026-08-05T10:00:00+00:00",
        "valid_raw": [
          "8月5日0800时至1800时"
        ],
        "group_index": 1,
        "kind": "area"
      },
      "geometry": {
        "type": "Polygon",
        "coordinates": [
          [
            [
              121.51016666666666,
              37.57833333333333
            ],
            [
              121.54916666666666,
              37.58983333333333
            ],
            [
              121.56083333333333,
              37.57216666666667
            ],
            [
              121.55566666666667,
              37.5595
            ],
            [
              121.5105,
              37.566833333333335
            ],
            [
              121.51016666666666,
              37.57833333333333
            ]
          ]
        ]
      }
    },
    {
      "type": "Feature",
      "properties": {
        "title": "渤海军事演习—辽航警331/26",
        "url": "https://www.msa.gov.cn/html/cnmsa/hxaq/article/2026/5fa6cb4d54d144e88bd3427350124819.html?hav=1jWj6r2hy2JdQ2bdeEINNIlsO7",
        "date": "2026-07-30",
        "bureau": "辽宁海事局",
        "group_count": 1,
        "raw_text": "渤海，自7月31日0800时至1700时在40-39.29N 120-59.73E、40-39.29N 121-03.39E、40-37.70N 121-03.39E和40-37.69N 120-59.77E诸点连线范围内进行军事演习。禁止驶入。",
        "valid_start": "2026-07-31T00:00:00+00:00",
        "valid_end": "2026-07-31T09:00:00+00:00",
        "valid_raw": [
          "7月31日0800时至1700时"
        ],
        "group_index": 1,
        "kind": "area"
      },
      "geometry": {
        "type": "Polygon",
        "coordinates": [
          [
            [
              120.9955,
              40.654833333333336
            ],
            [
              121.0565,
              40.654833333333336
            ],
            [
              121.0565,
              40.62833333333333
            ],
            [
              120.99616666666667,
              40.628166666666665
            ],
            [
              120.9955,
              40.654833333333336
            ]
          ]
        ]
      }
    },
    {
      "type": "Feature",
      "properties": {
        "title": "火箭发射—琼航警119/26",
        "url": "https://www.msa.gov.cn/html/cnmsa/hxaq/article/2026/5fca7de62ea84528bff95e76cd9c02bc.html?hav=1jWj6r2hy2Jd7yrAqbVFEefKD6",
        "date": "2026-07-03",
        "bureau": "海南海事局",
        "group_count": 1,
        "raw_text": "南海，自7月5日至7月6日，每日2030时至2230时，在以19-36.00N 110-55.80E为中心，5.4海里为半径的圆形区域内进行火箭发射，禁止驶入。",
        "valid_start": "2026-07-05T12:30:00+00:00",
        "valid_end": "2026-07-06T14:30:00+00:00",
        "valid_raw": [
          "自7月5日至7月6日，每日2030时至2230时"
        ],
        "group_index": 1,
        "kind": "point"
      },
      "geometry": {
        "type": "Point",
        "coordinates": [
          110.93,
          19.6
        ]
      }
    },
    {
      "type": "Feature",
      "properties": {
        "title": "军事任务—辽航警320/26",
        "url": "https://www.msa.gov.cn/html/cnmsa/hxaq/article/2026/61bee02fbd5848de9a992e14365f7961.html?hav=1jWj6r2hy2JdK5kP3RBYjNeant",
        "date": "2026-07-24",
        "bureau": "辽宁海事局",
        "group_count": 1,
        "raw_text": "渤海海峡黄海北部，自7月26日1600时至8月2日1600时在38-51.7N121-38.2E、38-34.2N121-38.2E、38-33.9N121-07.9E、38-48.2N121-14.1E诸点连线范围内执行军事任务。禁止驶入。",
        "valid_start": "2026-07-26T08:00:00+00:00",
        "valid_end": "2026-08-02T08:00:00+00:00",
        "valid_raw": [
          "7月26日1600时至8月2日1600时"
        ],
        "group_index": 1,
        "kind": "area"
      },
      "geometry": {
        "type": "Polygon",
        "coordinates": [
          [
            [
              121.63666666666667,
              38.861666666666665
            ],
            [
              121.63666666666667,
              38.57
            ],
            [
              121.13166666666666,
              38.565
            ],
            [
              121.235,
              38.803333333333335
            ],
            [
              121.63666666666667,
              38.861666666666665
            ]
          ]
        ]
      }
    },
    {
      "type": "Feature",
      "properties": {
        "title": "军事训练—琼航警145/26",
        "url": "https://www.msa.gov.cn/html/cnmsa/hxaq/article/2026/6721553d80bb407d960067352c2400e4.html?hav=1jWj6r2hy3yfaJwAHMY2GLYyUz",
        "date": "2026-08-05",
        "bureau": "海南海事局",
        "group_count": 1,
        "raw_text": "南海，自8月6日至8月8日，每日0800时至1800时，在19-30.57N/110-53.57E、19-31.22N/110-53.30E、19-31.22N/110-54.04E和19-30.57N/110-54.04E四点连线水域范围内进行军事训练，禁止驶入。",
        "valid_start": "2026-08-06T00:00:00+00:00",
        "valid_end": "2026-08-08T10:00:00+00:00",
        "valid_raw": [
          "自8月6日至8月8日，每日0800时至1800时"
        ],
        "group_index": 1,
        "kind": "area"
      },
      "geometry": {
        "type": "Polygon",
        "coordinates": [
          [
            [
              110.89283333333333,
              19.5095
            ],
            [
              110.88833333333334,
              19.520333333333333
            ],
            [
              110.90066666666667,
              19.520333333333333
            ],
            [
              110.90066666666667,
              19.5095
            ],
            [
              110.89283333333333,
              19.5095
            ]
          ]
        ]
      }
    },
    {
      "type": "Feature",
      "properties": {
        "title": "实弹射击—辽航警318/26",
        "url": "https://www.msa.gov.cn/html/cnmsa/hxaq/article/2026/680e466cd77c4fd9be353ed7fa3e0382.html?hav=1jWj6r2hy2JdK5kP3RBYjNeajj",
        "date": "2026-07-24",
        "bureau": "辽宁海事局",
        "group_count": 1,
        "raw_text": "渤海，自7月27日至8月13日每天0600时至2400时在39-04.58N121-23.02E、39-04.58N121-24.19E、39-03.12N121-24.19E、39-03.12N121-23.02E诸点连线范围内执行实弹射击。禁止驶入。",
        "valid_start": "2026-07-26T22:00:00+00:00",
        "valid_end": "2026-08-13T16:00:00+00:00",
        "valid_raw": [
          "自7月27日至8月13日每天0600时至2400时"
        ],
        "group_index": 1,
        "kind": "area"
      },
      "geometry": {
        "type": "Polygon",
        "coordinates": [
          [
            [
              121.38366666666667,
              39.07633333333333
            ],
            [
              121.40316666666666,
              39.07633333333333
            ],
            [
              121.40316666666666,
              39.052
            ],
            [
              121.38366666666667,
              39.052
            ],
            [
              121.38366666666667,
              39.07633333333333
            ]
          ]
        ]
      }
    },
    {
      "type": "Feature",
      "properties": {
        "title": "实弹射击—粤航警547/26",
        "url": "https://www.msa.gov.cn/html/cnmsa/hxaq/article/2026/695aa19416fb44b0b2d0ef7fb9da3333.html?hav=1jWj6r2hy3yfgFKeE9stglvGgZ",
        "date": "2026-08-10",
        "bureau": "广东海事局",
        "group_count": 1,
        "raw_text": "南海，8月10日，0900时至2200时，以下四点连线海域内进行射击训练： （1）21-24.3N 110-57.9E； （2）21-24.3N 110-59.5E； （3）21-22.7N 110-59.5E； （4）21-22.7N 110-57.9E。禁止驶入。",
        "valid_start": "2026-08-10T01:00:00+00:00",
        "valid_end": "2026-08-10T14:00:00+00:00",
        "valid_raw": [
          "8月10日，0900时至2200时"
        ],
        "group_index": 1,
        "kind": "area"
      },
      "geometry": {
        "type": "Polygon",
        "coordinates": [
          [
            [
              110.965,
              21.405
            ],
            [
              110.99166666666666,
              21.405
            ],
            [
              110.99166666666666,
              21.378333333333334
            ],
            [
              110.965,
              21.378333333333334
            ],
            [
              110.965,
              21.405
            ]
          ]
        ]
      }
    },
    {
      "type": "Feature",
      "properties": {
        "title": "军事任务—辽航警315/26",
        "url": "https://www.msa.gov.cn/html/cnmsa/hxaq/article/2026/6b1423954d684d8b8a9220b39d0a59b9.html?hav=1jWj6r2hy2JdE8tASfMfgZlM0c",
        "date": "2026-07-18",
        "bureau": "辽宁海事局",
        "group_count": 1,
        "raw_text": "渤海，自7月18日1800时至20日1800时在39-51N119-53E、39-51N120-37E、39-19N120-37E、39-19N119-53E诸点连线范围内执行军事任务。禁止驶入。",
        "valid_start": "2026-07-18T10:00:00+00:00",
        "valid_end": "2026-07-20T10:00:00+00:00",
        "valid_raw": [
          "7月18日1800时至20日1800时"
        ],
        "group_index": 1,
        "kind": "area"
      },
      "geometry": {
        "type": "Polygon",
        "coordinates": [
          [
            [
              119.88333333333334,
              39.85
            ],
            [
              120.61666666666666,
              39.85
            ],
            [
              120.61666666666666,
              39.31666666666667
            ],
            [
              119.88333333333334,
              39.31666666666667
            ],
            [
              119.88333333333334,
              39.85
            ]
          ]
        ]
      }
    },
    {
      "type": "Feature",
      "properties": {
        "title": "军事训练—琼航警143/26",
        "url": "https://www.msa.gov.cn/html/cnmsa/hxaq/article/2026/6f2abe56be7f4d28ac5dd08de5bacbc9.html?hav=1jWj6r2hy3yfaITPiaLy01bZ56",
        "date": "2026-08-04",
        "bureau": "海南海事局",
        "group_count": 1,
        "raw_text": "南海，2026年8月10日0800时至2026年8月14日1800时，在18-11.07N 109-46.01E、17-50.04N 109-59.07E、18-04.03N 110-25.05E、18-25.07N 110-12.06E四点连线水域范围内进行射击训练，禁止驶入。",
        "valid_start": "2026-08-10T00:00:00+00:00",
        "valid_end": "2026-08-14T10:00:00+00:00",
        "valid_raw": [
          "2026年8月10日0800时至2026年8月14日1800时"
        ],
        "group_index": 1,
        "kind": "area"
      },
      "geometry": {
        "type": "Polygon",
        "coordinates": [
          [
            [
              109.76683333333334,
              18.1845
            ],
            [
              109.9845,
              17.834
            ],
            [
              110.4175,
              18.067166666666665
            ],
            [
              110.201,
              18.417833333333334
            ],
            [
              109.76683333333334,
              18.1845
            ]
          ]
        ]
      }
    },
    {
      "type": "Feature",
      "properties": {
        "title": "军事训练—琼航警131/26",
        "url": "https://www.msa.gov.cn/html/cnmsa/hxaq/article/2026/764c2b643c604e05837ed6e5fc9d9712.html?hav=1jWj6r2hy2JdK4HeUuSclZaQ0R",
        "date": "2026-07-23",
        "bureau": "海南海事局",
        "group_count": 1,
        "raw_text": "南海，2026年7月24日0800时至2026年7月27日1800时，在19-11.35N 111-57.00E、17-03.90N 114-04.60E、16-01.52N 112-56.37E、18-10.22N 110-48.0E诸点连线范围内进行军事训练。禁止驶入。",
        "valid_start": "2026-07-24T00:00:00+00:00",
        "valid_end": "2026-07-27T10:00:00+00:00",
        "valid_raw": [
          "2026年7月24日0800时至2026年7月27日1800时"
        ],
        "group_index": 1,
        "kind": "area"
      },
      "geometry": {
        "type": "Polygon",
        "coordinates": [
          [
            [
              111.95,
              19.189166666666665
            ],
            [
              114.07666666666667,
              17.065
            ],
            [
              112.9395,
              16.025333333333332
            ],
            [
              110.8,
              18.170333333333332
            ],
            [
              111.95,
              19.189166666666665
            ]
          ]
        ]
      }
    },
    {
      "type": "Feature",
      "properties": {
        "title": "军事训练—琼航警132/26",
        "url": "https://www.msa.gov.cn/html/cnmsa/hxaq/article/2026/7744aceb0a14451aaaa1ba4fe60ae1d2.html?hav=1jWj6r2hy2JdK4Hea82VLJ3lws",
        "date": "2026-07-23",
        "bureau": "海南海事局",
        "group_count": 0,
        "detail_gave_up": true,
        "kind": "no_coords"
      },
      "geometry": null
    },
    {
      "type": "Feature",
      "properties": {
        "title": "军事训练—琼航警156/26",
        "url": "https://www.msa.gov.cn/html/cnmsa/hxaq/article/2026/78537fbe16804377ab13e260e7a4dabc.html?hav=1jWj6r2hy3yfgFKeJScUI1dFOH",
        "date": "2026-08-10",
        "bureau": "海南海事局",
        "group_count": 1,
        "raw_text": "南海，2026年8月11日0600时至2026年8月15日1800时，在17-07.00N 111-12.00E、17-07.00N 112-26.00E、17-57.00N 112-26.00E、17-57.00N 111-12.00E诸点连线范围内进行军事训练。禁止驶入。",
        "valid_start": "2026-08-10T22:00:00+00:00",
        "valid_end": "2026-08-15T10:00:00+00:00",
        "valid_raw": [
          "2026年8月11日0600时至2026年8月15日1800时"
        ],
        "group_index": 1,
        "kind": "area"
      },
      "geometry": {
        "type": "Polygon",
        "coordinates": [
          [
            [
              111.2,
              17.116666666666667
            ],
            [
              112.43333333333334,
              17.116666666666667
            ],
            [
              112.43333333333334,
              17.95
            ],
            [
              111.2,
              17.95
            ],
            [
              111.2,
              17.116666666666667
            ]
          ]
        ]
      }
    },
    {
      "type": "Feature",
      "properties": {
        "title": "实弹射击—云航警102/26",
        "url": "https://www.msa.gov.cn/html/cnmsa/hxaq/article/2026/79126710228349029aeef3be94c07fbe.html?hav=1jWj6r2hy0earqWPrAFCrK6Bjk",
        "date": "2026-06-26",
        "bureau": "连云港海事局",
        "group_count": 2,
        "raw_text": "黄海南部，自6月28日0000时至7月8日2400时在34-13.10N120-18.00E，34-12.25N120-35.28E，34-01.30N120-41.28E，33-55.00N120-37.08E，33-55.00N120-26.20诸点连线范围内进行实弹射击。自7月9日0800时至7月10日1800时在34-03.11N120-24.23E,34-01.53N120-24.48E,34-00.67N120-30.22E,34-07.71N120-27.00E诸点连线范围内进行实弹射击。禁止驶入。",
        "valid_start": "2026-06-27T16:00:00+00:00",
        "valid_end": "2026-07-10T10:00:00+00:00",
        "valid_raw": [
          "6月28日0000时至7月8日2400时",
          "7月9日0800时至7月10日1800时"
        ],
        "group_index": 1,
        "kind": "area"
      },
      "geometry": {
        "type": "Polygon",
        "coordinates": [
          [
            [
              120.3,
              34.218333333333334
            ],
            [
              120.588,
              34.204166666666666
            ],
            [
              120.688,
              34.02166666666667
            ],
            [
              120.618,
              33.916666666666664
            ],
            [
              120.3,
              34.218333333333334
            ]
          ]
        ]
      }
    },
    {
      "type": "Feature",
      "properties": {
        "title": "实弹射击—云航警102/26",
        "url": "https://www.msa.gov.cn/html/cnmsa/hxaq/article/2026/79126710228349029aeef3be94c07fbe.html?hav=1jWj6r2hy0earqWPrAFCrK6Bjk",
        "date": "2026-06-26",
        "bureau": "连云港海事局",
        "group_count": 2,
        "raw_text": "黄海南部，自6月28日0000时至7月8日2400时在34-13.10N120-18.00E，34-12.25N120-35.28E，34-01.30N120-41.28E，33-55.00N120-37.08E，33-55.00N120-26.20诸点连线范围内进行实弹射击。自7月9日0800时至7月10日1800时在34-03.11N120-24.23E,34-01.53N120-24.48E,34-00.67N120-30.22E,34-07.71N120-27.00E诸点连线范围内进行实弹射击。禁止驶入。",
        "valid_start": "2026-06-27T16:00:00+00:00",
        "valid_end": "2026-07-10T10:00:00+00:00",
        "valid_raw": [
          "6月28日0000时至7月8日2400时",
          "7月9日0800时至7月10日1800时"
        ],
        "group_index": 2,
        "kind": "area"
      },
      "geometry": {
        "type": "Polygon",
        "coordinates": [
          [
            [
              120.40383333333334,
              34.051833333333335
            ],
            [
              120.408,
              34.0255
            ],
            [
              120.50366666666666,
              34.01116666666667
            ],
            [
              120.45,
              34.1285
            ],
            [
              120.40383333333334,
              34.051833333333335
            ]
          ]
        ]
      }
    },
    {
      "type": "Feature",
      "properties": {
        "title": "军事训练—粤航警539/26",
        "url": "https://www.msa.gov.cn/html/cnmsa/hxaq/article/2026/798d3825913948cfbd2520e35920954d.html?hav=1jWj6r2hy3yfaJwAHMY2GMhMsy",
        "date": "2026-08-05",
        "bureau": "广东海事局",
        "group_count": 1,
        "raw_text": "南海，8月7日0300时至0700时，在以下四点连线海域内进行军事训练： （1）21-10.17N，110-32.13E; （2）21-08.10N，110-38.72E; （3）20-50.90N，110-33.05E; （4）20-53.12N，110-25.78E。希各航船避开。",
        "valid_start": "2026-08-06T19:00:00+00:00",
        "valid_end": "2026-08-06T23:00:00+00:00",
        "valid_raw": [
          "8月7日0300时至0700时"
        ],
        "group_index": 1,
        "kind": "area"
      },
      "geometry": {
        "type": "Polygon",
        "coordinates": [
          [
            [
              110.5355,
              21.1695
            ],
            [
              110.64533333333333,
              21.135
            ],
            [
              110.55083333333333,
              20.848333333333333
            ],
            [
              110.42966666666666,
              20.88533333333333
            ],
            [
              110.5355,
              21.1695
            ]
          ]
        ]
      }
    },
    {
      "type": "Feature",
      "properties": {
        "title": "火箭残骸掉落—琼航警121/26",
        "url": "https://www.msa.gov.cn/html/cnmsa/hxaq/article/2026/7cf84563af1a491f9603ba8177ad55ee.html?hav=1jWj6r2hy2Jd7yrAqgex6fcgfy",
        "date": "2026-07-03",
        "bureau": "海南海事局",
        "group_count": 1,
        "raw_text": "南海，7月4日1630时至2230时，在18-53.25N/111-51.58E、18-54.09N/112-26.08E、17-43.42N/112-27.41E和17-42.58N/111-53.45E诸点连线水域范围内有火箭残骸掉落，禁止驶入。",
        "valid_start": "2026-07-04T08:30:00+00:00",
        "valid_end": "2026-07-04T14:30:00+00:00",
        "valid_raw": [
          "7月4日1630时至2230时"
        ],
        "group_index": 1,
        "kind": "area"
      },
      "geometry": {
        "type": "Polygon",
        "coordinates": [
          [
            [
              111.85966666666667,
              18.8875
            ],
            [
              112.43466666666667,
              18.9015
            ],
            [
              112.45683333333334,
              17.723666666666666
            ],
            [
              111.89083333333333,
              17.709666666666667
            ],
            [
              111.85966666666667,
              18.8875
            ]
          ]
        ]
      }
    },
    {
      "type": "Feature",
      "properties": {
        "title": "渤海军事演习—辽航警336/26",
        "url": "https://www.msa.gov.cn/html/cnmsa/hxaq/article/2026/7e18d131ce1b499c80778be94712bff4.html?hav=1jWj6r2hy3yfaH0f9zlF9jwWlq",
        "date": "2026-08-03",
        "bureau": "辽宁海事局",
        "group_count": 1,
        "raw_text": "渤海，自8月4日0800时至1400时在40-42.58N 121-03.48E、40-35.70N 121-03.48E、40-35.70N 121-13.40E和40-42.58N 121-13.40E诸点连线范围内进行军事演习。禁止驶入。",
        "valid_start": "2026-08-04T00:00:00+00:00",
        "valid_end": "2026-08-04T06:00:00+00:00",
        "valid_raw": [
          "8月4日0800时至1400时"
        ],
        "group_index": 1,
        "kind": "area"
      },
      "geometry": {
        "type": "Polygon",
        "coordinates": [
          [
            [
              121.058,
              40.709666666666664
            ],
            [
              121.058,
              40.595
            ],
            [
              121.22333333333333,
              40.595
            ],
            [
              121.22333333333333,
              40.709666666666664
            ],
            [
              121.058,
              40.709666666666664
            ]
          ]
        ]
      }
    },
    {
      "type": "Feature",
      "properties": {
        "title": "火箭发射—琼航警148/26",
        "url": "https://www.msa.gov.cn/html/cnmsa/hxaq/article/2026/8405257ddda84ef485f577cd561fbc2c.html?hav=1jWj6r2hy3yfaMrfOV9cDV4L6x",
        "date": "2026-08-07",
        "bureau": "海南海事局",
        "group_count": 1,
        "raw_text": "南海，自8月16日至8月17日，每日1100时至1300时，在以19-35.85N 110-56.18E为中心，5.4海里为半径的圆形区域内进行火箭发射，禁止驶入。",
        "valid_start": "2026-08-16T03:00:00+00:00",
        "valid_end": "2026-08-17T05:00:00+00:00",
        "valid_raw": [
          "自8月16日至8月17日，每日1100时至1300时"
        ],
        "group_index": 1,
        "kind": "point"
      },
      "geometry": {
        "type": "Point",
        "coordinates": [
          110.93633333333334,
          19.5975
        ]
      }
    },
    {
      "type": "Feature",
      "properties": {
        "title": "军事训练—琼航警160/26",
        "url": "https://www.msa.gov.cn/html/cnmsa/hxaq/article/2026/85c214609eea440ebe11ddb03b1e1d07.html?hav=1jWj6r2hy3yfgJitzFgZQzn21h",
        "date": "2026-08-13",
        "bureau": "海南海事局",
        "group_count": 1,
        "raw_text": "南海，自8月12日至8月18日，每日0900时至1800时，在20-06.65N/111-07.38E、20-02.65N/110-55.50E、19-29.15N/111-04.98E和19-33.15N/111-17.78E四点连线水域范围内进行军事训练，禁止驶入。",
        "valid_start": "2026-08-12T01:00:00+00:00",
        "valid_end": "2026-08-18T10:00:00+00:00",
        "valid_raw": [
          "自8月12日至8月18日，每日0900时至1800时"
        ],
        "group_index": 1,
        "kind": "area"
      },
      "geometry": {
        "type": "Polygon",
        "coordinates": [
          [
            [
              111.123,
              20.110833333333332
            ],
            [
              110.925,
              20.044166666666666
            ],
            [
              111.083,
              19.485833333333332
            ],
            [
              111.29633333333334,
              19.5525
            ],
            [
              111.123,
              20.110833333333332
            ]
          ]
        ]
      }
    },
    {
      "type": "Feature",
      "properties": {
        "title": "军事训练—桂航警177/26",
        "url": "https://www.msa.gov.cn/html/cnmsa/hxaq/article/2026/88875cf1126746afb7af5ceb344fa503.html?hav=1jWj6r2hy3yfaLOupqh6sFgF4Y",
        "date": "2026-08-06",
        "bureau": "广西海事局",
        "group_count": 1,
        "raw_text": "北部湾，8月7日0700时至1900时，8月8日0700时至1300时，在21-28.42N 109-04.27E；21-30.00N 109-02.00E；21-27.00N 108-59.00E；21-25.50N 109-02.50E连线海域范围内进行军事训练，禁止船舶驶入。",
        "valid_start": "2026-08-06T23:00:00+00:00",
        "valid_end": "2026-08-08T05:00:00+00:00",
        "valid_raw": [
          "8月7日0700时至1900时",
          "8月8日0700时至1300时"
        ],
        "group_index": 1,
        "kind": "area"
      },
      "geometry": {
        "type": "Polygon",
        "coordinates": [
          [
            [
              109.07116666666667,
              21.473666666666666
            ],
            [
              109.03333333333333,
              21.5
            ],
            [
              108.98333333333333,
              21.45
            ],
            [
              109.04166666666667,
              21.425
            ],
            [
              109.07116666666667,
              21.473666666666666
            ]
          ]
        ]
      }
    },
    {
      "type": "Feature",
      "properties": {
        "title": "军事训练—琼航警155/26",
        "url": "https://www.msa.gov.cn/html/cnmsa/hxaq/article/2026/8e504b7444be4bf4a6e22debafd44570.html?hav=1jWj6r2hy3yfgFKeDzZTGLWyoK",
        "date": "2026-08-10",
        "bureau": "海南海事局",
        "group_count": 1,
        "raw_text": "南海，自8月12日0600时至8月14日1830时，在18-51.87N/110-30.65E、18-51.87N/110-36.35E、18-46.47N/110-36.35E和18-46.47N/110-30.65E四点连线水域范围内进行军事训练，禁止驶入。",
        "valid_start": "2026-08-11T22:00:00+00:00",
        "valid_end": "2026-08-14T10:30:00+00:00",
        "valid_raw": [
          "8月12日0600时至8月14日1830时"
        ],
        "group_index": 1,
        "kind": "area"
      },
      "geometry": {
        "type": "Polygon",
        "coordinates": [
          [
            [
              110.51083333333334,
              18.8645
            ],
            [
              110.60583333333334,
              18.8645
            ],
            [
              110.60583333333334,
              18.7745
            ],
            [
              110.51083333333334,
              18.7745
            ],
            [
              110.51083333333334,
              18.8645
            ]
          ]
        ]
      }
    },
    {
      "type": "Feature",
      "properties": {
        "title": "军事任务—冀航警481/26",
        "url": "https://www.msa.gov.cn/html/cnmsa/hxaq/article/2026/90de7334335745b8a7abea12e8a480b2.html?hav=1jWj6r2hy2JdKA8edzNpcbxNix",
        "date": "2026-07-27",
        "bureau": "河北海事局",
        "group_count": 1,
        "raw_text": "渤海，7月28日0000时至7月30日2400时， 以N 39°24′35″、E 119°13′44″为顶点，正东方向至N39°24′35″、E 119°17′32″，再至N39°19′21″、E 119°29′47″端点，顶点正南偏西6°方向至N39°11′16″、E 119°11′54″端点，以顶点为中心半径25公里的部分圆弧将两个端点连接，形成不规则的闭合范围。该区域内进行实弹射击活动。禁止驶入。",
        "valid_start": "2026-07-27T16:00:00+00:00",
        "valid_end": "2026-07-30T16:00:00+00:00",
        "valid_raw": [
          "7月28日0000时至7月30日2400时"
        ],
        "group_index": 1,
        "kind": "area"
      },
      "geometry": {
        "type": "Polygon",
        "coordinates": [
          [
            [
              119.22888888888889,
              39.40972222222222
            ],
            [
              119.29222222222222,
              39.40972222222222
            ],
            [
              119.49638888888889,
              39.322500000000005
            ],
            [
              119.19833333333334,
              39.187777777777775
            ],
            [
              119.22888888888889,
              39.40972222222222
            ]
          ]
        ]
      }
    },
    {
      "type": "Feature",
      "properties": {
        "title": "温州瓯飞滩以东水域军事训练—浙航警724/26",
        "url": "https://www.msa.gov.cn/html/cnmsa/hxaq/article/2026/9908f97c33d549ed8f7ac87fef687ae5.html?hav=1jWj6r2hy3yfgIG9QbE4T8JySr",
        "date": "2026-08-12",
        "bureau": "浙江海事局",
        "group_count": 1,
        "raw_text": "东海，8月18日1330时至1530时、8月19日1430时至1630时、8月20日0900时至1630时，在27-48.00N 120-51.00E、27-48.00N 120-58.00E、27-44.00N 120-54.00E、27-44.00N 120-47.00E诸点连线范围内水域开展军事训练，禁止驶入。",
        "valid_start": "2026-08-18T05:30:00+00:00",
        "valid_end": "2026-08-20T08:30:00+00:00",
        "valid_raw": [
          "8月18日1330时至1530时",
          "8月19日1430时至1630时",
          "8月20日0900时至1630时"
        ],
        "group_index": 1,
        "kind": "area"
      },
      "geometry": {
        "type": "Polygon",
        "coordinates": [
          [
            [
              120.85,
              27.8
            ],
            [
              120.96666666666667,
              27.8
            ],
            [
              120.9,
              27.733333333333334
            ],
            [
              120.78333333333333,
              27.733333333333334
            ],
            [
              120.85,
              27.8
            ]
          ]
        ]
      }
    },
    {
      "type": "Feature",
      "properties": {
        "title": "舟山中块岛水域军事活动—浙航警674/26",
        "url": "https://www.msa.gov.cn/html/cnmsa/hxaq/article/2026/99fffeafe30d4b7d90a6d34d09e7c740.html?hav=1jWj6r2hy2JdKA8ejGpUqil4p4",
        "date": "2026-07-27",
        "bureau": "浙江海事局",
        "group_count": 1,
        "raw_text": "东海，7月28日至29日每日0700时至2200时在30-27.80N 122-54.45E，30-27.80N 122-58.27E，30-24.55N 122-58.20E和30-24.55N 122-54.45E诸点连线范围内水域，进行军事射击训练，禁止驶入。",
        "valid_start": "2026-07-27T23:00:00+00:00",
        "valid_end": "2026-07-29T14:00:00+00:00",
        "valid_raw": [
          "7月28日至29日每日0700时至2200时"
        ],
        "group_index": 1,
        "kind": "area"
      },
      "geometry": {
        "type": "Polygon",
        "coordinates": [
          [
            [
              122.9075,
              30.463333333333335
            ],
            [
              122.97116666666666,
              30.463333333333335
            ],
            [
              122.97,
              30.409166666666668
            ],
            [
              122.9075,
              30.409166666666668
            ],
            [
              122.9075,
              30.463333333333335
            ]
          ]
        ]
      }
    },
    {
      "type": "Feature",
      "properties": {
        "title": "军事训练—琼航警136/26",
        "url": "https://www.msa.gov.cn/html/cnmsa/hxaq/article/2026/a1aa2d6fa2604a618f037fdcb4598e50.html?hav=1jWj6r2hy2JdKBbPHsi8zKiNu5",
        "date": "2026-07-28",
        "bureau": "海南海事局",
        "group_count": 1,
        "raw_text": "南海，南海，自7月24日0600时至7月29日1800时，在19-49.6N/110-59.6E、19-55.6N/110-57.7E、19-51.3N/111-05.6E和19-57.6N/111-03.7E四点连线水域范围内进行军事训练，禁止驶入。",
        "valid_start": "2026-07-23T22:00:00+00:00",
        "valid_end": "2026-07-29T10:00:00+00:00",
        "valid_raw": [
          "7月24日0600时至7月29日1800时"
        ],
        "group_index": 1,
        "kind": "area"
      },
      "geometry": {
        "type": "Polygon",
        "coordinates": [
          [
            [
              110.99333333333334,
              19.826666666666668
            ],
            [
              110.96166666666667,
              19.926666666666666
            ],
            [
              111.09333333333333,
              19.855
            ],
            [
              111.06166666666667,
              19.96
            ],
            [
              110.99333333333334,
              19.826666666666668
            ]
          ]
        ]
      }
    },
    {
      "type": "Feature",
      "properties": {
        "title": "军事训练—琼航警159/26",
        "url": "https://www.msa.gov.cn/html/cnmsa/hxaq/article/2026/a40f297b22134e1b9ea7527f2ff8708d.html?hav=1jWj6r2hy3yfgJittvf3EXB240",
        "date": "2026-08-13",
        "bureau": "海南海事局",
        "group_count": 1,
        "raw_text": "南海，8月13日0900时至1200时、14日1000时至1130时、15日0900时至1200时，在19-47.11N 111-08.16E、20-01.90N 111-02.50E、20-00.77N 110-56.13E和19-39.60N 111-03.73E四点连线水域范围内进行军事训练，禁止驶入。",
        "valid_start": "2026-08-13T01:00:00+00:00",
        "valid_end": "2026-08-13T04:00:00+00:00",
        "valid_raw": [
          "8月13日0900时至1200时"
        ],
        "group_index": 1,
        "kind": "area"
      },
      "geometry": {
        "type": "Polygon",
        "coordinates": [
          [
            [
              111.136,
              19.785166666666665
            ],
            [
              111.04166666666667,
              20.031666666666666
            ],
            [
              110.9355,
              20.012833333333333
            ],
            [
              111.06216666666667,
              19.66
            ],
            [
              111.136,
              19.785166666666665
            ]
          ]
        ]
      }
    },
    {
      "type": "Feature",
      "properties": {
        "title": "实弹射击—辽航警324/26",
        "url": "https://www.msa.gov.cn/html/cnmsa/hxaq/article/2026/ab1b7353e1c4419082b639fff55b8639.html?hav=1jWj6r2hy2JdKA8ejEFdirfVrS",
        "date": "2026-07-27",
        "bureau": "辽宁海事局",
        "group_count": 1,
        "raw_text": "黄海北部，自7月28日1200时至30日1700时在38-44N122-04E、38-44N122-08E、38-40N122-08E、38-40N122-04E诸点连线范围内执行实弹射击。禁止驶入。",
        "valid_start": "2026-07-28T04:00:00+00:00",
        "valid_end": "2026-07-30T09:00:00+00:00",
        "valid_raw": [
          "7月28日1200时至30日1700时"
        ],
        "group_index": 1,
        "kind": "area"
      },
      "geometry": {
        "type": "Polygon",
        "coordinates": [
          [
            [
              122.06666666666666,
              38.733333333333334
            ],
            [
              122.13333333333334,
              38.733333333333334
            ],
            [
              122.13333333333334,
              38.666666666666664
            ],
            [
              122.06666666666666,
              38.666666666666664
            ],
            [
              122.06666666666666,
              38.733333333333334
            ]
          ]
        ]
      }
    },
    {
      "type": "Feature",
      "properties": {
        "title": "军事任务—辽航警323/26",
        "url": "https://www.msa.gov.cn/html/cnmsa/hxaq/article/2026/b0b28f80d62b4f1286de9df0432c3145.html?hav=1jWj6r2hy2JdKA8ejEFdirfVrN",
        "date": "2026-07-27",
        "bureau": "辽宁海事局",
        "group_count": 2,
        "raw_text": "渤海海峡及黄海，自7月29日0300时至1500在38-38.38N121-18.45E、38-37.08N121-32.33E、38-34.30N121-31.98E、38-35.70N121-18.02E诸点连线范围内和在38-46.73N120-34.82E、38-39.67N121-08.43E、38-25.48N121-03.60E、38-32.55N120-29.98E诸点连线范围内执行军事任务。禁止驶入。",
        "valid_start": "2026-07-28T19:00:00+00:00",
        "valid_end": "2026-07-29T07:00:00+00:00",
        "valid_raw": [
          "7月29日0300时至1500"
        ],
        "revoked": true,
        "revoked_by": [
          "辽航警327/26"
        ],
        "group_index": 1,
        "kind": "area"
      },
      "geometry": {
        "type": "Polygon",
        "coordinates": [
          [
            [
              121.3075,
              38.63966666666666
            ],
            [
              121.53883333333333,
              38.618
            ],
            [
              121.533,
              38.571666666666665
            ],
            [
              121.30033333333333,
              38.595
            ],
            [
              121.3075,
              38.63966666666666
            ]
          ]
        ]
      }
    },
    {
      "type": "Feature",
      "properties": {
        "title": "军事任务—辽航警323/26",
        "url": "https://www.msa.gov.cn/html/cnmsa/hxaq/article/2026/b0b28f80d62b4f1286de9df0432c3145.html?hav=1jWj6r2hy2JdKA8ejEFdirfVrN",
        "date": "2026-07-27",
        "bureau": "辽宁海事局",
        "group_count": 2,
        "raw_text": "渤海海峡及黄海，自7月29日0300时至1500在38-38.38N121-18.45E、38-37.08N121-32.33E、38-34.30N121-31.98E、38-35.70N121-18.02E诸点连线范围内和在38-46.73N120-34.82E、38-39.67N121-08.43E、38-25.48N121-03.60E、38-32.55N120-29.98E诸点连线范围内执行军事任务。禁止驶入。",
        "valid_start": "2026-07-28T19:00:00+00:00",
        "valid_end": "2026-07-29T07:00:00+00:00",
        "valid_raw": [
          "7月29日0300时至1500"
        ],
        "revoked": true,
        "revoked_by": [
          "辽航警327/26"
        ],
        "group_index": 2,
        "kind": "area"
      },
      "geometry": {
        "type": "Polygon",
        "coordinates": [
          [
            [
              120.58033333333333,
              38.77883333333333
            ],
            [
              121.1405,
              38.66116666666667
            ],
            [
              121.06,
              38.42466666666667
            ],
            [
              120.49966666666667,
              38.5425
            ],
            [
              120.58033333333333,
              38.77883333333333
            ]
          ]
        ]
      }
    },
    {
      "type": "Feature",
      "properties": {
        "title": "军事演练—浙航警718/26",
        "url": "https://www.msa.gov.cn/html/cnmsa/hxaq/article/2026/bae7d75fef224272a3fe5d89011427d9.html?hav=1jWj6r2hy3yfgGnOs4V8VOnNgM",
        "date": "2026-08-11",
        "bureau": "浙江海事局",
        "group_count": 1,
        "raw_text": "东海，8月13日0700时至1000时在1）29-39.12N 122-00.52E，2）29-40.05N 122-02.35E，3）29-26.83N 122-14.57E，4）29-24.85N 122-14.68E，5）29-23.27N 122-10.55E五点连线水域范围内进行军事演练活动。禁止驶入。",
        "valid_start": "2026-08-12T23:00:00+00:00",
        "valid_end": "2026-08-13T02:00:00+00:00",
        "valid_raw": [
          "8月13日0700时至1000时"
        ],
        "group_index": 1,
        "kind": "area"
      },
      "geometry": {
        "type": "Polygon",
        "coordinates": [
          [
            [
              122.00866666666667,
              29.652
            ],
            [
              122.03916666666667,
              29.6675
            ],
            [
              122.24283333333334,
              29.447166666666668
            ],
            [
              122.24466666666666,
              29.414166666666667
            ],
            [
              122.17583333333333,
              29.387833333333333
            ],
            [
              122.00866666666667,
              29.652
            ]
          ]
        ]
      }
    },
    {
      "type": "Feature",
      "properties": {
        "title": "火箭回收作业—琼航警123/26",
        "url": "https://www.msa.gov.cn/html/cnmsa/hxaq/article/2026/bcc0193109f14feb9810e3c957d66f78.html?hav=1jWj6r2hy2Jd86AvdeuTTtl7Qn",
        "date": "2026-07-08",
        "bureau": "海南海事局",
        "group_count": 1,
        "raw_text": "南海，2026年7月8日1700时至10日2400时在16-42.20N 113-30.38E、16-33.76N 113-37.28E、 16-30.31N 113-33.05E、16-38.75N 113-26.15E四点连线范围内进行火箭回收作业。过往船舶禁止驶入。",
        "valid_start": "2026-07-08T09:00:00+00:00",
        "valid_end": "2026-07-10T16:00:00+00:00",
        "valid_raw": [
          "2026年7月8日1700时至10日2400时"
        ],
        "group_index": 1,
        "kind": "area"
      },
      "geometry": {
        "type": "Polygon",
        "coordinates": [
          [
            [
              113.50633333333333,
              16.703333333333333
            ],
            [
              113.62133333333334,
              16.562666666666665
            ],
            [
              113.55083333333333,
              16.505166666666668
            ],
            [
              113.43583333333333,
              16.645833333333332
            ],
            [
              113.50633333333333,
              16.703333333333333
            ]
          ]
        ]
      }
    },
    {
      "type": "Feature",
      "properties": {
        "title": "军事训练—琼航警154/26",
        "url": "https://www.msa.gov.cn/html/cnmsa/hxaq/article/2026/bf10bf9557384ff196b5221dcaeafb0e.html?hav=1jWj6r2hy3yfaPnAVgL38ui1qw",
        "date": "2026-08-09",
        "bureau": "海南海事局",
        "group_count": 1,
        "raw_text": "南海，自8月10日至8月12日，每日1930时至2130时，在以19-37.12N /110-57.32E为中心，5.4海里为半径的圆形区域内进行军事训练，禁止驶入。",
        "valid_start": "2026-08-10T11:30:00+00:00",
        "valid_end": "2026-08-12T13:30:00+00:00",
        "valid_raw": [
          "自8月10日至8月12日，每日1930时至2130时"
        ],
        "group_index": 1,
        "kind": "point"
      },
      "geometry": {
        "type": "Point",
        "coordinates": [
          110.95533333333333,
          19.618666666666666
        ]
      }
    },
    {
      "type": "Feature",
      "properties": {
        "title": "军事训练—琼航警153/26",
        "url": "https://www.msa.gov.cn/html/cnmsa/hxaq/article/2026/c24e16f02e7842098d7ffa1f44de9676.html?hav=1jWj6r2hy3yfaPnAQDI1xy5e0O",
        "date": "2026-08-09",
        "bureau": "海南海事局",
        "group_count": 1,
        "raw_text": "南海，自8月11日0600时至1500时，在18-35.00N/110-29.00E、18-55.00N/110-29.00E、18-55.00N/110-42.00E和18-35.00N/110-42.00E四点连线水域范围内进行军事训练，禁止驶入。",
        "valid_start": "2026-08-10T22:00:00+00:00",
        "valid_end": "2026-08-11T07:00:00+00:00",
        "valid_raw": [
          "8月11日0600时至1500时"
        ],
        "group_index": 1,
        "kind": "area"
      },
      "geometry": {
        "type": "Polygon",
        "coordinates": [
          [
            [
              110.48333333333333,
              18.583333333333332
            ],
            [
              110.48333333333333,
              18.916666666666668
            ],
            [
              110.7,
              18.916666666666668
            ],
            [
              110.7,
              18.583333333333332
            ],
            [
              110.48333333333333,
              18.583333333333332
            ]
          ]
        ]
      }
    },
    {
      "type": "Feature",
      "properties": {
        "title": "军事训练—桂航警166/26",
        "url": "https://www.msa.gov.cn/html/cnmsa/hxaq/article/2026/c547c212bf0c430c8cbbbf29d3db443a.html?hav=1jWj6r2hy2JdK2otr2QEhJ4SN6",
        "date": "2026-07-22",
        "bureau": "广西海事局",
        "group_count": 2,
        "raw_text": "北部湾，7月23日0600时至26日2000时，将在1）21-18.22N 109-30.11E；2）21-19.61N 109-38.05E；3）21-13.35N 109-40.62E；4）20-40.03N 109-32.95E；5）20-01.21N 108-42.28E；6）20-18.21N 108-27.80E；7）20-53.57N 109-13.79E诸点连线海域范围内进行军事训练，禁止船舶驶入。训练期间每日2000时至次日0300时船舶可由1）21-00.15N 109-18.15E；2）20-40.02N 109-32.97E；3）20-31.63N 109-21.88E；4）20-46.45N 109-04.75E诸点连线范围内驶过。",
        "valid_start": "2026-07-22T22:00:00+00:00",
        "valid_end": "2026-07-26T12:00:00+00:00",
        "valid_raw": [
          "7月23日0600时至26日2000时"
        ],
        "revoked": true,
        "revoked_by": [
          "桂航警170/26"
        ],
        "group_index": 1,
        "kind": "area"
      },
      "geometry": {
        "type": "Polygon",
        "coordinates": [
          [
            [
              109.50183333333334,
              21.30366666666667
            ],
            [
              109.63416666666667,
              21.326833333333333
            ],
            [
              109.677,
              21.2225
            ],
            [
              109.54916666666666,
              20.667166666666667
            ],
            [
              108.70466666666667,
              20.020166666666668
            ],
            [
              108.46333333333334,
              20.3035
            ],
            [
              109.22983333333333,
              20.892833333333332
            ],
            [
              109.50183333333334,
              21.30366666666667
            ]
          ]
        ]
      }
    },
    {
      "type": "Feature",
      "properties": {
        "title": "军事训练—桂航警166/26",
        "url": "https://www.msa.gov.cn/html/cnmsa/hxaq/article/2026/c547c212bf0c430c8cbbbf29d3db443a.html?hav=1jWj6r2hy2JdK2otr2QEhJ4SN6",
        "date": "2026-07-22",
        "bureau": "广西海事局",
        "group_count": 2,
        "raw_text": "北部湾，7月23日0600时至26日2000时，将在1）21-18.22N 109-30.11E；2）21-19.61N 109-38.05E；3）21-13.35N 109-40.62E；4）20-40.03N 109-32.95E；5）20-01.21N 108-42.28E；6）20-18.21N 108-27.80E；7）20-53.57N 109-13.79E诸点连线海域范围内进行军事训练，禁止船舶驶入。训练期间每日2000时至次日0300时船舶可由1）21-00.15N 109-18.15E；2）20-40.02N 109-32.97E；3）20-31.63N 109-21.88E；4）20-46.45N 109-04.75E诸点连线范围内驶过。",
        "valid_start": "2026-07-22T22:00:00+00:00",
        "valid_end": "2026-07-26T12:00:00+00:00",
        "valid_raw": [
          "7月23日0600时至26日2000时"
        ],
        "revoked": true,
        "revoked_by": [
          "桂航警170/26"
        ],
        "group_index": 2,
        "kind": "area"
      },
      "geometry": {
        "type": "Polygon",
        "coordinates": [
          [
            [
              109.3025,
              21.0025
            ],
            [
              109.5495,
              20.667
            ],
            [
              109.36466666666666,
              20.527166666666666
            ],
            [
              109.07916666666667,
              20.774166666666666
            ],
            [
              109.3025,
              21.0025
            ]
          ]
        ]
      }
    },
    {
      "type": "Feature",
      "properties": {
        "title": "军事演习—闽航警126/26",
        "url": "https://www.msa.gov.cn/html/cnmsa/hxaq/article/2026/c8e1fab9bb07494990a47b7121bc56e2.html?hav=1jWj6r2hy2JdK2otwL9pRpIYDA",
        "date": "2026-07-22",
        "bureau": "福建海事局",
        "group_count": 2,
        "raw_text": "台湾海峡，东海， 2026年7月23日0600时至1800时，在以下五点连线范围内进行实弹射击： 1）23-41.31N、117-31.49E 2）23-36.23N、117-28.73E 3）23-35.10N、117-30.10E 4）23-38.60N、117-36.21E 5）23-41.30N、117-34.58E 7月24日0600时至1800时，在以下四点连线范围内进行实弹射击： 1）23-37.00N、117-26.50E 2）23-37.00N、117-29.50E 3）23-33.00N、117-29.50E 4）23-33.00N、117-26.50E 禁止进入。",
        "valid_start": "2026-07-22T22:00:00+00:00",
        "valid_end": "2026-07-24T10:00:00+00:00",
        "valid_raw": [
          "2026年7月23日0600时至1800时",
          "7月24日0600时至1800时"
        ],
        "group_index": 1,
        "kind": "area"
      },
      "geometry": {
        "type": "Polygon",
        "coordinates": [
          [
            [
              117.52483333333333,
              23.6885
            ],
            [
              117.47883333333333,
              23.603833333333334
            ],
            [
              117.50166666666667,
              23.585
            ],
            [
              117.6035,
              23.643333333333334
            ],
            [
              117.57633333333334,
              23.688333333333333
            ],
            [
              117.52483333333333,
              23.6885
            ]
          ]
        ]
      }
    },
    {
      "type": "Feature",
      "properties": {
        "title": "军事演习—闽航警126/26",
        "url": "https://www.msa.gov.cn/html/cnmsa/hxaq/article/2026/c8e1fab9bb07494990a47b7121bc56e2.html?hav=1jWj6r2hy2JdK2otwL9pRpIYDA",
        "date": "2026-07-22",
        "bureau": "福建海事局",
        "group_count": 2,
        "raw_text": "台湾海峡，东海， 2026年7月23日0600时至1800时，在以下五点连线范围内进行实弹射击： 1）23-41.31N、117-31.49E 2）23-36.23N、117-28.73E 3）23-35.10N、117-30.10E 4）23-38.60N、117-36.21E 5）23-41.30N、117-34.58E 7月24日0600时至1800时，在以下四点连线范围内进行实弹射击： 1）23-37.00N、117-26.50E 2）23-37.00N、117-29.50E 3）23-33.00N、117-29.50E 4）23-33.00N、117-26.50E 禁止进入。",
        "valid_start": "2026-07-22T22:00:00+00:00",
        "valid_end": "2026-07-24T10:00:00+00:00",
        "valid_raw": [
          "2026年7月23日0600时至1800时",
          "7月24日0600时至1800时"
        ],
        "group_index": 2,
        "kind": "area"
      },
      "geometry": {
        "type": "Polygon",
        "coordinates": [
          [
            [
              117.44166666666666,
              23.616666666666667
            ],
            [
              117.49166666666666,
              23.616666666666667
            ],
            [
              117.49166666666666,
              23.55
            ],
            [
              117.44166666666666,
              23.55
            ],
            [
              117.44166666666666,
              23.616666666666667
            ]
          ]
        ]
      }
    },
    {
      "type": "Feature",
      "properties": {
        "title": "实弹射击—粤航警556/26",
        "url": "https://www.msa.gov.cn/html/cnmsa/hxaq/article/2026/cc2d6488306041ebac932e9398225252.html?hav=1jWj6r2hy3yfgGnOxEDEjZ0YwG",
        "date": "2026-08-11",
        "bureau": "广东海事局",
        "group_count": 1,
        "raw_text": "南海，8月12日0500时至1800时，以下四点连线海域内进行实弹射击： （1）22-48.33N 115-55.38E; （2）22-50.98N 116-03.62E; （3）22-44.93N 116-03.57E; （4）22-43.85N 115-55.04E。禁止驶入。",
        "valid_start": "2026-08-11T21:00:00+00:00",
        "valid_end": "2026-08-12T10:00:00+00:00",
        "valid_raw": [
          "8月12日0500时至1800时"
        ],
        "group_index": 1,
        "kind": "area"
      },
      "geometry": {
        "type": "Polygon",
        "coordinates": [
          [
            [
              115.923,
              22.8055
            ],
            [
              116.06033333333333,
              22.849666666666668
            ],
            [
              116.0595,
              22.748833333333334
            ],
            [
              115.91733333333333,
              22.730833333333333
            ],
            [
              115.923,
              22.8055
            ]
          ]
        ]
      }
    },
    {
      "type": "Feature",
      "properties": {
        "title": "军事活动—云航警125/26",
        "url": "https://www.msa.gov.cn/html/cnmsa/hxaq/article/2026/cf6f61a68f8743dfba489b84093249e5.html?hav=1jWj6r2hy3yfaJwAMUyCjwg2Uz",
        "date": "2026-08-05",
        "bureau": "连云港海事局",
        "group_count": 2,
        "raw_text": "黄海南部，8月6日0800时至2000时，在34-55.89N 119-26.78E、34-55.89N 119-28.10E、34-54.81N 119-28.10E和34-54.81N 119-26.78E四点连线范围内以及34-55.05N 119-27.59E、34-55.05N 119-28.91E、34-53.96N 119-28.91E和34-53.96N 119-27.59E四点连线范围内进行军事活动，禁止驶入。",
        "valid_start": "2026-08-06T00:00:00+00:00",
        "valid_end": "2026-08-06T12:00:00+00:00",
        "valid_raw": [
          "8月6日0800时至2000时"
        ],
        "group_index": 1,
        "kind": "area"
      },
      "geometry": {
        "type": "Polygon",
        "coordinates": [
          [
            [
              119.44633333333333,
              34.9315
            ],
            [
              119.46833333333333,
              34.9315
            ],
            [
              119.46833333333333,
              34.9135
            ],
            [
              119.44633333333333,
              34.9135
            ],
            [
              119.44633333333333,
              34.9315
            ]
          ]
        ]
      }
    },
    {
      "type": "Feature",
      "properties": {
        "title": "军事活动—云航警125/26",
        "url": "https://www.msa.gov.cn/html/cnmsa/hxaq/article/2026/cf6f61a68f8743dfba489b84093249e5.html?hav=1jWj6r2hy3yfaJwAMUyCjwg2Uz",
        "date": "2026-08-05",
        "bureau": "连云港海事局",
        "group_count": 2,
        "raw_text": "黄海南部，8月6日0800时至2000时，在34-55.89N 119-26.78E、34-55.89N 119-28.10E、34-54.81N 119-28.10E和34-54.81N 119-26.78E四点连线范围内以及34-55.05N 119-27.59E、34-55.05N 119-28.91E、34-53.96N 119-28.91E和34-53.96N 119-27.59E四点连线范围内进行军事活动，禁止驶入。",
        "valid_start": "2026-08-06T00:00:00+00:00",
        "valid_end": "2026-08-06T12:00:00+00:00",
        "valid_raw": [
          "8月6日0800时至2000时"
        ],
        "group_index": 2,
        "kind": "area"
      },
      "geometry": {
        "type": "Polygon",
        "coordinates": [
          [
            [
              119.45983333333334,
              34.9175
            ],
            [
              119.48183333333333,
              34.9175
            ],
            [
              119.48183333333333,
              34.89933333333333
            ],
            [
              119.45983333333334,
              34.89933333333333
            ],
            [
              119.45983333333334,
              34.9175
            ]
          ]
        ]
      }
    },
    {
      "type": "Feature",
      "properties": {
        "title": "军事训练—津航警261/26",
        "url": "https://www.msa.gov.cn/html/cnmsa/hxaq/article/2026/d2ce42243b484b74ad5fe822c36f7536.html?hav=1jWj6r2hy3yfgLBeXl7Zwx9HAV",
        "date": "2026-08-14",
        "bureau": "天津海事局",
        "group_count": 1,
        "raw_text": "渤海，8月17日0800时至19日1700时，在38-42.80N 118-05.50E,38-42.80N 118-11.50E,38-40.80N 118-11.50E,38-40.80N 118-05.50E四点连线范围内进行军事训练。禁止驶入。",
        "valid_start": "2026-08-17T00:00:00+00:00",
        "valid_end": "2026-08-19T09:00:00+00:00",
        "valid_raw": [
          "8月17日0800时至19日1700时"
        ],
        "group_index": 1,
        "kind": "area"
      },
      "geometry": {
        "type": "Polygon",
        "coordinates": [
          [
            [
              118.09166666666667,
              38.71333333333333
            ],
            [
              118.19166666666666,
              38.71333333333333
            ],
            [
              118.19166666666666,
              38.68
            ],
            [
              118.09166666666667,
              38.68
            ],
            [
              118.09166666666667,
              38.71333333333333
            ]
          ]
        ]
      }
    },
    {
      "type": "Feature",
      "properties": {
        "title": "军事训练—琼航警141/26",
        "url": "https://www.msa.gov.cn/html/cnmsa/hxaq/article/2026/d6cada1eaa1b4f1091fe8912af222264.html?hav=1jWj6r2hy3yfaE59xerhvSI0zU",
        "date": "2026-08-01",
        "bureau": "海南海事局",
        "group_count": 1,
        "raw_text": "南海，2026年8月3日至2026年8月7日每日0500至2400时，8月8日0700-1800时，在17-52.00N 109-00.00E、17-52.00N 109-50.00E、17-21.00N 109-50.00E、17-21.00N 109-00.00E四点连线水域范围内进行军事训练，禁止驶入。",
        "valid_start": "2026-08-02T21:00:00+00:00",
        "valid_end": "2026-08-08T10:00:00+00:00",
        "valid_raw": [
          "2026年8月3日至2026年8月7日每日0500至2400时",
          "8月8日0700-1800时"
        ],
        "group_index": 1,
        "kind": "area"
      },
      "geometry": {
        "type": "Polygon",
        "coordinates": [
          [
            [
              109.0,
              17.866666666666667
            ],
            [
              109.83333333333333,
              17.866666666666667
            ],
            [
              109.83333333333333,
              17.35
            ],
            [
              109.0,
              17.35
            ],
            [
              109.0,
              17.866666666666667
            ]
          ]
        ]
      }
    },
    {
      "type": "Feature",
      "properties": {
        "title": "实弹射击—云航警108/26",
        "url": "https://www.msa.gov.cn/html/cnmsa/hxaq/article/2026/d72fed54e5514869af93348b5ebd979a.html?hav=1jWj6r2hy2JdDxBA01mdT6zQ93",
        "date": "2026-07-10",
        "bureau": "连云港海事局",
        "group_count": 1,
        "raw_text": "黄海南部，自7月16日至7月17日每天0900时至1200时、1500时至1800时在34-03.11N120-24.23E,34-01.53N120-24.48E,34-00.67N120-30.22E,34-07.71N120-27.00E诸点连线范围内进行实弹射击。禁止驶入。",
        "valid_start": "2026-07-16T01:00:00+00:00",
        "valid_end": "2026-07-17T04:00:00+00:00",
        "valid_raw": [
          "自7月16日至7月17日每天0900时至1200时"
        ],
        "group_index": 1,
        "kind": "area"
      },
      "geometry": {
        "type": "Polygon",
        "coordinates": [
          [
            [
              120.40383333333334,
              34.051833333333335
            ],
            [
              120.408,
              34.0255
            ],
            [
              120.50366666666666,
              34.01116666666667
            ],
            [
              120.45,
              34.1285
            ],
            [
              120.40383333333334,
              34.051833333333335
            ]
          ]
        ]
      }
    },
    {
      "type": "Feature",
      "properties": {
        "title": "军事训练—桂航警171/26",
        "url": "https://www.msa.gov.cn/html/cnmsa/hxaq/article/2026/dc18780440494586a069d5d27266fb91.html?hav=1jWj6r2hy2JdKBbPHrQDXRjfbm",
        "date": "2026-07-28",
        "bureau": "广西海事局",
        "group_count": 1,
        "raw_text": "北部湾，7月29日至7月30日每日1200时至1800时，在21-23.00N 108-47.40E；21-23.00N 108-58.00E；21-12.40N 108-58.00E；21-12.40N 108-47.40E连线海域范围内进行军事训练，禁止船舶驶入。",
        "valid_start": "2026-07-29T04:00:00+00:00",
        "valid_end": "2026-07-30T10:00:00+00:00",
        "valid_raw": [
          "7月29日至7月30日每日1200时至1800时"
        ],
        "group_index": 1,
        "kind": "area"
      },
      "geometry": {
        "type": "Polygon",
        "coordinates": [
          [
            [
              108.79,
              21.383333333333333
            ],
            [
              108.96666666666667,
              21.383333333333333
            ],
            [
              108.96666666666667,
              21.206666666666667
            ],
            [
              108.79,
              21.206666666666667
            ],
            [
              108.79,
              21.383333333333333
            ]
          ]
        ]
      }
    },
    {
      "type": "Feature",
      "properties": {
        "title": "渤海军事演习—辽航警309/26",
        "url": "https://www.msa.gov.cn/html/cnmsa/hxaq/article/2026/df805fe2a88944b1b577952b207af61c.html?hav=1jWj6r2hy2JdE4Uun1K4uiElTX",
        "date": "2026-07-15",
        "bureau": "辽宁海事局",
        "group_count": 1,
        "raw_text": "渤海，自7月16日0430时至7月16日1200时在40-34.59N 120-50.73E、40-34.59N 120-52.27E、40-33.40N 120-52.27E和40-33.40N 120-50.73E诸04点连线范围内进行军事演习。禁止驶入。",
        "valid_start": "2026-07-15T20:30:00+00:00",
        "valid_end": "2026-07-16T04:00:00+00:00",
        "valid_raw": [
          "7月16日0430时至7月16日1200时"
        ],
        "group_index": 1,
        "kind": "area"
      },
      "geometry": {
        "type": "Polygon",
        "coordinates": [
          [
            [
              120.8455,
              40.5765
            ],
            [
              120.87116666666667,
              40.5765
            ],
            [
              120.87116666666667,
              40.556666666666665
            ],
            [
              120.8455,
              40.556666666666665
            ],
            [
              120.8455,
              40.5765
            ]
          ]
        ]
      }
    },
    {
      "type": "Feature",
      "properties": {
        "title": "渤海军事演习—辽航警329/26",
        "url": "https://www.msa.gov.cn/html/cnmsa/hxaq/article/2026/e03a56f7875a44e9b426680f44cd2653.html?hav=1jWj6r2hy2JdKD49vfaoejLTTJ",
        "date": "2026-07-29",
        "bureau": "辽宁海事局",
        "group_count": 1,
        "raw_text": "渤海，自7月30日1200时至1900时在40-28.2N 120-58.73E、40-24.59N 121-03.98E、40-18.56N 120-56.89E和40-22.17N 120-51.64E诸点连线范围内进行军事演习。禁止驶入。",
        "valid_start": "2026-07-30T04:00:00+00:00",
        "valid_end": "2026-07-30T11:00:00+00:00",
        "valid_raw": [
          "7月30日1200时至1900时"
        ],
        "group_index": 1,
        "kind": "area"
      },
      "geometry": {
        "type": "Polygon",
        "coordinates": [
          [
            [
              120.97883333333333,
              40.47
            ],
            [
              121.06633333333333,
              40.40983333333333
            ],
            [
              120.94816666666667,
              40.309333333333335
            ],
            [
              120.86066666666666,
              40.3695
            ],
            [
              120.97883333333333,
              40.47
            ]
          ]
        ]
      }
    },
    {
      "type": "Feature",
      "properties": {
        "title": "渤海军事演习—辽航警322/26",
        "url": "https://www.msa.gov.cn/html/cnmsa/hxaq/article/2026/e31b94304e4e45c59d7714ce03b42557.html?hav=1jWj6r2hy2JdK8fuAdev6gH06c",
        "date": "2026-07-26",
        "bureau": "辽宁海事局",
        "group_count": 1,
        "raw_text": "渤海，自7月27日1000时至27日1900时在40-41.55N 120-59.56E、40-41.53N 121-03.20E、40-39.80N 121-03.22E和40-39.83N 120-59.53E诸点连线范围内进行军事演习。禁止驶入。",
        "valid_start": "2026-07-27T02:00:00+00:00",
        "valid_end": "2026-07-27T11:00:00+00:00",
        "valid_raw": [
          "7月27日1000时至27日1900时"
        ],
        "group_index": 1,
        "kind": "area"
      },
      "geometry": {
        "type": "Polygon",
        "coordinates": [
          [
            [
              120.99266666666666,
              40.6925
            ],
            [
              121.05333333333333,
              40.692166666666665
            ],
            [
              121.05366666666667,
              40.663333333333334
            ],
            [
              120.99216666666666,
              40.663833333333336
            ],
            [
              120.99266666666666,
              40.6925
            ]
          ]
        ]
      }
    },
    {
      "type": "Feature",
      "properties": {
        "title": "实弹射击—粤航警531/26",
        "url": "https://www.msa.gov.cn/html/cnmsa/hxaq/article/2026/e87615213a934ecc8048267320987b4b.html?hav=1jWj6r2hy3yfaH0fA6Ct5Dk9dS",
        "date": "2026-08-03",
        "bureau": "广东海事局",
        "group_count": 1,
        "raw_text": "南海，8月5日1300至1500时，在以下4点连线水域范围内进行实弹射击： （1）21-20.80N 111-46.70E， （2）21-20.80N 111-51.50E, （3）21-15.50N 111-51.50E, （4）21-15.50N 111-46.70E,禁止驶入。",
        "valid_start": "2026-08-05T05:00:00+00:00",
        "valid_end": "2026-08-05T07:00:00+00:00",
        "valid_raw": [
          "8月5日1300至1500时"
        ],
        "group_index": 1,
        "kind": "area"
      },
      "geometry": {
        "type": "Polygon",
        "coordinates": [
          [
            [
              111.77833333333334,
              21.346666666666668
            ],
            [
              111.85833333333333,
              21.346666666666668
            ],
            [
              111.85833333333333,
              21.258333333333333
            ],
            [
              111.77833333333334,
              21.258333333333333
            ],
            [
              111.77833333333334,
              21.346666666666668
            ]
          ]
        ]
      }
    },
    {
      "type": "Feature",
      "properties": {
        "title": "实弹射击—粤航警514/26",
        "url": "https://www.msa.gov.cn/html/cnmsa/hxaq/article/2026/ee0e90df5ada4878a0fc51d8a5e1a6b3.html?hav=1jWj6r2hy2JdQ44O7W9V5abna1",
        "date": "2026-07-31",
        "bureau": "广东海事局",
        "group_count": 1,
        "raw_text": "南海，8月4日0700时至1500时和8月5日1100时至1400时，在以下四点连线海域内进行实弹射击： （1）21-47.00N 113-38.00E； （2）21-47.00N 113-41.00E； （3）21-44.00N 113-41.00E; （4）21-44.00N 113-38.00E。禁止驶入。",
        "valid_start": "2026-08-03T23:00:00+00:00",
        "valid_end": "2026-08-05T06:00:00+00:00",
        "valid_raw": [
          "8月4日0700时至1500时",
          "8月5日1100时至1400时"
        ],
        "group_index": 1,
        "kind": "area"
      },
      "geometry": {
        "type": "Polygon",
        "coordinates": [
          [
            [
              113.63333333333334,
              21.783333333333335
            ],
            [
              113.68333333333334,
              21.783333333333335
            ],
            [
              113.68333333333334,
              21.733333333333334
            ],
            [
              113.63333333333334,
              21.733333333333334
            ],
            [
              113.63333333333334,
              21.783333333333335
            ]
          ]
        ]
      }
    },
    {
      "type": "Feature",
      "properties": {
        "title": "实弹射击—云航警117/26",
        "url": "https://www.msa.gov.cn/html/cnmsa/hxaq/article/2026/f497a44d94c140a3a3b8024ba261c59c.html?hav=1jWj6r2hy2JdK1M9NjHBgefTIe",
        "date": "2026-07-21",
        "bureau": "连云港海事局",
        "group_count": 1,
        "raw_text": "黄海南部，7月22日1000时至1300时，在35-04.00N 120-00.00E、35-04.00N 120-13.00E、34-44.00N 120-13.00E和34-44.00N 120-00.00E四点连线范围内进行实弹射击，禁止驶入。",
        "valid_start": "2026-07-22T02:00:00+00:00",
        "valid_end": "2026-07-22T05:00:00+00:00",
        "valid_raw": [
          "7月22日1000时至1300时"
        ],
        "group_index": 1,
        "kind": "area"
      },
      "geometry": {
        "type": "Polygon",
        "coordinates": [
          [
            [
              120.0,
              35.06666666666667
            ],
            [
              120.21666666666667,
              35.06666666666667
            ],
            [
              120.21666666666667,
              34.733333333333334
            ],
            [
              120.0,
              34.733333333333334
            ],
            [
              120.0,
              35.06666666666667
            ]
          ]
        ]
      }
    },
    {
      "type": "Feature",
      "properties": {
        "title": "军事训练—琼航警128/26",
        "url": "https://www.msa.gov.cn/html/cnmsa/hxaq/article/2026/f5b28caa923748a59079b35b0dd7e6e6.html?hav=1jWj6r2hy2JdE4UusCK6tUxFM1",
        "date": "2026-07-15",
        "bureau": "海南海事局",
        "group_count": 1,
        "raw_text": "南海，自7月21日0600时至7月24日1800时，在19-52.35N/110-57.27E、19-59.70N/110-57.10E、19-59.55N/111-01.78E和19-52.37N/111-00.63E四点连线水域范围内进行军事训练，禁止驶入。",
        "valid_start": "2026-07-20T22:00:00+00:00",
        "valid_end": "2026-07-24T10:00:00+00:00",
        "valid_raw": [
          "7月21日0600时至7月24日1800时"
        ],
        "group_index": 1,
        "kind": "area"
      },
      "geometry": {
        "type": "Polygon",
        "coordinates": [
          [
            [
              110.9545,
              19.8725
            ],
            [
              110.95166666666667,
              19.995
            ],
            [
              111.02966666666667,
              19.9925
            ],
            [
              111.0105,
              19.872833333333332
            ],
            [
              110.9545,
              19.8725
            ]
          ]
        ]
      }
    }
  ]
}